Company Name,Company Type,Registered,Address,City,State,Country,NACE
ATHLONE DENTAL EXCELLENCE LIMITED,Ltd - Private Company Limited By Shares,02/01/2018,"10 Anglesea Street, Temple Bar ,Dublin 2",Dublin,Leinster,Ireland,[8623] Dental Practice Activities
SHANNON DENTAL EXCELLENCE LIMITED,Ltd - Private Company Limited By Shares,02/01/2018,"10 Anglesea Street, Temple Bar ,Dublin 2",Dublin,Leinster,Ireland,[8623] Dental Practice Activities
BLACKWATER VALLEY FESTIVAL OPERA COMPANY LIMITED BY GUARANTEE,Clg - Company Limited By Guarantee,02/01/2018,"Castleview House, Sandymount Green ,Dublin 4",Dublin,Leinster,Ireland,[9001] Performing Arts
PHENIX CONSOLIDATED LIMITED,Ltd - Private Company Limited By Shares,02/01/2018,"The Old Station House, 15a Main Street ,Blackrock, Co. Dublin",Dublin,Leinster,Ireland,[7010] Activities Of Head Offices
IXD CONSULTING LIMITED,Ltd - Private Company Limited By Shares,02/01/2018,"The Black Church, St. Mary'S Place ,Dublin, D07 P4ax",Dublin,Leinster,Ireland,[8690] Other Human Health Activities
DP DIY LIMITED,Ltd - Private Company Limited By Shares,02/01/2018,"46 Carrickhill Rise, Portmarnock ,Co. Dublin, ",Dublin,Leinster,Ireland,[4339] Other Building Completion And Finishing
DS FANNING CONSTRUCTION LIMITED,Ltd - Private Company Limited By Shares,02/01/2018,"Glasnevin Business Centre, 278 Glasnevin Avenue , Dublin 11, ",Dublin,Leinster,Ireland,[4120] Construction Of Residential And Non-Residential Buildings
PARS ULTIMA LIMITED,Ltd - Private Company Limited By Shares,02/01/2018,"5 Oxmantown Green, Blackhall Street ,Dublin 7, ",Dublin,Leinster,Ireland,[6420] Activities Of Holding Companies
EKSPERT ACCOUNTANCY AND TAX SERVICES LIMITED,Ltd - Private Company Limited By Shares,02/01/2018,"Unit 12 Keypoint,, Rosemount Business Park, ,Dublin 11, ",Dublin,Leinster,Ireland,"[6920] Accounting, Bookkeeping And Auditing Activities; Tax Consultancy"
COMMUNAL LIVING LIMITED,Ltd - Private Company Limited By Shares,02/01/2018,"3rd Floor, Longphort House, Earlsfort Centre ,Earlsfort Terrace, Dublin 2",Dublin,Leinster,Ireland,[6810] Buying And Selling Of Own Real Estate
ATTUROS INVESTMENT TRUST LIMITED,Ltd - Private Company Limited By Shares,02/01/2018,"45 Dale View Park, Killiney ,Co Dublin, ",Dublin,Leinster,Ireland,[6420] Activities Of Holding Companies
LAUREL RIVER CONSULTING LIMITED,Ltd - Private Company Limited By Shares,02/01/2018,"12 Laurel Avenue, Dundrum ,Dublin 14, ",Dublin,Leinster,Ireland,[7022] Business And Other Management Consultancy Activities
MEDIA PUBLISHER & CO. AG LIMITED,Ltd - Private Company Limited By Shares,02/01/2018,"Clifton House Office 70, Fitzwilliam Street Lower ,Dublin 2, ",Dublin,Leinster,Ireland,[8299] Other Business Support Service Activities N.E.C.
DAILY NEWS ADVERTISER LIMITED,Ltd - Private Company Limited By Shares,02/01/2018,"Clifton House Office 70, Fitzwilliam Street Lower ,Dublin 2, ",Dublin,Leinster,Ireland,[8299] Other Business Support Service Activities N.E.C.
KLIR TRADING COMPANY LIMITED,Ltd - Private Company Limited By Shares,02/01/2018,"Dit Greenway Hub, Grangegorman ,Dublin 7, ",Dublin,Leinster,Ireland,[5829] Other Software Publishing
PACIFIC EVENTS LIMITED,Ltd - Private Company Limited By Shares,02/01/2018,"18 Pineview Drive, Aylesbury ,Tallaght,Dublin 24",Dublin,Leinster,Ireland,[9609] Other Personal Service Activities N.E.C.
KILBREE MEDICAL LIMITED,Ltd - Private Company Limited By Shares,03/01/2018,"14 Obelisk Court, Saint Augustine'S Park ,Blackrock,Co. Dublin",Dublin,Leinster,Ireland,"[7490] Other Professional, Scientific And Technical Activities N.E.C."
MOBILITY HUB LIMITED,Ltd - Private Company Limited By Shares,03/01/2018,"54 Parnell Square West, Dublin 1 ",Dublin,Leinster,Ireland,[8560] Educational Support Activities
SCOPE ABOUT LIMITED,Ltd - Private Company Limited By Shares,03/01/2018,"Lfrk Accountantonline Limited, 8-9 Marino Mart ,Fairview, Clontarf, Dublin 3, D03 P9590",Dublin,Leinster,Ireland,[5829] Other Software Publishing
HERBERT STREET CAPITAL LIMITED,Ltd - Private Company Limited By Shares,03/01/2018,"58 Mountain View Road, Ranelagh ,Dublin 6, ",Dublin,Leinster,Ireland,"[6619] Other Activities Auxiliary To Financial Services, Except Insurance And Pension Funding"
MAGIC LOCKSMITH SERVICES LIMITED,Ltd - Private Company Limited By Shares,03/01/2018,"10 Foxborough Manor, Lucan ,Co. Dublin, ",Dublin,Leinster,Ireland,[8020] Security Systems Service Activities
AMOSS SERVICES WARRINGTON LIMITED,Ltd - Private Company Limited By Shares,03/01/2018,"Warrington House, Mount Street Crescent ,Dublin 2, ",Dublin,Leinster,Ireland,[8299] Other Business Support Service Activities N.E.C.
QWABO LIMITED,Ltd - Private Company Limited By Shares,03/01/2018,"Apartment 17, Chamberlain Court ,11/13 Richmond Avenue,Fairview, Dublin 3",Dublin,Leinster,Ireland,[4619] Agents Involved In The Sale Of A Variety Of Goods
FITZPATRICK & CO CHARTERED ACCOUNTANTS LIMITED,Ltd - Private Company Limited By Shares,03/01/2018,"12 Beau Park Avenue, Clongriffin ,Dublin 13, ",Dublin,Leinster,Ireland,"[6920] Accounting, Bookkeeping And Auditing Activities; Tax Consultancy"
HARDINGS KITCHEN LIMITED,Ltd - Private Company Limited By Shares,03/01/2018,"62 Saint Columba'S Road, Greenhills ,Dublin 12, ",Dublin,Leinster,Ireland,[4329] Other Construction Installation
EGLINGTON INVESTMENTS LIMITED,Ltd - Private Company Limited By Shares,03/01/2018,"13 Classon House, Dundrum Business Park ,Dundrum, D14x9f9 ",Dublin,Leinster,Ireland,[6832] Management Of Real Estate On A Fee Or Contract Basis
BAILEEAGLAISE LIMITED,Ltd - Private Company Limited By Shares,03/01/2018,"13 Classon House, Dundrum Business Park ,Dundrum, D14x9f9",Dublin,Leinster,Ireland,[6832] Management Of Real Estate On A Fee Or Contract Basis
STLC EUROPE TWELVE LEASING LIMITED,Ltd - Private Company Limited By Shares,03/01/2018,"2 Hume Street, Dublin 2 ",Dublin,Leinster,Ireland,[5110] Passenger Air Transport
PFX CONSULTING LIMITED,Ltd - Private Company Limited By Shares,03/01/2018,"54 Blackthorn Close, Portmarnock ,Co. Dublin",Dublin,Leinster,Ireland,"[6920] Accounting, Bookkeeping And Auditing Activities; Tax Consultancy"
TMO ANALYSTS LIMITED,Ltd - Private Company Limited By Shares,03/01/2018,"4 Saint Alban'S Park, Sandymount ,Dublin 4",Dublin,Leinster,Ireland,[6202] Computer Consultancy Activities
ER BUILDING GROUP LIMITED,Ltd - Private Company Limited By Shares,03/01/2018,"1 Bow Bridge Business Centre, Bow Lane West ,Kilmainham,Dublin 8",Dublin,Leinster,Ireland,[4339] Other Building Completion And Finishing
STOVEPIPE BLAZE SOURDOUGH PIZZA BAKERY LIMITED,Ltd - Private Company Limited By Shares,03/01/2018,"10 Killeen Court, Malahide ,Co. Dublin",Dublin,Leinster,Ireland,[5610] Restaurants And Mobile Food Service Activities
KOB PROJECT MANAGEMENT LIMITED,Ltd - Private Company Limited By Shares,03/01/2018,"32 Glenville Way, Castleknock ,Dublin 15",Dublin,Leinster,Ireland,[7022] Business And Other Management Consultancy Activities
BEACHRUM TRADERS LIMITED,Ltd - Private Company Limited By Shares,03/01/2018,"16 Main Street, Blackrock ,Co Dublin",Dublin,Leinster,Ireland,[5630] Beverage Serving Activities
THE LYPTON VILLAGE CANDLE COMPANY LIMITED,Ltd - Private Company Limited By Shares,03/01/2018,"Bloomsday, 30 Belgrove Lawn ,Chapelizod, Dublin 20",Dublin,Leinster,Ireland,[4690] Non-Specialised Wholesale Trade
MILLIE & BINKY LIMITED,Ltd - Private Company Limited By Shares,03/01/2018,"59 Portmarnock Crescent, Portmarnock , Co. Dublin",Dublin,Leinster,Ireland,[6420] Activities Of Holding Companies
NORTHERN HEMISPHERE SAILING LIMITED,Ltd - Private Company Limited By Shares,03/01/2018,"71 O'Connell Street, Limerick ",Dublin,Leinster,Ireland,[9609] Other Personal Service Activities N.E.C.
LUCOSYS TECHNOLOGY LIMITED,Ltd - Private Company Limited By Shares,03/01/2018,"63 Cloncurry House, Spencer Dock ,Park Lane, Dublin, Do1 Hp66",Dublin,Leinster,Ireland,[7022] Business And Other Management Consultancy Activities
RLS SEARCH LIMITED,Ltd - Private Company Limited By Shares,03/01/2018,"Unit 12, Terenure Enterprise Centre ,17 Rathfarnham Road, Dublin 6w",Dublin,Leinster,Ireland,[7810] Activities Of Employment Placement Agencies
RS FITNESS SOLUTIONS LIMITED,Ltd - Private Company Limited By Shares,03/01/2018,"42 Glenavon Park, Ballybrack ,Co. Dublin",Dublin,Leinster,Ireland,[8899] Other Social Work Activities Without Accommodation N.E.C.
CLOUDOLOGY LIMITED,Ltd - Private Company Limited By Shares,03/01/2018,"Dún Na Rí, 4 Barnhill Lawn ,Dalkey,Co. Dublin",Dublin,Leinster,Ireland,[6202] Computer Consultancy Activities
THE BARBER SCHOOL OF EXCELLENCE LIMITED,Ltd - Private Company Limited By Shares,03/01/2018,"55 South King Street, Dublin 2 , , ",Dublin,Leinster,Ireland,[9609] Other Personal Service Activities N.E.C.
GRANGE PARK DEVELOPMENTS LIMITED,Ltd - Private Company Limited By Shares,03/01/2018,"21 Grange Park, Rathfarnham ,Dublin 14, ",Dublin,Leinster,Ireland,[4399] Other Specialised Construction Activities N.E.C.
ADRIAN HILL ARCHITECTS LIMITED,Ltd - Private Company Limited By Shares,03/01/2018,"No 13, The Seapoint Building ,44-45 Clontarf Road,Dublin 3",Dublin,Leinster,Ireland,[7111] Architectural Activities
TOPLINE PLASTERING LIMITED,Ltd - Private Company Limited By Shares,03/01/2018,"60 Cherry Park, Swords ,Co. Dublin, ",Dublin,Leinster,Ireland,[4331] Plastering
REDHILL BELL LIMITED,Ltd - Private Company Limited By Shares,04/01/2018,"44 Main Street, Ongar Village ,Dublin 15, ",Dublin,Leinster,Ireland,[6420] Activities Of Holding Companies
BUDGET AUTOS CENTRE LIMITED,Ltd - Private Company Limited By Shares,04/01/2018,"121 Drimnagh Road, Dublin 12 ",Dublin,Leinster,Ireland,[4520] Maintenance And Repair Of Motor Vehicles
REDTED MEDIA LIMITED,Ltd - Private Company Limited By Shares,04/01/2018,"22 Knights Bridge, Castle Avenue ,Clontarf,Dublin 3",Dublin,Leinster,Ireland,"[5911] Motion Picture, Video And Television Programme Production Activities"
IPROVIDENT LIMITED,Ltd - Private Company Limited By Shares,04/01/2018,"88 Botanic Avenue, Glasnevin ,Dublin 9",Dublin,Leinster,Ireland,[6201] Computer Programming Activities
BICUDA LIMITED,Ltd - Private Company Limited By Shares,04/01/2018,"13 Classon Hosue, Dundrum Business Park ,Dundrum, D14x9f9",Dublin,Leinster,Ireland,[6832] Management Of Real Estate On A Fee Or Contract Basis
ANDREI MIREUTA LIMITED,Ltd - Private Company Limited By Shares,04/01/2018,"31 Westland Square, Pearse Street ,Dublin 2, ",Dublin,Leinster,Ireland,[6202] Computer Consultancy Activities
FLORIN PENCIU LIMITED,Ltd - Private Company Limited By Shares,04/01/2018,"31 Westland Square, Pearse Street ,Dublin 2, ",Dublin,Leinster,Ireland,[7112] Engineering Activities And Related Technical Consultancy
H & G CREATIONS LIMITED,Ltd - Private Company Limited By Shares,04/01/2018,"The Mart, Parkerhill Studios ,Unit 2/3 Parkerhill,Rathmines, Dublin 6",Dublin,Leinster,Ireland,[8299] Other Business Support Service Activities N.E.C.
ARÍS TECHNOLOGIES LIMITED,Ltd - Private Company Limited By Shares,04/01/2018,"Office 115, 4-5 Burton Hall Road, Sandyford ,Dublin 18, ",Dublin,Leinster,Ireland,[3299] Other Manufacturing N.E.C.
CR ROBOTICS LIMITED,Ltd - Private Company Limited By Shares,04/01/2018,"3rd Floor, Unit 59 ,Táin Court, Block D,Bridge Street",Dublin,Leinster,Ireland,[7022] Business And Other Management Consultancy Activities
ELVARDO LIMITED,Ltd - Private Company Limited By Shares,04/01/2018,"50a Rosemount Park Drive, Rosemount Business Park ,Ballycoolin,Dublin 11",Dublin,Leinster,Ireland,[7022] Business And Other Management Consultancy Activities
COSMIC CHARM LIMITED,Ltd - Private Company Limited By Shares,04/01/2018,"50a Rosemount Park Drive, Rosemount Business Park ,Ballycoolin,Dublin 11",Dublin,Leinster,Ireland,[7022] Business And Other Management Consultancy Activities
ATHLONE CAR PARTS LIMITED,Ltd - Private Company Limited By Shares,04/01/2018,"Unit 66, Greenogue Industrial Estate ,Rathcoole,Co. Dublin",Dublin,Leinster,Ireland,[4532] Retail Trade Of Motor Vehicle Parts And Accessories
TRUFFLE TREE LIMITED,Ltd - Private Company Limited By Shares,04/01/2018,"6 Marlborough Mews, North Circular Road ,Dublin 7, ",Dublin,Leinster,Ireland,[5610] Restaurants And Mobile Food Service Activities
GERAGHTY PROPERTY MAINTENANCE SERVICES LIMITED,Ltd - Private Company Limited By Shares,04/01/2018,"15 Naas Road, Clondalkin ,Dublin 22, ",Dublin,Leinster,Ireland,[6832] Management Of Real Estate On A Fee Or Contract Basis
DAMASCUS PASSION LIMITED,Ltd - Private Company Limited By Shares,04/01/2018,"81 Terenure Road North, Dublin 6w",Dublin,Leinster,Ireland,[5610] Restaurants And Mobile Food Service Activities
E-FRONTIERS EDUCATION LIMITED,Ltd - Private Company Limited By Shares,04/01/2018,"Dmg Business Centre, 12 Camden Row ,Dublin 8",Dublin,Leinster,Ireland,[7810] Activities Of Employment Placement Agencies
COMMUNICATION & AFFAIRES SERVICES LIMITED,Ltd - Private Company Limited By Shares,04/01/2018,"The Old Station House, 15a Main Street ,Blackrock, Co. Dublin",Dublin,Leinster,Ireland,[7021] Public Relations And Communication Activities
ALTITRADE N.S. LIMITED,Ltd - Private Company Limited By Shares,04/01/2018,"The Old Station House, 15a Main Street ,Blackrock, Co. Dublin",Dublin,Leinster,Ireland,[4619] Agents Involved In The Sale Of A Variety Of Goods
JLK 100M. CORP LIMITED,Ltd - Private Company Limited By Shares,04/01/2018,"24 (Upper Floor), Main Street, ,Blackrock,,Co. Dublin, A94 K8r9",Dublin,Leinster,Ireland,[4120] Construction Of Residential And Non-Residential Buildings
JLKS CORP 10 LIMITED,Ltd - Private Company Limited By Shares,04/01/2018,"24 (Upper Floor), Main Street, ,Blackrock,,Co. Dublin, A94 K8r9",Dublin,Leinster,Ireland,[6810] Buying And Selling Of Own Real Estate
VANGUARDHIVE E-VENTURES LIMITED,Ltd - Private Company Limited By Shares,04/01/2018,"Lower Ground Floor, 64 Lower Mount Street ,Dublin 2",Dublin,Leinster,Ireland,[7022] Business And Other Management Consultancy Activities
VENU SANZ CHEF LIMITED,Ltd - Private Company Limited By Shares,04/01/2018,"8 South Great George'S Street, Dublin 2 ",Dublin,Leinster,Ireland,[8559] Other Education N.E.C.
EQUIPCAR LIMITED,Ltd - Private Company Limited By Shares,04/01/2018,"8 South Great George'S Street, Dublin 2 ",Dublin,Leinster,Ireland,[4531] Wholesale Trade Of Motor Vehicle Parts And Accessories
MAIDEN ONE (SERVICES AND CONSULTING) LIMITED,Ltd - Private Company Limited By Shares,05/01/2018,"Unit 68, Block 3a ,Western Parkway Business Park,Ballymount Road Lower, Dublin 12",Dublin,Leinster,Ireland,[4110] Development Of Building Projects
UNIQUE STORE LIMITED,Ltd - Private Company Limited By Shares,05/01/2018,"Kimex Direct, Unit 7 ,Goldenbridge Industrial Estate,Inchicore, Dublin 8",Dublin,Leinster,Ireland,[9609] Other Personal Service Activities N.E.C.
SME ALTERNATIVE FINANCING DESIGNATED ACTIVITY COMPANY,Dac - Designated Activity Company (Limited By Shares),05/01/2018,"5th Floor, The Exchange ,George'S Dock, Ifsc,Dublin 1, Ireland",Dublin,Leinster,Ireland,"[6499] Other Financial Service Activities, Except Insurance And Pension Funding N.E.C."
UNDERGROUND PROMOTIONS LIMITED,Ltd - Private Company Limited By Shares,05/01/2018,"Marina House, Clarence Street, Dun Laoghaire ,Co. Dublin, ",Dublin,Leinster,Ireland,[8230] Organisation Of Conventions And Trade Shows
BITIRELAND BROKER LIMITED,Ltd - Private Company Limited By Shares,05/01/2018,"Riverside One, Sir John Rogerson'S Quay ,Dublin 2,D02 X576",Dublin,Leinster,Ireland,"[6499] Other Financial Service Activities, Except Insurance And Pension Funding N.E.C."
EJF FUNDING DESIGNATED ACTIVITY COMPANY,Dac - Designated Activity Company (Limited By Shares),05/01/2018,"2nd Floor, Palmerston House, Fenian Street ,Dublin 2, ",Dublin,Leinster,Ireland,"[6499] Other Financial Service Activities, Except Insurance And Pension Funding N.E.C."
JENNY WREN'S CATERING LIMITED,Ltd - Private Company Limited By Shares,05/01/2018,"2 Seaview Avenue, Baldoyle ,Dublin 13, ",Dublin,Leinster,Ireland,[5621] Event Catering Activities
BROADBENT WINES LIMITED,Ltd - Private Company Limited By Shares,05/01/2018,"3rd Floor, Kilmore House, Park Lane, Spencer Dock ,Dublin 1,Ireland",Dublin,Leinster,Ireland,[4634] Wholesale Of Beverages
SOLARIS INDUSTRIAL APPLICATIONS LIMITED,Ltd - Private Company Limited By Shares,05/01/2018,"2 Grand Canal Square, Grand Canal Harbour ,Dublin 2, ",Dublin,Leinster,Ireland,[6420] Activities Of Holding Companies
PAU FERRER CONSULTANT LIMITED,Ltd - Private Company Limited By Shares,05/01/2018,"206 Trimbleston, Goatstown Road ,Dublin 14, ",Dublin,Leinster,Ireland,[7022] Business And Other Management Consultancy Activities
AL FORAN COMEDY LIMITED,Ltd - Private Company Limited By Shares,05/01/2018,"54 Portmarnock Drive, Portmarnock ,Dublin,D13 W303",Dublin,Leinster,Ireland,[9001] Performing Arts
VVV HOLDINGS LIMITED,Ltd - Private Company Limited By Shares,05/01/2018,"C/O Dli Law, 12 Merrion Square North ,Dublin 2,D02 H798",Dublin,Leinster,Ireland,"[7490] Other Professional, Scientific And Technical Activities N.E.C."
DR. GUTSKNECHT LIMITED,Ltd - Private Company Limited By Shares,05/01/2018,"Clifton House Office 70, Fitzwilliam Street Lower ,Dublin 2, ",Dublin,Leinster,Ireland,[8299] Other Business Support Service Activities N.E.C.
TECTRADE COMPUTERS (IRELAND) LIMITED,Ltd - Private Company Limited By Shares,05/01/2018,"108q House, Furze Road ,Sandyford,Dublin 18",Dublin,Leinster,Ireland,[6209] Other Information Technology And Computer Service Activities
VERMILLION AVIATION (NINE) LIMITED,Ltd - Private Company Limited By Shares,05/01/2018,"46 St Stephens Green, Dublin 2 , , ",Dublin,Leinster,Ireland,[6491] Financial Leasing
WHCSIII DESIGNATED ACTIVITY COMPANY,Dac - Designated Activity Company (Limited By Shares),05/01/2018,"32 Molesworth Street, Dublin 2 ,Ireland, ",Dublin,Leinster,Ireland,"[6499] Other Financial Service Activities, Except Insurance And Pension Funding N.E.C."
CHD COMPLIANCE LIMITED,Ltd - Private Company Limited By Shares,05/01/2018,"76 Serpentine Avenue, Ballsbridge ,Dublin 4, ",Dublin,Leinster,Ireland,[8299] Other Business Support Service Activities N.E.C.
ACGE CONSULTING LIMITED,Ltd - Private Company Limited By Shares,05/01/2018,"30 Castle Street, Dublin 2 , , ",Dublin,Leinster,Ireland,[7022] Business And Other Management Consultancy Activities
MINTED FUTURES LIMITED,Ltd - Private Company Limited By Shares,05/01/2018,"Clifton House, Fitzwilliam Street Lower ,Dublin 2, ",Dublin,Leinster,Ireland,"[7490] Other Professional, Scientific And Technical Activities N.E.C."
TB SPORT LIMITED,Ltd - Private Company Limited By Shares,05/01/2018,"Colimore House, Coliemore Road ,Dalkey,Co Dublin",Dublin,Leinster,Ireland,[7022] Business And Other Management Consultancy Activities
OLIVEARTE LIMITED,Ltd - Private Company Limited By Shares,05/01/2018,"19 Kirwan Street Cottages, Dublin 7 , , ",Dublin,Leinster,Ireland,"[7490] Other Professional, Scientific And Technical Activities N.E.C."
BRUGHA DEVELOPMENTS LIMITED,Ltd - Private Company Limited By Shares,05/01/2018,"52 Merrion Square East, Dublin 2 , , ",Dublin,Leinster,Ireland,[4110] Development Of Building Projects
QILTA LIMITED,Ltd - Private Company Limited By Shares,05/01/2018,"Guinness Enterprise Centre, Taylor'S Lane ,Dublin 8, ",Dublin,Leinster,Ireland,[2790] Manufacture Of Other Electrical Equipment
HANNAH COMPLIANCE SOLUTIONS LIMITED,Ltd - Private Company Limited By Shares,05/01/2018,"20 Aranleigh Court, Rathfarnham ,Dublin 14,D14 V2r9",Dublin,Leinster,Ireland,[6399] Other Information Service Activities N.E.C.
ISLE OF SMILES LIMITED,Ltd - Private Company Limited By Shares,05/01/2018,"Swords Orthodontics, 17 Main Street ,Swords,Co. Dublin",Dublin,Leinster,Ireland,[8623] Dental Practice Activities
TRIBE ACTIVATIONS LIMITED,Ltd - Private Company Limited By Shares,05/01/2018,"1a Swanville Place, Rathmines ,Dublin 6, ",Dublin,Leinster,Ireland,[8230] Organisation Of Conventions And Trade Shows
BLUE EYES MARKETING LIMITED,Ltd - Private Company Limited By Shares,05/01/2018,"25 Albert Road Lower, Glenageary ,Dublin, ",Dublin,Leinster,Ireland,[7022] Business And Other Management Consultancy Activities
VEIN TREATMENT IRELAND LIMITED,Ltd - Private Company Limited By Shares,05/01/2018,"2 Parkmore Drive, Terenure ,Dublin 6w, ",Dublin,Leinster,Ireland,[8622] Specialist Medical Practice Activities
GAMOUCHY CURES LIMITED,Ltd - Private Company Limited By Shares,08/01/2018,"32 Ballyogan Vale, Carrickmines ,Dublin 18, ",Dublin,Leinster,Ireland,"[7490] Other Professional, Scientific And Technical Activities N.E.C."
BALBRIGGAN TOURISM COMPANY LIMITED BY GUARANTEE,Clg - Company Limited By Guarantee,08/01/2018,"Balbriggan Tourism Office, George'S Square ,Balbriggan,Co Dublin",Dublin,Leinster,Ireland,[9499] Activities Of Other Membership Organisations N.E.C.
ABC EUROPEAN AIR & SEA CARGO DISTRIBUTION LIMITED,Ltd - Private Company Limited By Shares,08/01/2018,"26 Saint Brendan'S Park, Artane ,Dublin 5, ",Dublin,Leinster,Ireland,[5121] Freight Air Transport
KARMA CARDIOLOGY (EUROPE) LIMITED,Ltd - Private Company Limited By Shares,08/01/2018,"128 Ranelagh Village,, Dublin 6 , , ",Dublin,Leinster,Ireland,[7219] Other Research And Experimental Development On Natural Sciences And Engineering
PRO DYNAMIC CONSTRUCTION AND SERVICES LIMITED,Ltd - Private Company Limited By Shares,08/01/2018,"2 Phoenix Gardens, Castleknock ,Dublin 15, ",Dublin,Leinster,Ireland,[4110] Development Of Building Projects
WTS AERO LIMITED,Ltd - Private Company Limited By Shares,09/01/2018,"1st Floor 61 Saint Assam'S Park, Raheny ,Dublin 5, ",Dublin,Leinster,Ireland,[5223] Service Activities Incidental To Air Transportation
ZF IRELAND AIRCRAFT 63 LIMITED,Ltd - Private Company Limited By Shares,09/01/2018,"2nd Floor, 1-2 Victoria Buildings,, Haddington Road, ,Dublin 4, ",Dublin,Leinster,Ireland,[7735] Renting And Leasing Of Air Transport Equipment
ZF IRELAND AIRCRAFT 64 LIMITED,Ltd - Private Company Limited By Shares,09/01/2018,"2nd Floor, 1-2 Victoria Buildings,, Haddington Road, ,Dublin 4, ",Dublin,Leinster,Ireland,[7735] Renting And Leasing Of Air Transport Equipment
ZF IRELAND AIRCRAFT 65 LIMITED,Ltd - Private Company Limited By Shares,09/01/2018,"2nd Floor, 1-2 Victoria Buildings,, Haddington Road, ,Dublin 4, ",Dublin,Leinster,Ireland,[7735] Renting And Leasing Of Air Transport Equipment
AHBS HOLDINGS LIMITED,Ltd - Private Company Limited By Shares,09/01/2018,"41 Mary Street, Dublin 1",Dublin,Leinster,Ireland,[6420] Activities Of Holding Companies
ZF IRELAND AIRCRAFT 62 LIMITED,Ltd - Private Company Limited By Shares,09/01/2018,"2nd Floor, 1-2 Victoria Buildings,, Haddington Road, ,Dublin 4, ",Dublin,Leinster,Ireland,[7735] Renting And Leasing Of Air Transport Equipment
ZF IRELAND AIRCRAFT 67 LIMITED,Ltd - Private Company Limited By Shares,09/01/2018,"2nd Floor, 1-2 Victoria Buildings,, Haddington Road, ,Dublin 4, ",Dublin,Leinster,Ireland,[7735] Renting And Leasing Of Air Transport Equipment
ZF IRELAND AIRCRAFT 68 LIMITED,Ltd - Private Company Limited By Shares,09/01/2018,"2nd Floor, 1-2 Victoria Buildings,, Haddington Road, ,Dublin 4, ",Dublin,Leinster,Ireland,[7735] Renting And Leasing Of Air Transport Equipment
ZF IRELAND AIRCRAFT 69 LIMITED,Ltd - Private Company Limited By Shares,09/01/2018,"2nd Floor, 1-2 Victoria Buildings,, Haddington Road, ,Dublin 4, ",Dublin,Leinster,Ireland,[7735] Renting And Leasing Of Air Transport Equipment
ZF IRELAND AIRCRAFT 70 LIMITED,Ltd - Private Company Limited By Shares,09/01/2018,"2nd Floor, 1-2 Victoria Buildings,, Haddington Road, ,Dublin 4, ",Dublin,Leinster,Ireland,[7735] Renting And Leasing Of Air Transport Equipment
THOMAS BENNETT LIMITED,Ltd - Private Company Limited By Shares,09/01/2018,"88 Church View Road, Killiney, Co. Dublin ",Dublin,Leinster,Ireland,[6202] Computer Consultancy Activities
ROBOCOP PATENT COMPANY LIMITED,Ltd - Private Company Limited By Shares,09/01/2018,"The Black Church, St. Mary'S Place ,Dublin D07 P4ax, ",Dublin,Leinster,Ireland,[6202] Computer Consultancy Activities
HIBERNIAN UROLOGY LIMITED,Ltd - Private Company Limited By Shares,09/01/2018,"23 Brennanstown Vale, Carrickmines ,Dublin 18, ",Dublin,Leinster,Ireland,[8621] General Medical Practice Activities
STORMBORN DEVCO LIMITED,Ltd - Private Company Limited By Shares,09/01/2018,"11 The Plaza, Tyrellstown Town Centre ,Dublin 15, ",Dublin,Leinster,Ireland,[4110] Development Of Building Projects
RAYMOND MCGINLEY ARCHITECTS LIMITED,Ltd - Private Company Limited By Shares,09/01/2018,"43 Sycamore Avenue, Castleknock ,Dublin 15, ",Dublin,Leinster,Ireland,[7111] Architectural Activities
SOCIAL TECHNOLOGY LIMITED,Ltd - Private Company Limited By Shares,09/01/2018,"Office 29, Clifton House ,Fitzwilliam Street Lower,Dublin 2",Dublin,Leinster,Ireland,"[6311] Data Processing, Hosting And Related Activities"
TRICADIA CAPITAL DESIGNATED ACTIVITY COMPANY,Dac - Designated Activity Company (Limited By Shares),09/01/2018,"88 Harcourt Street, Dublin 2",Dublin,Leinster,Ireland,[6630] Fund Management Activities
RESUME ASSIST LIMITED,Ltd - Private Company Limited By Shares,09/01/2018,"The Black Church, St. Mary'S Place ,Dublin D07 P4ax, ",Dublin,Leinster,Ireland,[8299] Other Business Support Service Activities N.E.C.
URBAN STORAGE & LOGISTICS LIMITED,Ltd - Private Company Limited By Shares,09/01/2018,"The Black Church, St. Mary'S Place ,Dublin D07 P4ax, ",Dublin,Leinster,Ireland,[4634] Wholesale Of Beverages
ZF IRELAND AIRCRAFT 66 LIMITED,Ltd - Private Company Limited By Shares,09/01/2018,"2nd Floor, 1-2 Victoria Buildings,, Haddington Road, ,Dublin 4, ",Dublin,Leinster,Ireland,[7735] Renting And Leasing Of Air Transport Equipment
ZF IRELAND AIRCRAFT 71 LIMITED,Ltd - Private Company Limited By Shares,09/01/2018,"2nd Floor, 1-2 Victoria Buildings,, Haddington Road, ,Dublin 4, ",Dublin,Leinster,Ireland,[7735] Renting And Leasing Of Air Transport Equipment
PRATUTHONG VALUECREATION LIMITED,Ltd - Private Company Limited By Shares,09/01/2018,"Clifton House Business Centre, Fitzwilliam Street Lower ,Dublin 2, ",Dublin,Leinster,Ireland,[7022] Business And Other Management Consultancy Activities
ONE STOP CABINS LIMITED,Ltd - Private Company Limited By Shares,09/01/2018,"52 Sonesta, Malahide ,Co. Dublin, ",Dublin,Leinster,Ireland,"[4799] Other Retail Sale Not In Stores, Stalls Or Markets"
UTM-BUILDER LIMITED,Ltd - Private Company Limited By Shares,09/01/2018,"68 Garville Avenue, Rathgar ,Dublin 6, ",Dublin,Leinster,Ireland,"[7490] Other Professional, Scientific And Technical Activities N.E.C."
GOLDENTREE LOAN MANAGEMENT EUR CLO 2 DESIGNATED ACTIVITY COMPANY,Dac - Designated Activity Company (Limited By Shares),09/01/2018,"32 Molesworth Street, Dublin 2 ,Ireland, ",Dublin,Leinster,Ireland,"[6499] Other Financial Service Activities, Except Insurance And Pension Funding N.E.C."
QUIGLEY MANAGEMENT CONSULTING LIMITED,Ltd - Private Company Limited By Shares,09/01/2018,"46 Woodfield, Scholarstown Road ,Rathfarnham, Dublin 16",Dublin,Leinster,Ireland,[7022] Business And Other Management Consultancy Activities
EURO-GALAXY VII CLO DESIGNATED ACTIVITY COMPANY,Dac - Designated Activity Company (Limited By Shares),09/01/2018,"5th Floor, The Exchange ,George'S Dock, Ifsc,Dublin 1",Dublin,Leinster,Ireland,"[6499] Other Financial Service Activities, Except Insurance And Pension Funding N.E.C."
OBREGON AVIATION DESIGNATED ACTIVITY COMPANY,Dac - Designated Activity Company Limited By Shares (Licenced Company),09/01/2018,"2nd Floor, 1-2 Victoria Buildings, Haddington Road ,Dublin 4",Dublin,Leinster,Ireland,[7735] Renting And Leasing Of Air Transport Equipment
TAURUS MANAGEMENT CONSULTANCY LIMITED,Ltd - Private Company Limited By Shares,09/01/2018,"17 Wicklow Street, Dublin 2 , , ",Dublin,Leinster,Ireland,[7022] Business And Other Management Consultancy Activities
DCC LPG LIMITED,Ltd - Private Company Limited By Shares,09/01/2018,"Dcc House, Leopardstown Road ,Foxrock,Dublin 18",Dublin,Leinster,Ireland,[6420] Activities Of Holding Companies
FISHOOK LIMITED,Ltd - Private Company Limited By Shares,09/01/2018,"2 Frankfort Mews, Frankfort Park ,Dublin 14, ",Dublin,Leinster,Ireland,[6399] Other Information Service Activities N.E.C.
V3R BIOMED LIMITED,Ltd - Private Company Limited By Shares,09/01/2018,"Suite 2231, 26/27 Upper Pembroke Street ,Dublin 2, ",Dublin,Leinster,Ireland,[9609] Other Personal Service Activities N.E.C.
MCWILLIAM PARK HOSPITALITY LIMITED,Ltd - Private Company Limited By Shares,09/01/2018,"Davy House, 49 Dawson Street ,Dublin 2,D02 Py05",Dublin,Leinster,Ireland,[5510] Hotels And Similar Accommodation
EUROMOUNT MEDICAL LIMITED,Ltd - Private Company Limited By Shares,09/01/2018,"3 Inn'S Quay, Dublin 7 , , ",Dublin,Leinster,Ireland,[4618] Agents Specialised In The Sale Of Other Particular Products
VELVETGLEN LIMITED,Ltd - Private Company Limited By Shares,09/01/2018,"5 Clanwilliam Square, Grand Canal Quay ,Dublin 2, ",Dublin,Leinster,Ireland,[6420] Activities Of Holding Companies
SEASONBELL LIMITED,Ltd - Private Company Limited By Shares,09/01/2018,"44 Shrewsbury Park, Ballsbridge ,Dublin 4, ",Dublin,Leinster,Ireland,[6420] Activities Of Holding Companies
ORBITDALE LIMITED,Ltd - Private Company Limited By Shares,09/01/2018,"5 Clanwilliam Square, Grand Canal Quay ,Dublin 2, ",Dublin,Leinster,Ireland,[6420] Activities Of Holding Companies
RCQS LIMITED,Ltd - Private Company Limited By Shares,09/01/2018,"K+A Accountants, Unit 9 Rossfield, 50 Rosemount Business Park ,Ballycoolin, Dublin 11, ",Dublin,Leinster,Ireland,[7112] Engineering Activities And Related Technical Consultancy
ASL SURVEYING LIMITED,Ltd - Private Company Limited By Shares,09/01/2018,"K+A Accountants, Unit 9 Rossfield, 50 Rosemount Business Park ,Ballycoolin, Dublin 11, ",Dublin,Leinster,Ireland,[7112] Engineering Activities And Related Technical Consultancy
GC FITOUT LIMITED,Ltd - Private Company Limited By Shares,09/01/2018,"Regus, Pembroke House ,28-32 Pembroke Street Upper,Dublin 2",Dublin,Leinster,Ireland,[4339] Other Building Completion And Finishing
OZLME V DESIGNATED ACTIVITY COMPANY,Dac - Designated Activity Company (Limited By Shares),09/01/2018,"3rd Floor, Kilmore House, Park Lane ,Spencer Dock,Dublin 1",Dublin,Leinster,Ireland,"[6499] Other Financial Service Activities, Except Insurance And Pension Funding N.E.C."
HASHTAG IT CONSULTING LIMITED,Ltd - Private Company Limited By Shares,09/01/2018,"Dermot O'Malley & Co., Block 3 ,Saint John'S Court Office Park,Swords Road, Dublin 9",Dublin,Leinster,Ireland,[7219] Other Research And Experimental Development On Natural Sciences And Engineering
T ROADS PROPERTY LIMITED,Ltd - Private Company Limited By Shares,09/01/2018,"2 Glenavy Park, Terenure ,Dublin 6w, ",Dublin,Leinster,Ireland,[6810] Buying And Selling Of Own Real Estate
MAREX SPECTRON EUROPE LIMITED,Ltd - Private Company Limited By Shares,09/01/2018,"10 Earlsfort Terrace, Dublin 2 ,D02 T380, Ireland, ",Dublin,Leinster,Ireland,"[6499] Other Financial Service Activities, Except Insurance And Pension Funding N.E.C."
ASGARD BEAUTY LIMITED,Ltd - Private Company Limited By Shares,09/01/2018,"8 The Mall, Lower Main Street ,Lucan,Co. Dublin",Dublin,Leinster,Ireland,[9602] Hairdressing And Other Beauty Treatment
SYNCHRONOSS HOLDINGS EUROPE LIMITED,Ltd - Private Company Limited By Shares,10/01/2018,"The Academy, 42 Pearse Street ,Dublin 2, ",Dublin,Leinster,Ireland,[6420] Activities Of Holding Companies
OLF TECHNOLOGIES LIMITED,Ltd - Private Company Limited By Shares,10/01/2018,"4th Floor, Minerva House, Simmonscourt Road ,Ballsbridge, Dublin 4,Ireland",Dublin,Leinster,Ireland,[6420] Activities Of Holding Companies
RYAN ELECTRICAL FIRE AND SAFETY LIMITED,Ltd - Private Company Limited By Shares,10/01/2018,"22 Oak Rise, Royal Oak ,Santry,Dublin 9",Dublin,Leinster,Ireland,[4399] Other Specialised Construction Activities N.E.C.
CAFE MERAVIGLIA LIMITED,Ltd - Private Company Limited By Shares,10/01/2018,"11-12 South Richmond Street, Dublin 2 , , ",Dublin,Leinster,Ireland,[5610] Restaurants And Mobile Food Service Activities
PLAYSTIVAL LIMITED,Ltd - Private Company Limited By Shares,10/01/2018,"Iconic Offices, Block C ,112-114 Saint Stephen'S Green,Dublin 2",Dublin,Leinster,Ireland,[8230] Organisation Of Conventions And Trade Shows
AO.KI CAPITAL LIMITED,Ltd - Private Company Limited By Shares,10/01/2018,"Heritage House, St Stephen'S Green ,Dublin 2, ",Dublin,Leinster,Ireland,[6420] Activities Of Holding Companies
HISTORICAL POINTING SPECIALISTS LIMITED,Ltd - Private Company Limited By Shares,10/01/2018,"184 Kildare Road, Crumlin ,Dublin 12, ",Dublin,Leinster,Ireland,[4339] Other Building Completion And Finishing
ASGHARD BLACK CONSULTING LIMITED,Ltd - Private Company Limited By Shares,10/01/2018,"75 Castleheath, Malahide ,Co. Dublin, ",Dublin,Leinster,Ireland,[6202] Computer Consultancy Activities
CITYFOOD 4U LIMITED,Ltd - Private Company Limited By Shares,10/01/2018,"Unit 2c, Century Business Park ,Melville Road,Dublin 11",Dublin,Leinster,Ireland,[5610] Restaurants And Mobile Food Service Activities
BRIAN KIRBY DERMATOLOGY LIMITED,Ltd - Private Company Limited By Shares,10/01/2018,"Ravenna, Convent Avenue ,Bray,Co. Wicklow",Dublin,Leinster,Ireland,[8690] Other Human Health Activities
PFG CLONSKEAGH TAVERN LIMITED,Ltd - Private Company Limited By Shares,10/01/2018,"170 Rathmines Road Lower, Dublin 6 , , ",Dublin,Leinster,Ireland,[5630] Beverage Serving Activities
DCC RETAIL & OIL LIMITED,Ltd - Private Company Limited By Shares,10/01/2018,"Dcc House, Leopardstown Road ,Foxrock,Dublin 18",Dublin,Leinster,Ireland,[6420] Activities Of Holding Companies
SHUBH CONSULTING LIMITED,Ltd - Private Company Limited By Shares,10/01/2018,"Flat 1, 19 Northumberland Avenue, Dun Laogharie ,Co. Dublin, ",Dublin,Leinster,Ireland,[6202] Computer Consultancy Activities
BAILY COFFEE LIMITED,Ltd - Private Company Limited By Shares,10/01/2018,"5 Asgard Road, Howth ,Co Dublin, ",Dublin,Leinster,Ireland,[5610] Restaurants And Mobile Food Service Activities
VB CREATIVE LIMITED,Ltd - Private Company Limited By Shares,10/01/2018,"2 Findlater Street, Sandycove ,Co. Dublin, ",Dublin,Leinster,Ireland,"[7490] Other Professional, Scientific And Technical Activities N.E.C."
MMK STEEL FINANCE DESIGNATED ACTIVITY COMPANY,Dac - Designated Activity Company (Limited By Shares),10/01/2018,"2nd Floor, Palmerston House, Fenian Street ,Dublin 2, ",Dublin,Leinster,Ireland,"[6499] Other Financial Service Activities, Except Insurance And Pension Funding N.E.C."
"CRESTLINE PORTFOLIO FINANCING FUND (IRL), DESIGNATED ACTIVITY COMPANY",Dac - Designated Activity Company (Limited By Shares),10/01/2018,"1st Floor, 118 Lower Baggot Street ,Dublin 2, ",Dublin,Leinster,Ireland,"[6499] Other Financial Service Activities, Except Insurance And Pension Funding N.E.C."
ROTCON HOLDINGS LIMITED,Ltd - Private Company Limited By Shares,10/01/2018,"189 Kimmage Road West, Dublin 12 , , ",Dublin,Leinster,Ireland,[6420] Activities Of Holding Companies
GRALOVE LIMITED,Ltd - Private Company Limited By Shares,10/01/2018,"10 Cherrington Road, Shankill ,Dublin,D18he12",Dublin,Leinster,Ireland,[7022] Business And Other Management Consultancy Activities
VIRTUAL RETAIL MANAGEMENT LIMITED,Ltd - Private Company Limited By Shares,10/01/2018,"8/9 Westmoreland Street, Dublin 2 , , ",Dublin,Leinster,Ireland,"[4651] Wholesale Of Computers, Computer Peripheral Equipment And Software"
BLULIP TECHNOLOGY LIMITED,Ltd - Private Company Limited By Shares,10/01/2018,"3 Cavendish Row, Dublin 1 , , ",Dublin,Leinster,Ireland,[6209] Other Information Technology And Computer Service Activities
HERMES TRUST LIMITED,Ltd - Private Company Limited By Shares,10/01/2018,"185 Rathmines Road Lower, Dublin 6 , , ",Dublin,Leinster,Ireland,"[7490] Other Professional, Scientific And Technical Activities N.E.C."
PAN JEWELRY LIMITED,Ltd - Private Company Limited By Shares,10/01/2018,"87 Grafton Street, Dublin 2 , , ",Dublin,Leinster,Ireland,[6420] Activities Of Holding Companies
LITTLE SHARK & GENTLE WOLF LIMITED,Ltd - Private Company Limited By Shares,10/01/2018,"Ground Floor, 8-9 Marino Mart ,Fairview,Clontarf Dublin 3 D03 P590",Dublin,Leinster,Ireland,[6190] Other Telecommunications Activities
PATRICIAN WEB LIMITED,Ltd - Private Company Limited By Shares,10/01/2018,"55 Fitzwilliam Square North, Dublin 2 , , ",Dublin,Leinster,Ireland,[4791] Retail Sale Via Mail Order Houses Or Via Internet
EDGE 7 CLOUD NETWORKS LIMITED,Ltd - Private Company Limited By Shares,10/01/2018,"Unit G1, Riverview Business Park ,Nangor Road,Dublin 12",Dublin,Leinster,Ireland,[6202] Computer Consultancy Activities
UTILITYAR LIMITED,Ltd - Private Company Limited By Shares,10/01/2018,"20 Adrian Avenue, Harold'S Cross ,Dublin 6w, ",Dublin,Leinster,Ireland,[5829] Other Software Publishing
MELOTEK LIMITED,Ltd - Private Company Limited By Shares,10/01/2018,"Apartment 9, 12 Railway Road ,Clongriffin,Dublin 13",Dublin,Leinster,Ireland,[5829] Other Software Publishing
KEVIN BYRNE TRANSPORT LIMITED,Ltd - Private Company Limited By Shares,10/01/2018,"11 Newmarket, Dublin 8 , , ",Dublin,Leinster,Ireland,[4939] Other Passenger Land Transport N.E.C.
BIMENG LIMITED,Ltd - Private Company Limited By Shares,10/01/2018,"60 Bertram Court, High Street ,Dublin 8, ",Dublin,Leinster,Ireland,[7111] Architectural Activities
ADVISIDE LIMITED,Ltd - Private Company Limited By Shares,10/01/2018,"51/52 Fitzwilliam Square W, Dublin 2 , , ",Dublin,Leinster,Ireland,[7022] Business And Other Management Consultancy Activities
PAR (SR) LIMITED,Ltd - Private Company Limited By Shares,10/01/2018,"Joyce House, 22/23 Holles Street ,Dublin 2, ",Dublin,Leinster,Ireland,[6420] Activities Of Holding Companies
PHOENIX GREEN LIMITED,Ltd - Private Company Limited By Shares,10/01/2018,"Leeson Chambers,, 28 Lower Leeson Street, ,Dublin 2,,Ireland.",Dublin,Leinster,Ireland,"[7490] Other Professional, Scientific And Technical Activities N.E.C."
ETAIN SOFTWARE LIMITED,Ltd - Private Company Limited By Shares,10/01/2018,"13 Baggot Street Upper, Dublin 4 , , ",Dublin,Leinster,Ireland,[6209] Other Information Technology And Computer Service Activities
FAMPHARM OAKLEY LIMITED,Ltd - Private Company Limited By Shares,10/01/2018,"Apartment 8, The Oaks ,Pelletstown Manor,Ashtown, Dublin 15",Dublin,Leinster,Ireland,[4773] Dispensing Chemist In Specialised Stores
THAR BARR I.T. DEVELOPMENT LIMITED,Ltd - Private Company Limited By Shares,10/01/2018,"62 Clontarf Road, Dublin 3 , , ",Dublin,Leinster,Ireland,[6202] Computer Consultancy Activities
JOKER ISSUER DESIGNATED ACTIVITY COMPANY,Dac - Designated Activity Company (Limited By Shares),10/01/2018,"32 Molesworth Street, Dublin 2 ,Ireland, ",Dublin,Leinster,Ireland,"[6499] Other Financial Service Activities, Except Insurance And Pension Funding N.E.C."
DJJ TAVERNS LIMITED,Ltd - Private Company Limited By Shares,10/01/2018,"189 North Circular Road, Dublin 7 , , ",Dublin,Leinster,Ireland,[5630] Beverage Serving Activities
HANNAH CORCORAN DESIGN LIMITED,Ltd - Private Company Limited By Shares,10/01/2018,"Brighton House, 115-119 Lower Rathmines Road ,Dublin 6, ",Dublin,Leinster,Ireland,[7410] Specialised Design Activities
MADISON PEARL EXECUTIVE SEARCH LIMITED,Ltd - Private Company Limited By Shares,10/01/2018,"The Black Church, St. Mary'S Place ,Dublin D07 P4ax, ",Dublin,Leinster,Ireland,[7810] Activities Of Employment Placement Agencies
DOME PRODUCTIONS LIMITED,Ltd - Private Company Limited By Shares,10/01/2018,"Unit 12, Terenure Enterprise Centre ,Terenure,Dublin 6w",Dublin,Leinster,Ireland,[8230] Organisation Of Conventions And Trade Shows
TORNADO MIUI LIMITED,Ltd - Private Company Limited By Shares,10/01/2018,"8 South Great George'S Street, Dublin 2 , , ",Dublin,Leinster,Ireland,[6202] Computer Consultancy Activities
MURUGUN LIMITED,Ltd - Private Company Limited By Shares,10/01/2018,"108 Pearse Street, Dublin 2 , , ",Dublin,Leinster,Ireland,"[4711] Retail Sale In Non-Specialised Stores With Food, Beverages Or Tobacco Predominating"
CASTLELAKE AVIATION (IRELAND) LIMITED,Ltd - Private Company Limited By Shares,10/01/2018,"28-32 Pembroke Street Upper, Dublin 2 ,Ireland, ",Dublin,Leinster,Ireland,[7022] Business And Other Management Consultancy Activities
LONGPEAK LIMITED,Ltd - Private Company Limited By Shares,10/01/2018,"Unit 112, Citygate Business Centre ,Hills Industrial Estate,Lower Lucan Road, Lucan, Co. Dublin",Dublin,Leinster,Ireland,[9609] Other Personal Service Activities N.E.C.
SIBANYA SPORTS LIMITED,Ltd - Private Company Limited By Shares,10/01/2018,"8 South Great George'S Street, Dublin 2 , , ",Dublin,Leinster,Ireland,[7022] Business And Other Management Consultancy Activities
ELAINE WALL CONSULTING LIMITED,Ltd - Private Company Limited By Shares,10/01/2018,"Garden Apartment, 76 Leinster Road ,Rathmines,Dublin 6",Dublin,Leinster,Ireland,"[6499] Other Financial Service Activities, Except Insurance And Pension Funding N.E.C."
DPO PLUS LIMITED,Ltd - Private Company Limited By Shares,10/01/2018,"12 Ramleh Villas, Milltown ,Dublin 6, ",Dublin,Leinster,Ireland,[7022] Business And Other Management Consultancy Activities
BALFE ROAD MANAGEMENT COMPANY LIMITED BY GUARANTEE,Clg - Company Limited By Guarantee,10/01/2018,"3 Wilton Place, Dublin 2 , , ",Dublin,Leinster,Ireland,[6832] Management Of Real Estate On A Fee Or Contract Basis
MALONE ADMINISTRATION LIMITED,Ltd - Private Company Limited By Shares,10/01/2018,"239 Blanchardstown Corporate Park, Ballycoolin ,Dublin 15, ",Dublin,Leinster,Ireland,[7022] Business And Other Management Consultancy Activities
MILO AGENCY LIMITED,Ltd - Private Company Limited By Shares,10/01/2018,"1a Clifton Lane, Clifton Avenue ,Monkstown,Co Dublin",Dublin,Leinster,Ireland,[7022] Business And Other Management Consultancy Activities
CYCLIPSE LIMITED,Ltd - Private Company Limited By Shares,11/01/2018,"Talbot Hall 402, Talbot Street ,Dublin 1, ",Dublin,Leinster,Ireland,[7022] Business And Other Management Consultancy Activities
LIVE UTI FREE LIMITED,Ltd - Private Company Limited By Shares,11/01/2018,"C/O Gaby Smyth & Co. Limited, Ardeen House ,10-11 Marine Terrace,Dun Laoghaire, Co. Dublin",Dublin,Leinster,Ireland,[6209] Other Information Technology And Computer Service Activities
BAMBOO CREATIVE LIMITED,Ltd - Private Company Limited By Shares,11/01/2018,"Peamount Industries, Yard 2, Lock Road ,Newcastle,Co. Dublin",Dublin,Leinster,Ireland,"[7490] Other Professional, Scientific And Technical Activities N.E.C."
5-15 GLOBAL ENERGY HQ LIMITED,Ltd - Private Company Limited By Shares,11/01/2018,"108 Q House, Furze Road ,Sandyford,Dublin 18",Dublin,Leinster,Ireland,[7022] Business And Other Management Consultancy Activities
GLOBAL GAS AND LIGHT HQ LIMITED,Ltd - Private Company Limited By Shares,11/01/2018,"108 Q House, Furze Road ,Sandyford,Dublin 18",Dublin,Leinster,Ireland,[7022] Business And Other Management Consultancy Activities
S HARTE DIAGNOSTICS LIMITED,Ltd - Private Company Limited By Shares,11/01/2018,"The Birches, Vernon Grove ,Rathgar,Dublin 6",Dublin,Leinster,Ireland,[7022] Business And Other Management Consultancy Activities
ANYTHING GOES LOGISTICS LIMITED,Ltd - Private Company Limited By Shares,11/01/2018,"155 Primrose Grove, Darndale ,Dublin 17, ",Dublin,Leinster,Ireland,[4941] Freight Transport By Road
DEAN AMIX LIMITED,Ltd - Private Company Limited By Shares,11/01/2018,"Office 29, Clifton House, Dublin 2 , , ",Dublin,Leinster,Ireland,[6420] Activities Of Holding Companies
SKYTRAIN AIRLINES LIMITED,Ltd - Private Company Limited By Shares,11/01/2018,"24 Baggot Street Lower, Dublin 2 , , ",Dublin,Leinster,Ireland,[7735] Renting And Leasing Of Air Transport Equipment
V3S FASHION LIMITED,Ltd - Private Company Limited By Shares,11/01/2018,"161 Hampton Wood Road, Finglas ,Dublin 11, ",Dublin,Leinster,Ireland,[4641] Wholesale Of Textiles
MIX SUMMIT LIMITED,Ltd - Private Company Limited By Shares,11/01/2018,"21 Obelisk Rise, Saint Augustine'S Park ,Blackrock,Co. Dublin",Dublin,Leinster,Ireland,[8230] Organisation Of Conventions And Trade Shows
UNITY MARKETING LIMITED,Ltd - Private Company Limited By Shares,11/01/2018,"Office 29, Clifton House ,Fitzwilliam Street Lower,Dublin 2",Dublin,Leinster,Ireland,"[6311] Data Processing, Hosting And Related Activities"
KHAWAR SAEED & RABIA AAMIR MALIK VENTURES LIMITED,Ltd - Private Company Limited By Shares,11/01/2018,"156 Parnell Street, Dublin 1 , , ",Dublin,Leinster,Ireland,[5590] Other Accommodation
CROSBIE REFRIGERATION & AIR CONDITIONING LIMITED,Ltd - Private Company Limited By Shares,11/01/2018,"164 Belgard Heights, Tallaght ,Dublin 24, ",Dublin,Leinster,Ireland,"[7490] Other Professional, Scientific And Technical Activities N.E.C."
RIVERVALLEY CONVENIENCE STORES LIMITED,Ltd - Private Company Limited By Shares,11/01/2018,"C/O O'Donnell & Associates, Unit 34 Greenmount Office Park ,Harolds Cross,Dublin 6w",Dublin,Leinster,Ireland,"[4711] Retail Sale In Non-Specialised Stores With Food, Beverages Or Tobacco Predominating"
BEECH BRIDGE DISTRIBUTION LIMITED,Ltd - Private Company Limited By Shares,11/01/2018,"6 Beechfield Close, Castaheney ,Dublin 16, ",Dublin,Leinster,Ireland,[4778] Other Retail Sale Of New Goods In Specialised Stores
DUBLIN CITY STORTAGE LIMITED,Ltd - Private Company Limited By Shares,11/01/2018,"132a Richmond Road, Drumcondra ,Dublin 3, ",Dublin,Leinster,Ireland,[5210] Warehousing And Storage
CONSOLIDATED MERCHANT MANAGEMENT INTERNATIONAL LIMITED,Ltd - Private Company Limited By Shares,11/01/2018,"The Black Church, St. Marys Place ,Dublin, D07 P4AX",Dublin,Leinster,Ireland,[4649] Wholesale Of Other Household Goods
EVE AESTHETICS LIMITED,Ltd - Private Company Limited By Shares,11/01/2018,"78 Dean Swift Road, Glasnevin ,Dublin 11",Dublin,Leinster,Ireland,[9602] Hairdressing And Other Beauty Treatment
FORESTKING LIMITED,Ltd - Private Company Limited By Shares,11/01/2018,"The Black Church, St. Mary'S Place ,Dublin, D07 P4AX",Dublin,Leinster,Ireland,[9499] Activities Of Other Membership Organisations N.E.C.
REMI DANIEL LIMITED,Ltd - Private Company Limited By Shares,11/01/2018,"23 Addison Road, Fairview ,Dublin 3",Dublin,Leinster,Ireland,"[5911] Motion Picture, Video And Television Programme Production Activities"
EA-TEA LIMITED,Ltd - Private Company Limited By Shares,11/01/2018,"95 Parnell Street, Dublin 1 ",Dublin,Leinster,Ireland,[5629] Other Food Service Activities
MED DOC HEALTHCARE LIMITED,Ltd - Private Company Limited By Shares,11/01/2018,"1 Tower Road, Clondalkin ,Dublin 22",Dublin,Leinster,Ireland,[7830] Other Human Resources Provision
FURIOUS PANDA SOFTWARE LIMITED,Ltd - Private Company Limited By Shares,11/01/2018,"8-9 Marino Mart, Fairview ,Clontarf,Dublin 3, Ireland",Dublin,Leinster,Ireland,[5829] Other Software Publishing
FINEST PET BRANDS LIMITED,Ltd - Private Company Limited By Shares,11/01/2018,"8-9 Marino Mart, Fairview ,Clontarf,Dublin 3, Ireland",Dublin,Leinster,Ireland,"[4776] Retail Sale Of Flowers, Plants, Seeds, Fertilisers, Pet Animals And Pet Food In Specialised Stores"
BESD BUSINESS ENERGY SOLUTIONS LIMITED,Ltd - Private Company Limited By Shares,11/01/2018,"Suite 2231, 26/27 Upper Pembroke Street ,Dublin 2",Dublin,Leinster,Ireland,[9609] Other Personal Service Activities N.E.C.
SOOPER DOOPER CREATIONS LIMITED,Ltd - Private Company Limited By Shares,11/01/2018,"168 Littlepace Walk, Dublin 15 ",Dublin,Leinster,Ireland,[9329] Other Amusement And Recreation Activities
NEOTERIC HEALTHCARE LIMITED,Ltd - Private Company Limited By Shares,11/01/2018,"Saint Marys, 5 Howth Road ,Clontarf,Dublin 3",Dublin,Leinster,Ireland,"[4614] Agents Involved In The Sale Of Machinery, Industrial Equipment, Ships And Aircraft"
NJ COFFEE LIMITED,Ltd - Private Company Limited By Shares,11/01/2018,"16 Vernon Park, Clontarf ,Dublin 3, ",Dublin,Leinster,Ireland,[5610] Restaurants And Mobile Food Service Activities
SUSTAINET GROUP LIMITED,Ltd - Private Company Limited By Shares,11/01/2018,"3 Cavendish Row, Dublin 1 ",Dublin,Leinster,Ireland,[7022] Business And Other Management Consultancy Activities
ALL SHOPPING LIMITED,Ltd - Private Company Limited By Shares,11/01/2018,"Clifton House, Office 29, Fitzwilliam Street Lower ,Dublin, D02xt91",Dublin,Leinster,Ireland,[4719] Other Retail Sale In Non-Specialised Stores
KOMPOSMENTUS LIMITED,Ltd - Private Company Limited By Shares,11/01/2018,"Apartment 6, 27 Idrone Terrace ,Blackrock,Co. Dublin",Dublin,Leinster,Ireland,[7022] Business And Other Management Consultancy Activities
CHIRISA FINANCE LIMITED,Ltd - Private Company Limited By Shares,11/01/2018,"92 Saint Stephen'S Green, Dublin 2 ",Dublin,Leinster,Ireland,[6420] Activities Of Holding Companies
DOBOCA LIMITED,Ltd - Private Company Limited By Shares,11/01/2018,"33 Main Village, Ongar ,Dublin 15",Dublin,Leinster,Ireland,[4299] Construction Of Other Civil Engineering Projects N.E.C.
WINTERIZE CONSULTANCY LIMITED,Ltd - Private Company Limited By Shares,11/01/2018,"22 Lorcan Drive, Santry ,Dublin 9",Dublin,Leinster,Ireland,[6202] Computer Consultancy Activities
INTOWORK LIMITED,Ltd - Private Company Limited By Shares,11/01/2018,"32 The Castlelands, Castleside Drive, Rathfarnham ,Dublin 14",Dublin,Leinster,Ireland,[7810] Activities Of Employment Placement Agencies
RANDOM ACCESS HOLDINGS LIMITED,Ltd - Private Company Limited By Shares,11/01/2018,"47 Lynwood, Dundrum ,Dublin 16",Dublin,Leinster,Ireland,[6420] Activities Of Holding Companies
RANDOM ACCESS METRICS LIMITED,Ltd - Private Company Limited By Shares,11/01/2018,"47 Lynwood, Dundrum ,Dublin 16",Dublin,Leinster,Ireland,[8690] Other Human Health Activities
IT-TEST PRO LIMITED,Ltd - Private Company Limited By Shares,11/01/2018,"5 Cambridge Hall, Clancy Quay ,Islandbridge,Dublin 8",Dublin,Leinster,Ireland,[7120] Technical Testing And Analysis
BAM BEAUTY AND MORE LIMITED,Ltd - Private Company Limited By Shares,11/01/2018,"Clifton House, Office 29, Fitzwilliam Street Lower ,Dublin, D02xt91",Dublin,Leinster,Ireland,[4719] Other Retail Sale In Non-Specialised Stores
ASJR BUSINESS SERVICES LIMITED,Ltd - Private Company Limited By Shares,11/01/2018,"4 Rear Basement, Church Avenue ,Rathmines, Dublin 6, ",Dublin,Leinster,Ireland,[6202] Computer Consultancy Activities
JADE AVIATION LLC,External Company,11/01/2018,"The Oval, Building One, Shelbourne Road ,Ballsbridge, Dublin 4",Dublin,Leinster,Ireland,[]
DUO BUILD LIMITED,Ltd - Private Company Limited By Shares,12/01/2018,"70 Hillcourt Road, Glenageary ,Co. Dublin",Dublin,Leinster,Ireland,[4120] Construction Of Residential And Non-Residential Buildings
JENSONR+ (IRELAND) LIMITED,Ltd - Private Company Limited By Shares,12/01/2018,"104 Lower Baggot Street, Dublin 2 ",Dublin,Leinster,Ireland,[8299] Other Business Support Service Activities N.E.C.
GROMOW LIMITED,Ltd - Private Company Limited By Shares,12/01/2018,"Unit 291 Blanchardstown Corporate Park 2, Dublin 15, D15 F896",Dublin,Leinster,Ireland,"[7490] Other Professional, Scientific And Technical Activities N.E.C."
SUSTAINABLE DIGITAL ENVIRONMENTS LIMITED,Ltd - Private Company Limited By Shares,12/01/2018,"Dublin Enterprise & Technology Centre Limited, T/A Guinness Enterprise Centre Taylor'S Lane , Dublin 8",Dublin,Leinster,Ireland,[8299] Other Business Support Service Activities N.E.C.
FASTNET AIR LIMITED,Ltd - Private Company Limited By Shares,12/01/2018,"7 Blackheath Avenue, Clontarf ,Dublin 3, D03wp93",Dublin,Leinster,Ireland,[7112] Engineering Activities And Related Technical Consultancy
4ME SOFTWARE SOLUTIONS LIMITED,Ltd - Private Company Limited By Shares,12/01/2018,"3 Newbury Heights, Clonshaugh Road, Dublin 17",Dublin,Leinster,Ireland,[6202] Computer Consultancy Activities
LLI BUILDING AND CARPENTRY LIMITED,Ltd - Private Company Limited By Shares,12/01/2018,"13 Oldchurch Close, Clondalkin, Dublin 22",Dublin,Leinster,Ireland,[4332] Joinery Installation
EMCO HARDWARE & TRADING SERVICES LIMITED,Ltd - Private Company Limited By Shares,12/01/2018,"23, Main Street,, Ongar Village, Dublin 15 ",Dublin,Leinster,Ireland,[6209] Other Information Technology And Computer Service Activities
EASYTEX ALUMINIUM LIMITED,Ltd - Private Company Limited By Shares,12/01/2018,"46 Belcamp Avenue, Priorswood, Dublin 17",Dublin,Leinster,Ireland,[4329] Other Construction Installation
HAZELGREEN LIMITED,Ltd - Private Company Limited By Shares,12/01/2018,"16 The Court, Cypress Downs, Templeogue, Dublin 6w",Dublin,Leinster,Ireland,[6420] Activities Of Holding Companies
CASTELFIELD CONSTRUCTION LIMITED,Ltd - Private Company Limited By Shares,12/01/2018,"51 Castlefield Court, Clonsilla ,Dublin 15",Dublin,Leinster,Ireland,[4120] Construction Of Residential And Non-Residential Buildings
LAMBA CC LIMITED,Ltd - Private Company Limited By Shares,12/01/2018,"143 Donomore Park, Tallaght ,Dublin 24",Dublin,Leinster,Ireland,[9602] Hairdressing And Other Beauty Treatment
DELPIN ENTERPRISES LIMITED,Ltd - Private Company Limited By Shares,12/01/2018,"79 Whitestown Avenue, Blanchardstown ,Dublin 15",Dublin,Leinster,Ireland,"[7490] Other Professional, Scientific And Technical Activities N.E.C."
ALDEMERE LIMITED,Ltd - Private Company Limited By Shares,12/01/2018,"Aldemere House, Barbarstown Lane ,Westmanstown, Dublin 15",Dublin,Leinster,Ireland,[0150] Mixed Farming
KELLY'S STATION MANAGEMENT COMPANY LIMITED BY GUARANTEE,Clg - Company Limited By Guarantee,12/01/2018,"3 Wilton Place, Dublin 2 ",Dublin,Leinster,Ireland,[6832] Management Of Real Estate On A Fee Or Contract Basis
BUTLER CORUM ASSET MANAGEMENT LIMITED,Ltd - Private Company Limited By Shares,12/01/2018,"32 Molesworth Street, Dublin 2 ",Dublin,Leinster,Ireland,"[6499] Other Financial Service Activities, Except Insurance And Pension Funding N.E.C."
DEEPMINT LIMITED,Ltd - Private Company Limited By Shares,12/01/2018,"8-9 Marino Mart, Fairview ,Clontarf,Dublin 3",Dublin,Leinster,Ireland,[6612] Security And Commodity Contracts Brokerage
DARACH INVESTMENTS LIMITED,Ltd - Private Company Limited By Shares,12/01/2018,"12 Rossmore Park, Templeogue, Dublin 6w ",Dublin,Leinster,Ireland,[9609] Other Personal Service Activities N.E.C.
CTL ENERGY INTERNATIONAL LIMITED,Ltd - Private Company Limited By Shares,12/01/2018,"70 Sir John Rogerson'S Quay, Dublin 2 ",Dublin,Leinster,Ireland,[6420] Activities Of Holding Companies
CTL ENERGY HOLDINGS LIMITED,Ltd - Private Company Limited By Shares,12/01/2018,"70 Sir John Rogerson'S Quay, Dublin 2 ",Dublin,Leinster,Ireland,[6420] Activities Of Holding Companies
AL JAWDA LIMITED,Ltd - Private Company Limited By Shares,12/01/2018,"163 S Circular Road, Merchants Quay ,Dublin 8",Dublin,Leinster,Ireland,[4729] Other Retail Sale Of Food In Specialised Stores
SOMERSET COAL INTERNATIONAL HOLDINGS LIMITED,Ltd - Private Company Limited By Shares,12/01/2018,"70 Sir John Rogerson'S Quay, Dublin 2 ",Dublin,Leinster,Ireland,[6420] Activities Of Holding Companies
JOINTI PACS COMPANY LIMITED,Ltd - Private Company Limited By Shares,12/01/2018,"Unit 6, Stokes Court ,Dundrum,Dublin 14",Dublin,Leinster,Ireland,[4791] Retail Sale Via Mail Order Houses Or Via Internet
CICERO CONSULTING DUBLIN LIMITED,Ltd - Private Company Limited By Shares,12/01/2018,"2nd Floor (Room 210), The Victorians ,15-18 Earlsfort Terrace,Dublin 2, D02 Yx28",Dublin,Leinster,Ireland,[7022] Business And Other Management Consultancy Activities
T & M KAMELEON LIMITED,Ltd - Private Company Limited By Shares,12/01/2018,"78 Talbot Street, Dublin 1 ",Dublin,Leinster,Ireland,[9602] Hairdressing And Other Beauty Treatment
FORGEBELL LIMITED,Ltd - Private Company Limited By Shares,12/01/2018,"76 Merrion Square, Dublin 2 , D02 Ny76",Dublin,Leinster,Ireland,[6420] Activities Of Holding Companies
LIBERTY HOMECARE LIMITED,Ltd - Private Company Limited By Shares,12/01/2018,"55 Wellington Road, Templeogue ,Dublin 6w",Dublin,Leinster,Ireland,[8690] Other Human Health Activities
COLD TONIC LIMITED,Ltd - Private Company Limited By Shares,12/01/2018,"95 Howth Road, Howth ,Co. Dublin, D13 Pv20",Dublin,Leinster,Ireland,[5920] Sound Recording And Music Publishing Activities
JWA PROPERTY LIMITED,Ltd - Private Company Limited By Shares,12/01/2018,"1 Woodbine Close, Raheny ,Dublin 5",Dublin,Leinster,Ireland,[6810] Buying And Selling Of Own Real Estate
CB SURFACE REPAIR SPECIALISTS LIMITED,Ltd - Private Company Limited By Shares,12/01/2018,"Ballysop, Whitechurch ,New Ross, Wexford, Y34r289",Dublin,Leinster,Ireland,[4339] Other Building Completion And Finishing
GIULIA HOLDINGS LIMITED,Ltd - Private Company Limited By Shares,12/01/2018,"322 The Capel Building, Mary'S Abbey ,Dublin 7",Dublin,Leinster,Ireland,[6420] Activities Of Holding Companies
HAMRA HOLDINGS LIMITED,Ltd - Private Company Limited By Shares,12/01/2018,"322 The Capel Building, Mary'S Abbey ,Dublin 7",Dublin,Leinster,Ireland,[6420] Activities Of Holding Companies
HOSPITALITY REMASTERED LIMITED,Ltd - Private Company Limited By Shares,12/01/2018,"322 The Capel Building, Mary'S Abbey ,Dublin 7",Dublin,Leinster,Ireland,[5590] Other Accommodation
CHANGE DIRECTION LIMITED,Ltd - Private Company Limited By Shares,12/01/2018,"18 Clonkeen Drive, Foxrock ,Dublin 18",Dublin,Leinster,Ireland,[7022] Business And Other Management Consultancy Activities
RÉITEACH CONSULTANCY LIMITED,Ltd - Private Company Limited By Shares,12/01/2018,"Harvest, 40a Saint John'S Drive ,Clondalkin, Dublin 22",Dublin,Leinster,Ireland,"[7490] Other Professional, Scientific And Technical Activities N.E.C."
CULLEN TAX AND CORPORATE SERVICES LIMITED,Ltd - Private Company Limited By Shares,12/01/2018,"46 Fitzwilliam Square West, Dublin 2 ",Dublin,Leinster,Ireland,"[6920] Accounting, Bookkeeping And Auditing Activities; Tax Consultancy"
DIASORIN I.N. LIMITED,Ltd - Private Company Limited By Shares,12/01/2018,"88 Harcourt Street, Dublin 2 , D02 Dk18",Dublin,Leinster,Ireland,[7219] Other Research And Experimental Development On Natural Sciences And Engineering
VIDI LIMITED,Ltd - Private Company Limited By Shares,12/01/2018,"187 Larkhill Road, Whitehall ,Dublin 9, ",Dublin,Leinster,Ireland,[6209] Other Information Technology And Computer Service Activities
DESIGN DECOR INNOVATIONS LIMITED,Ltd - Private Company Limited By Shares,12/01/2018,"10 Cherrywood Villas, Clondalkin ,Dublin 22, ",Dublin,Leinster,Ireland,[4334] Painting And Glazing
SISI IT SERVICES LIMITED,Ltd - Private Company Limited By Shares,12/01/2018,"3 Stratton Lawn, Adamstown Castle ,Lucan,Co. Dublin",Dublin,Leinster,Ireland,[6202] Computer Consultancy Activities
RITE TRACK SCOTLAND LIMITED,External Company,12/01/2018,"Office 1, First Floor, The Griffeen Centre ,Lucan,County Dublin",Dublin,Leinster,Ireland,[]
IPB INTERCAMBIO LIMITED,Ltd - Private Company Limited By Shares,15/01/2018,"36 North Great George'S Street, Dublin 1 ",Dublin,Leinster,Ireland,[7911] Travel Agency Activities
JB CAPITAL LIMITED,Ltd - Private Company Limited By Shares,15/01/2018,"26 Baggot Street Lower, Dublin 2, D02 P211",Dublin,Leinster,Ireland,[7022] Business And Other Management Consultancy Activities
PAULO RIBEIRO'S LIMITED,Ltd - Private Company Limited By Shares,15/01/2018,"82 Castlemoyne, Dublin 13 ",Dublin,Leinster,Ireland,[5610] Restaurants And Mobile Food Service Activities
SALTY LEAVE HOLDINGS LIMITED,Ltd - Private Company Limited By Shares,15/01/2018,"26 Baggot Street Lower, Dublin 2, D02 P211",Dublin,Leinster,Ireland,[7022] Business And Other Management Consultancy Activities
COLTRANE MEDIA CONSULTING LIMITED,Ltd - Private Company Limited By Shares,15/01/2018,"Claragh, 106 Connaught Street ,Phibsborough,Dublin 7",Dublin,Leinster,Ireland,[9609] Other Personal Service Activities N.E.C.
GRANGE AGRI LIMITED,Ltd - Private Company Limited By Shares,15/01/2018,"E2 Nutgrove Office Park, Rathfarnham ,Dublin 14, ",Dublin,Leinster,Ireland,[7022] Business And Other Management Consultancy Activities
NAUGHTON RAINWATER SYSTEMS LIMITED,Ltd - Private Company Limited By Shares,15/01/2018,"2 Ellensborough Cresent, Kiltipper Road ,Dublin 24, ",Dublin,Leinster,Ireland,[4399] Other Specialised Construction Activities N.E.C.
MARYLAND LANDSCAPES LIMITED,Ltd - Private Company Limited By Shares,15/01/2018,"The Bungalow, Maryland Farm ,Kilsallaghan, Co. Dublin",Dublin,Leinster,Ireland,[8130] Landscape Service Activities
KIRKFELL SERVICES IRELAND LIMITED,Ltd - Private Company Limited By Shares,15/01/2018,"Osk, East Point Plaza ,East Point,Dublin 3",Dublin,Leinster,Ireland,"[7490] Other Professional, Scientific And Technical Activities N.E.C."
ALMOST THERE ENTERTAINMENT LIMITED,Ltd - Private Company Limited By Shares,15/01/2018,"3rd Floor, Kilmore House, Park Lane, Spencer Dock ,Dublin 1",Dublin,Leinster,Ireland,[5829] Other Software Publishing
GRANTS MASTER BUTCHERS LIMITED,Ltd - Private Company Limited By Shares,15/01/2018,"Unit 4 Frascati Centre, Blackrock ,Co. Dublin, ",Dublin,Leinster,Ireland,[4722] Retail Sale Of Meat And Meat Products In Specialised Stores
UNITED EDUCATION LIMITED,Ltd - Private Company Limited By Shares,15/01/2018,"30a Seapoint Avenue, Blackrock ,Co Dublin, ",Dublin,Leinster,Ireland,[8559] Other Education N.E.C.
FLUTURE LIMITED,Ltd - Private Company Limited By Shares,15/01/2018,"148 Temple Gardens, Northwood ,Santry,Dublin 9",Dublin,Leinster,Ireland,[4299] Construction Of Other Civil Engineering Projects N.E.C.
IFOODIE MENU LIMITED,Ltd - Private Company Limited By Shares,15/01/2018,"89 Gleann Na Ri, Druid Valley ,Cabinteely, D18fc7",Dublin,Leinster,Ireland,[5610] Restaurants And Mobile Food Service Activities
ADRIAN STRAMBU LIMITED,Ltd - Private Company Limited By Shares,15/01/2018,"11 The Old Mill, Main Street ,The Naul,County Dublin",Dublin,Leinster,Ireland,[4120] Construction Of Residential And Non-Residential Buildings
TIMBER FIRE DOOR SPECIALISTS LIMITED,Ltd - Private Company Limited By Shares,15/01/2018,"Unit 2f, Kylemore Park South ,Ballyfermot,Dublin 10",Dublin,Leinster,Ireland,[4399] Other Specialised Construction Activities N.E.C.
GREEK YACHT SALES LIMITED,Ltd - Private Company Limited By Shares,15/01/2018,"Station House, Shankill ,Co Dublin, ",Dublin,Leinster,Ireland,[4618] Agents Specialised In The Sale Of Other Particular Products
MINI MANNERS LIMITED,Ltd - Private Company Limited By Shares,15/01/2018,"34 Whitestown Avenue, Blanchardstown ,Dublin 15, ",Dublin,Leinster,Ireland,[8510] Pre-Primary Education
ROSEHIP EVENTS LIMITED,Ltd - Private Company Limited By Shares,15/01/2018,"Suite 14 The Cube Offices, Beacon South Quarter ,Sandyford, Dublin 18",Dublin,Leinster,Ireland,"[7490] Other Professional, Scientific And Technical Activities N.E.C."
DANUBIA HOLDINGS LIMITED,Ltd - Private Company Limited By Shares,15/01/2018,"First Floor, Unit 2a Nagor Road Business Park ,Nagor Road,Dublin 12",Dublin,Leinster,Ireland,[6420] Activities Of Holding Companies
AIRGEAD COIN LIMITED,Ltd - Private Company Limited By Shares,15/01/2018,"Unit 1a, Upper Cranford Centre ,Montrose,Dublin 4, Do4x6ho",Dublin,Leinster,Ireland,[4672] Wholesale Of Metals And Metal Ores
IMCC DESIGN LIMITED,Ltd - Private Company Limited By Shares,15/01/2018,"8 The Laurels, Terenure ,Dublin 6w",Dublin,Leinster,Ireland,"[7490] Other Professional, Scientific And Technical Activities N.E.C."
FRYSTON ENGINEERING LIMITED,Ltd - Private Company Limited By Shares,15/01/2018,"The Black Church, St. Marys Place ,Dublin, D07 P4ax",Dublin,Leinster,Ireland,[7112] Engineering Activities And Related Technical Consultancy
GTROM LIMITED,Ltd - Private Company Limited By Shares,15/01/2018,"28 Pintail House, Red Court Oaks, Seafield Road East ,Clontarf, Dublin 3",Dublin,Leinster,Ireland,[7022] Business And Other Management Consultancy Activities
NORDIC ELEMENTS STUDIO LIMITED,Ltd - Private Company Limited By Shares,15/01/2018,"54 Booterstown Avenue, Blackrock ,Co. Dublin, A94 C6d0",Dublin,Leinster,Ireland,[7410] Specialised Design Activities
CARATEX LIMITED,Ltd - Private Company Limited By Shares,15/01/2018,"100a Brian Avenue, Marino ,Dublin 3",Dublin,Leinster,Ireland,[4642] Wholesale Of Clothing And Footwear
SHEER AESTHETICS LIMITED,Ltd - Private Company Limited By Shares,15/01/2018,"Northbrook Clinic, Northbrook Road ,Ranelagh, Dublin 6",Dublin,Leinster,Ireland,[9602] Hairdressing And Other Beauty Treatment
JEANNE BROPHY SKINCARE LIMITED,Ltd - Private Company Limited By Shares,15/01/2018,"49 Clontarf Road, Clontarf ,Dublin 3",Dublin,Leinster,Ireland,[9602] Hairdressing And Other Beauty Treatment
DATAPROTEK LIMITED,Ltd - Private Company Limited By Shares,15/01/2018,"Sundrive Road, Rush ,Co Dublin, K56np79",Dublin,Leinster,Ireland,[7022] Business And Other Management Consultancy Activities
TALKWAY LIMITED,Ltd - Private Company Limited By Shares,15/01/2018,"The Brickhouse, Block 1 ,Clanwilliam Court,Mount Street Lower, Dublin 2",Dublin,Leinster,Ireland,[6420] Activities Of Holding Companies
DANIEL MORRISSEY & SONS LIMITED,Ltd - Private Company Limited By Shares,15/01/2018,"Saint Stephen'S Green House, Earlsfort Terrace , Dublin 2",Dublin,Leinster,Ireland,[6420] Activities Of Holding Companies
MEETYGO LIMITED,Ltd - Private Company Limited By Shares,15/01/2018,"Astor Hall, 4-6 Eden Quay ,Dublin 1",Dublin,Leinster,Ireland,[7022] Business And Other Management Consultancy Activities
ELM CORPORATE CREDIT DESIGNATED ACTIVITY COMPANY,Dac - Designated Activity Company (Limited By Shares),15/01/2018,"2 Grand Canal Square, Grand Canal Harbour ,Dublin 2",Dublin,Leinster,Ireland,[6492] Other Credit Granting
BONIFAY UNLIMITED COMPANY,Ulc - Private Unlimited Company,15/01/2018,"Unit 4 Parkway House, Ballymount Drive ,Dublin 12, D12 Ecr9",Dublin,Leinster,Ireland,[6420] Activities Of Holding Companies
TENAYA UNLIMITED COMPANY,Ulc - Private Unlimited Company,15/01/2018,"Unit 4 Parkway House, Ballymount Drive ,Dublin 12, D12 Ecr9",Dublin,Leinster,Ireland,[6420] Activities Of Holding Companies
TREPITO UNLIMITED COMPANY,Ulc - Private Unlimited Company,15/01/2018,"Unit 4 Parkway House, Ballymount Drive ,Dublin 12, D12 Ecr9",Dublin,Leinster,Ireland,[6420] Activities Of Holding Companies
ATENY UNLIMITED COMPANY,Ulc - Private Unlimited Company,15/01/2018,"Unit 4 Parkway House, Ballymount Drive ,Dublin 12, D12 Ecr9",Dublin,Leinster,Ireland,[6420] Activities Of Holding Companies
IMTIAZ HEALTH CARE LIMITED,Ltd - Private Company Limited By Shares,15/01/2018,"79 The Atrium, Beechwood Court, Stillorgan ,Blackrock,Dublin, A94 D3a0",Dublin,Leinster,Ireland,[8621] General Medical Practice Activities
STILLS AND MOTION PRODUCTIONS LIMITED,Ltd - Private Company Limited By Shares,15/01/2018,"8 Madden Road, Dublin 8 , , ",Dublin,Leinster,Ireland,[7420] Photographic Activities
AMBER DEW LIMITED,Ltd - Private Company Limited By Shares,15/01/2018,"Swords Food Park, Lissenhall ,Swords,Co Dublin",Dublin,Leinster,Ireland,[4618] Agents Specialised In The Sale Of Other Particular Products
JUST COOL MODA LIMITED,Ltd - Private Company Limited By Shares,15/01/2018,"Apartment 233, Cowper Downs ,Rathmines,Dublin 6",Dublin,Leinster,Ireland,"[4616] Agents Involved In The Sale Of Textiles, Clothing, Fur, Footwear And Leather Goods"
FGPO IRELAND GENERAL PARTNER 7 LIMITED,Ltd - Private Company Limited By Shares,15/01/2018,"4th Floor, 76 Baggot Street Lower ,Dublin 2",Dublin,Leinster,Ireland,[6420] Activities Of Holding Companies
VIKING LEASING 40063 DESIGNATED ACTIVITY COMPANY,Dac - Designated Activity Company (Limited By Shares),15/01/2018,"Fourth Floor, 3 George'S Dock, Ifsc ,Dublin 1",Dublin,Leinster,Ireland,[7735] Renting And Leasing Of Air Transport Equipment
LSREF V SARGASSO II DESIGNATED ACTIVITY COMPANY,Dac - Designated Activity Company (Limited By Shares),15/01/2018,"Sixth Floor, Fitzwilliam Court ,Leeson Court, Dublin 2",Dublin,Leinster,Ireland,[6630] Fund Management Activities
CHANÁIL MHÓR SERVICES LIMITED,Ltd - Private Company Limited By Shares,15/01/2018,"15 Clanwilliam Terrace, Dublin 2 , , ",Dublin,Leinster,Ireland,[6910] Legal Activities
GATES IRISH FINANCE UNLIMITED COMPANY,Ulc - Private Unlimited Company,15/01/2018,"2nd Floor, 1-2 Victoria Buildings, Haddington Road , Dublin 4",Dublin,Leinster,Ireland,"[6499] Other Financial Service Activities, Except Insurance And Pension Funding N.E.C."
POB CONSULTING LIMITED,Ltd - Private Company Limited By Shares,15/01/2018,"24 St Gabriels, Cabinteely ,Dublin 18, ",Dublin,Leinster,Ireland,[7022] Business And Other Management Consultancy Activities
CAROLINE SIMONS MUSIC LIMITED,Ltd - Private Company Limited By Shares,15/01/2018,"32 The Coombe, Merchants Quay ,D08 Dy9y, Dublin",Dublin,Leinster,Ireland,[9329] Other Amusement And Recreation Activities
PROMONTORIA (FIELD) DESIGNATED ACTIVITY COMPANY,Dac - Designated Activity Company (Limited By Shares),15/01/2018,"1st Floor, 1-2 Victoria Buildings ,Haddington Road, Dublin 4",Dublin,Leinster,Ireland,"[6499] Other Financial Service Activities, Except Insurance And Pension Funding N.E.C."
TEMPLE BAR DIGITAL LIMITED,Ltd - Private Company Limited By Shares,16/01/2018,"1-5 Crampton Court, Temple Bar ,Dublin 2, ",Dublin,Leinster,Ireland,[6120] Wireless Telecommunications Activities
ALL MEDICAL PROFESSIONALS (EUROPE) LIMITED,Ltd - Private Company Limited By Shares,16/01/2018,"Clifton House Business Centre, Fitzwilliam Street Lower ,Dublin 2, ",Dublin,Leinster,Ireland,[6622] Activities Of Insurance Agents And Brokers
FOX&HOLDORF LIMITED,Ltd - Private Company Limited By Shares,16/01/2018,"Apartment 51, Baltrasna House ,Spencer Dock,North Wall, Dublin 1",Dublin,Leinster,Ireland,[4791] Retail Sale Via Mail Order Houses Or Via Internet
PLACIDWAY LIMITED,Ltd - Private Company Limited By Shares,16/01/2018,"The Brickhouse, Block 1 ,Clanwilliam Court,Mount Street Lower, Dublin 2",Dublin,Leinster,Ireland,[6420] Activities Of Holding Companies
GRATEVALE LIMITED,Ltd - Private Company Limited By Shares,16/01/2018,"Unit 13 The Westway Centre, Ballymount Avenue ,Dublin 12,Ireland",Dublin,Leinster,Ireland,[6420] Activities Of Holding Companies
WISDOMTREE IRELAND LIMITED,Ltd - Private Company Limited By Shares,16/01/2018,"Arthur Cox, 10 Earlsfort Terrace ,Dublin 2., ",Dublin,Leinster,Ireland,"[6499] Other Financial Service Activities, Except Insurance And Pension Funding N.E.C."
SHERIDAN RESOLUTIONS LIMITED,Ltd - Private Company Limited By Shares,16/01/2018,"Suite 9969, 26 Pembroke Street Upper ,Dublin 2, ",Dublin,Leinster,Ireland,[9609] Other Personal Service Activities N.E.C.
DLD ASSET HOLDINGS LIMITED,Ltd - Private Company Limited By Shares,16/01/2018,"80 Drumcondra Road Upper, Dublin 9 ",Dublin,Leinster,Ireland,"[7490] Other Professional, Scientific And Technical Activities N.E.C."
PORTMEDICO AESTHETICS LIMITED,Ltd - Private Company Limited By Shares,16/01/2018,"84 Merrion Square, Dublin 2 ",Dublin,Leinster,Ireland,[8690] Other Human Health Activities
MERRION MEDICAL AESTHETICS LIMITED,Ltd - Private Company Limited By Shares,16/01/2018,"84 Merrion Square South, Dublin 2 ",Dublin,Leinster,Ireland,[8690] Other Human Health Activities
CRITTERS TV DESIGNATED ACTIVITY COMPANY,Dac - Designated Activity Company (Limited By Shares),16/01/2018,"30 Carleton Road, Marino ,Dublin 3",Dublin,Leinster,Ireland,[9329] Other Amusement And Recreation Activities
BLUE BINNACLE LIMITED,Ltd - Private Company Limited By Shares,16/01/2018,"7a Collins Avenue West, Dublin 9 ",Dublin,Leinster,Ireland,[7112] Engineering Activities And Related Technical Consultancy
O'NEILL ARCHITECTS LIMITED,Ltd - Private Company Limited By Shares,16/01/2018,"33 Pembroke Road, Ballsbridge ,Dublin 4, ",Dublin,Leinster,Ireland,[7111] Architectural Activities
MJH AVIATION LIMITED,Ltd - Private Company Limited By Shares,16/01/2018,"Hackettstown, Rush Road ,Skerries,Co. Dublin",Dublin,Leinster,Ireland,"[7490] Other Professional, Scientific And Technical Activities N.E.C."
PDSR DEVELOPMENTS LIMITED,Ltd - Private Company Limited By Shares,16/01/2018,"11 Abbots Grove Park, Knocklyon ,Dublin 16, ",Dublin,Leinster,Ireland,"[6499] Other Financial Service Activities, Except Insurance And Pension Funding N.E.C."
FINAL INNOVATION LIMITED,Ltd - Private Company Limited By Shares,16/01/2018,"Clifton House Office 70, Fitzwilliam Street Lower ,Dublin 2, ",Dublin,Leinster,Ireland,[8299] Other Business Support Service Activities N.E.C.
IAN KELLY GENERAL MAINTENANCE SERVICES LIMITED,Ltd - Private Company Limited By Shares,16/01/2018,"Unit 8, Citylink Business Park, Old Naas Road ,Dublin 12, ",Dublin,Leinster,Ireland,[8122] Other Building And Industrial Cleaning Activities
SHAVES AND FADES LIMITED,Ltd - Private Company Limited By Shares,16/01/2018,"12 Crown Alley, Dublin 2 ",Dublin,Leinster,Ireland,"[7490] Other Professional, Scientific And Technical Activities N.E.C."
SOMERSET ENERGY HOLDINGS LIMITED,Ltd - Private Company Limited By Shares,16/01/2018,"70 Sir John Rogerson'S Quay, Dublin 2",Dublin,Leinster,Ireland,[6420] Activities Of Holding Companies
MAYEAU LIMITED,Ltd - Private Company Limited By Shares,16/01/2018,"7 Richview Villas, Clonskeagh ,Dublin 14",Dublin,Leinster,Ireland,"[4799] Other Retail Sale Not In Stores, Stalls Or Markets"
CAT'S SHAKES LIMITED,Ltd - Private Company Limited By Shares,16/01/2018,"Brookfield Enterprise Centre, Rossfield Avenue ,Dublin 24",Dublin,Leinster,Ireland,[4719] Other Retail Sale In Non-Specialised Stores
KINGFISHER CAPITAL EUROPE DESIGNATED ACTIVITY COMPANY,Dac - Designated Activity Company (Limited By Shares),16/01/2018,"Dun Ri, Cross Avenue, Blackrock ,Co. Dublin, ",Dublin,Leinster,Ireland,[4110] Development Of Building Projects
ROYAL AMUSEMENTS LIMITED,Ltd - Private Company Limited By Shares,16/01/2018,"10 Rehoboth Place, South Circular Road ,Dublin 8",Dublin,Leinster,Ireland,[9329] Other Amusement And Recreation Activities
INIS HOPE LIMITED,Ltd - Private Company Limited By Shares,16/01/2018,"Apartment 501, Building 7, Vantage West ,Central Park,Leopardstown, Dublin 18",Dublin,Leinster,Ireland,"[7490] Other Professional, Scientific And Technical Activities N.E.C."
SERENITY VILLAGE LIMITED,Ltd - Private Company Limited By Shares,16/01/2018,"27 Edenmore Green, Raheny ,Dublin 5",Dublin,Leinster,Ireland,"[4752] Retail Sale Of Hardware, Paints And Glass In Specialised Stores"
"POW WOW FAIR AND EXHIBITION CONSULTANCY, COMPANY LIMITED BY GUARANTEE",Clg - Company Limited By Guarantee,16/01/2018,"Kandoy House, 2 Fairview Strand ,Dublin 3, ",Dublin,Leinster,Ireland,[4789] Retail Sale Via Stalls And Markets Of Other Goods
S.T. SCOTT TAVERNS LIMITED,Ltd - Private Company Limited By Shares,16/01/2018,"140 Capel Street, Dublin 1 ",Dublin,Leinster,Ireland,[5630] Beverage Serving Activities
TYSFJORDEN LIMITED,Ltd - Private Company Limited By Shares,16/01/2018,"Ground Floor, Imbus House, Dublin Airport ,Co. Dublin, ",Dublin,Leinster,Ireland,[7735] Renting And Leasing Of Air Transport Equipment
CLASSLINK LIMITED,Ltd - Private Company Limited By Shares,16/01/2018,"The Black Church, St. Mary'S Place ,Dublin, D07 P4ax",Dublin,Leinster,Ireland,[8560] Educational Support Activities
JB CONSERVATION AND TRAINING INTERNATIONAL LIMITED,Ltd - Private Company Limited By Shares,17/01/2018,"77 Merrion Square, Dublin 02 ,Ireland,Ireland",Dublin,Leinster,Ireland,[7219] Other Research And Experimental Development On Natural Sciences And Engineering
EB ROOFING LIMITED,Ltd - Private Company Limited By Shares,17/01/2018,"22a Newtown Cottages, Malahide Road ,Coolock,Dublin 17",Dublin,Leinster,Ireland,[4120] Construction Of Residential And Non-Residential Buildings
GARY DONNELLY & CO LIMITED,Ltd - Private Company Limited By Shares,17/01/2018,"Salamander Lodge, 80 Sandford Road ,Ranelagh,Dublin 6",Dublin,Leinster,Ireland,"[6920] Accounting, Bookkeeping And Auditing Activities; Tax Consultancy"
C&R BLINDS LIMITED,Ltd - Private Company Limited By Shares,17/01/2018,"13 Kilnamanagh Road, Walkinstown ,Dublin, D12 T3v8",Dublin,Leinster,Ireland,"[7490] Other Professional, Scientific And Technical Activities N.E.C."
AUTOWHEEL SECURITISATION DESIGNATED ACTIVITY COMPANY,Dac - Designated Activity Company (Limited By Shares),17/01/2018,"3rd Floor, Kilmore House, Park Lane ,Spencer Dock, Dublin 1, ",Dublin,Leinster,Ireland,"[6499] Other Financial Service Activities, Except Insurance And Pension Funding N.E.C."
A PLASTIC FREE PLANET LIMITED,Ltd - Private Company Limited By Shares,17/01/2018,"Saint James House, 72 Adelaide Road ,Dublin 2, ",Dublin,Leinster,Ireland,[7021] Public Relations And Communication Activities
POWNALL & HAMPSON (IRELAND) LIMITED,Ltd - Private Company Limited By Shares,17/01/2018,"Greencastle Parade, Coolock ,Dublin 5, ",Dublin,Leinster,Ireland,[4618] Agents Specialised In The Sale Of Other Particular Products
CITYSCAPE GARDENER LIMITED,Ltd - Private Company Limited By Shares,17/01/2018,"204 Ashcroft, Raheny ,Dublin 5, ",Dublin,Leinster,Ireland,[9609] Other Personal Service Activities N.E.C.
STLC EUROPE THIRTEEN LEASING LIMITED,Ltd - Private Company Limited By Shares,17/01/2018,"2 Hume Street, Dublin 2 ",Dublin,Leinster,Ireland,[5110] Passenger Air Transport
VOLOGRAMS LIMITED,Ltd - Private Company Limited By Shares,17/01/2018,"Apartment 26, Block 3/4 ,Gracepark Manor,Drumcondra, Dublin 9",Dublin,Leinster,Ireland,"[5912] Motion Picture, Video And Television Programme Post-Production Activities"
SUPREMA TISSUE LIMITED,Ltd - Private Company Limited By Shares,17/01/2018,"168 South Central, Rockbrook ,Sandyford,Dublin 18, D18 Xe84",Dublin,Leinster,Ireland,[4618] Agents Specialised In The Sale Of Other Particular Products
BLIANA CONSULTANCY LIMITED,Ltd - Private Company Limited By Shares,17/01/2018,"127 Sperrin Road, Drimnagh ,Dublin 12, ",Dublin,Leinster,Ireland,[6202] Computer Consultancy Activities
CRAFTYBEARBREWING LIMITED,Ltd - Private Company Limited By Shares,17/01/2018,"61 Cloncurry House, Spencer Dock ,Dublin 1, ",Dublin,Leinster,Ireland,[1105] Manufacture Of Beer
SAINT-GOBAIN LIFE SCIENCES IRELAND LIMITED,Ltd - Private Company Limited By Shares,17/01/2018,"Unit 2003 Orchard Avenue, Citywest Business Campus ,Dublin 24, ",Dublin,Leinster,Ireland,"[2221] Manufacture Of Plastic Plates, Sheets, Tubes And Profiles"
KNOWLEDGE SEARCH OPTIMISATION LIMITED,Ltd - Private Company Limited By Shares,17/01/2018,"72 Donnybrook Manor, Donnybrook ,Dublin 4,Ireland",Dublin,Leinster,Ireland,[6420] Activities Of Holding Companies
S3 ASIC SEMICONDUCTORS LIMITED,Ltd - Private Company Limited By Shares,17/01/2018,"South County Business Park, Leopardstown, Dublin 18 ",Dublin,Leinster,Ireland,[7112] Engineering Activities And Related Technical Consultancy
KATECH SOFTWARE LIMITED,Ltd - Private Company Limited By Shares,17/01/2018,"Guinness Enterprise Centre, Taylor'S Lane ,Dublin 8, ",Dublin,Leinster,Ireland,"[7490] Other Professional, Scientific And Technical Activities N.E.C."
GALLADEN LIMITED,Ltd - Private Company Limited By Shares,17/01/2018,"53 Botanic Avenue, Glasnevin ,Dublin 9, ",Dublin,Leinster,Ireland,[7022] Business And Other Management Consultancy Activities
MWP ENGINEERING SOLUTIONS LIMITED,Ltd - Private Company Limited By Shares,17/01/2018,"34 Beverly Lawn, Knocklyon, Dublin 16 ",Dublin,Leinster,Ireland,[7112] Engineering Activities And Related Technical Consultancy
RACHEL CARMODY DESIGN LIMITED,Ltd - Private Company Limited By Shares,17/01/2018,"1-3 Westmoreland Street, Dublin 2",Dublin,Leinster,Ireland,[7111] Architectural Activities
LEASE TO LEASE LIMITED,Ltd - Private Company Limited By Shares,17/01/2018,"18/19 College Green, Dublin 2 ",Dublin,Leinster,Ireland,[8110] Combined Facilities Support Activities
DOUBLE24SQUARE LIMITED,Ltd - Private Company Limited By Shares,17/01/2018,"13 Classon House, Dundrum Business Park ,Dundrum D14x9f9",Dublin,Leinster,Ireland,[6832] Management Of Real Estate On A Fee Or Contract Basis
PINE MARTEN TECHNOLOGIES LIMITED,Ltd - Private Company Limited By Shares,17/01/2018,"3 Reuben Avenue, Rialto ,Dublin 8, ",Dublin,Leinster,Ireland,[7112] Engineering Activities And Related Technical Consultancy
SAKY ENTERPRISE LIMITED,Ltd - Private Company Limited By Shares,17/01/2018,"Office 29, Clifton House, Fitzwilliam Street Lower ,Dublin 2, ",Dublin,Leinster,Ireland,[4791] Retail Sale Via Mail Order Houses Or Via Internet
GRAB CONSTRUCTION LIMITED,"2 Oakfield, Grangebellew ,Co+427:431",17/01/2018,"31 The Way, Hunter'S Run ,Clonee,Dublin 15",Dublin,Leinster,Ireland,[4399] Other Specialised Construction Activities N.E.C.
STREAMCAST TECHNOLOGIES HOLDINGS LIMITED,Ltd - Private Company Limited By Shares,17/01/2018,"A&L Goodbody, 25-28 North Wall Quay ,Dublin 1, ",Dublin,Leinster,Ireland,[6420] Activities Of Holding Companies
GTLK EUROPE CAPITAL DESIGNATED ACTIVITY COMPANY,Dac - Designated Activity Company (Limited By Shares),17/01/2018,"2nd Floor, 2 Hume Street, Dublin 2 ,D02 Ft82, ",Dublin,Leinster,Ireland,"[6499] Other Financial Service Activities, Except Insurance And Pension Funding N.E.C."
G & N INDUSTRIAL AND COMMERCIAL DOORS LIMITED,Ltd - Private Company Limited By Shares,17/01/2018,"50 Grangemore Road, Donaghmede ,Dublin 13, ",Dublin,Leinster,Ireland,[4329] Other Construction Installation
JFOC HOLDINGS LIMITED,Ltd - Private Company Limited By Shares,17/01/2018,"Unit 11a, Greenmount House, Greenmount Office Park, Harold'S Cross Road ,Dublin 6w, ",Dublin,Leinster,Ireland,[6420] Activities Of Holding Companies
JFOC PROPERTY LIMITED,Ltd - Private Company Limited By Shares,17/01/2018,"Unit 11a, Greenmount House, Greenmount Office Park, Harold'S Cross Road ,Dublin 6w, ",Dublin,Leinster,Ireland,[6420] Activities Of Holding Companies
CELTIC HIGH SCHOOL LIMITED,Ltd - Private Company Limited By Shares,17/01/2018,"Carraig Liath, Commons Lane ,Lusk, Co. Dublin, ",Dublin,Leinster,Ireland,[8560] Educational Support Activities
K&D TOYS LIMITED,Ltd - Private Company Limited By Shares,17/01/2018,"Apt. 46, The Willow, Parkview ,Stepaside, Dublin 18, ",Dublin,Leinster,Ireland,[4791] Retail Sale Via Mail Order Houses Or Via Internet
SIMPLE AND NEW LIMITED,Ltd - Private Company Limited By Shares,17/01/2018,"Company Bureau Formations Limited, The Black Church ,Saint Mary'S Place North,Dublin 7",Dublin,Leinster,Ireland,[5829] Other Software Publishing
ACCUTOOL HOLDINGS LIMITED,Ltd - Private Company Limited By Shares,17/01/2018,"Plato Business Park, Damastown ,Dublin 15, ",Dublin,Leinster,Ireland,[6420] Activities Of Holding Companies
SOLUTION-HAUSTUEREN LIMITED,Ltd - Private Company Limited By Shares,17/01/2018,"Suite 2231, 26/27 Upper Pembroke Street ,Dublin 2",Dublin,Leinster,Ireland,[9609] Other Personal Service Activities N.E.C.
VIRINTA UNLIMITED COMPANY,Ulc - Private Unlimited Company,17/01/2018,"Unit 4 Parkway House, Ballymount Drive ,Dublin 12,D12 Ecr9",Dublin,Leinster,Ireland,[6420] Activities Of Holding Companies
MARTANO UNLIMITED COMPANY,Ulc - Private Unlimited Company,17/01/2018,"Unit 4 Parkway House, Ballymount Drive ,Dublin 12,D12 Ecr9",Dublin,Leinster,Ireland,[6420] Activities Of Holding Companies
ALIBEY UNLIMITED COMPANY,Ulc - Private Unlimited Company,17/01/2018,"Unit 4 Parkway House, Ballymount Drive ,Dublin 12,D12 Ecr9",Dublin,Leinster,Ireland,[6420] Activities Of Holding Companies
SAMOBOR UNLIMITED COMPANY,Ulc - Private Unlimited Company,17/01/2018,"Unit 4 Parkway House, Ballymount Drive ,Dublin 12,D12 Ecr9",Dublin,Leinster,Ireland,[6420] Activities Of Holding Companies
DREAMR WORKSHOP LIMITED,Ltd - Private Company Limited By Shares,18/01/2018,"6 Hunters Meadow, Hunters Wood ,Ballycullen,Dublin 24",Dublin,Leinster,Ireland,[9003] Artistic Creation
FUTURE CITIZEN INSTITUTE LIMITED,Ltd - Private Company Limited By Shares,18/01/2018,"97 St. Stephen'S Green, Dublin 2 ,Ireland, ",Dublin,Leinster,Ireland,[8552] Cultural Education
GARRETH MARTIN FLOORING LIMITED,Ltd - Private Company Limited By Shares,18/01/2018,"7 The Wood, Millbrook Lawns ,Tallaght,Dublin 24",Dublin,Leinster,Ireland,"[7490] Other Professional, Scientific And Technical Activities N.E.C."
HARTES & MINDS CAN LIMITED,Ltd - Private Company Limited By Shares,18/01/2018,"305a Hampton Lodge, Gracepark Road ,Dublin 9, ",Dublin,Leinster,Ireland,[8891] Child Day-Care Activities
CRYPTO NETWORK MARKETING CNM LIMITED,Ltd - Private Company Limited By Shares,18/01/2018,"The Old Station House, 15a Main Street ,Blackrock,Co. Dublin",Dublin,Leinster,Ireland,[4791] Retail Sale Via Mail Order Houses Or Via Internet
SPIRITUELLE VOYANCE LIMITED,Ltd - Private Company Limited By Shares,18/01/2018,"The Old Station House, 15a Main Street ,Blackrock,Co. Dublin",Dublin,Leinster,Ireland,"[7490] Other Professional, Scientific And Technical Activities N.E.C."
ARLO TECHNOLOGIES INTERNATIONAL LIMITED,Ltd - Private Company Limited By Shares,18/01/2018,"70 Sir John Rogerson'S Quay, Dublin 2 ",Dublin,Leinster,Ireland,[6420] Activities Of Holding Companies
SOCIETAL SCIENCES LIMITED,Ltd - Private Company Limited By Shares,18/01/2018,"Science Education, Office 3087 ,Arts Building,Trinity College, Dublin",Dublin,Leinster,Ireland,[7220] Research And Experimental Development On Social Sciences And Humanities
DAME STREET MEDICAL LIMITED,Ltd - Private Company Limited By Shares,18/01/2018,"16 Dame Street, Dublin 2",Dublin,Leinster,Ireland,[8621] General Medical Practice Activities
ROCK STAR VENTURES LIMITED,Ltd - Private Company Limited By Shares,18/01/2018,"8-9 Marino Mart, Fairview ,Dublin 3, ",Dublin,Leinster,Ireland,[6209] Other Information Technology And Computer Service Activities
GLASBAN LIMITED,Ltd - Private Company Limited By Shares,18/01/2018,"Clonmel House Business Centre, Clonmel House ,Forster Way,Swords, Co. Dublin",Dublin,Leinster,Ireland,[6832] Management Of Real Estate On A Fee Or Contract Basis
WEROW LIMITED,Ltd - Private Company Limited By Shares,18/01/2018,"16 Rathmore, The Links ,Station Road,Portmarnock, Co. Dublin",Dublin,Leinster,Ireland,[9311] Operation Of Sports Facilities
CRAFT VISION LIMITED,Ltd - Private Company Limited By Shares,18/01/2018,"169 Rockbrook,, South Central, ,Sandyford, Dublin 18.",Dublin,Leinster,Ireland,[7022] Business And Other Management Consultancy Activities
ZALARIS HR SERVICES IRELAND LIMITED,Ltd - Private Company Limited By Shares,18/01/2018,"Office 6, The Plaza, Greenogue Business Park ,Rathcoole,Co. Dublin, Ireland",Dublin,Leinster,Ireland,[7022] Business And Other Management Consultancy Activities
WANGMANDU CONSULTING LIMITED,Ltd - Private Company Limited By Shares,18/01/2018,"Apartment 38, South Gate Apartments ,Cork Street,Dublin 8",Dublin,Leinster,Ireland,[9609] Other Personal Service Activities N.E.C.
NETFULLY LIMITED,Ltd - Private Company Limited By Shares,18/01/2018,"4 Sandyford Hall Grove, Sandyford ,Dublin 18, ",Dublin,Leinster,Ireland,[9609] Other Personal Service Activities N.E.C.
LEVISA LIMITED,Ltd - Private Company Limited By Shares,18/01/2018,"Apartment 40, Rathmines Town Centre ,Rathmines,Dublin 6",Dublin,Leinster,Ireland,[4771] Retail Sale Of Clothing In Specialised Stores
NOSO VISION LIMITED,Ltd - Private Company Limited By Shares,18/01/2018,"Ellesmere, 10 Tyrconnell Road ,Inchicore,Dublin 8",Dublin,Leinster,Ireland,[1723] Manufacture Of Paper Stationery
FINEURO CAPITAL LIMITED,Ltd - Private Company Limited By Shares,18/01/2018,"Clifton House, Office 29, Fitzwilliam Street Lower ,Dublin D02xt91, ",Dublin,Leinster,Ireland,[4719] Other Retail Sale In Non-Specialised Stores
BARLEY COVE SUNRISE INVESTMENTS LIMITED,Ltd - Private Company Limited By Shares,18/01/2018,"6 Glenbourne Grove, Leopardstown Valley ,Dublin 18, ",Dublin,Leinster,Ireland,[9609] Other Personal Service Activities N.E.C.
LJY STORE LIMITED,Ltd - Private Company Limited By Shares,18/01/2018,"133 Oliver Plunkett Road, Dun Laoghaire ,Co. Dublin, ",Dublin,Leinster,Ireland,"[4711] Retail Sale In Non-Specialised Stores With Food, Beverages Or Tobacco Predominating"
ROB BANNON IT LIMITED,Ltd - Private Company Limited By Shares,18/01/2018,"29 Tynan Hall Park, Kingswood ,Tallaght,Dublin 24",Dublin,Leinster,Ireland,[7112] Engineering Activities And Related Technical Consultancy
MAHI AVIATION LEASING LIMITED,Ltd - Private Company Limited By Shares,18/01/2018,"32 Molesworth Street, Dublin 2 ",Dublin,Leinster,Ireland,"[6499] Other Financial Service Activities, Except Insurance And Pension Funding N.E.C."
PADMA AVIATION LEASING LIMITED,Ltd - Private Company Limited By Shares,18/01/2018,"32 Molesworth Street, Dublin 2 ",Dublin,Leinster,Ireland,"[6499] Other Financial Service Activities, Except Insurance And Pension Funding N.E.C."
XLYTICS INNOVATIONS LIMITED,Ltd - Private Company Limited By Shares,18/01/2018,"1 The Rise, Main Street ,Blanchardstown, Dublin 15",Dublin,Leinster,Ireland,"[6311] Data Processing, Hosting And Related Activities"
PANDU SOLUTIONS LIMITED,Ltd - Private Company Limited By Shares,18/01/2018,"Apartment 85, The Holly ,Rockfield,Dundrum, Dublin 16",Dublin,Leinster,Ireland,[7112] Engineering Activities And Related Technical Consultancy
SWEET & SAVOURY LIMITED,Ltd - Private Company Limited By Shares,18/01/2018,"23 Aungier Street, Dublin 2 ",Dublin,Leinster,Ireland,"[4724] Retail Sale Of Bread, Cakes, Flour Confectionery And Sugar Confectionery In Specialised Stores"
JCECC LIMITED,Ltd - Private Company Limited By Shares,18/01/2018,"Office 29, Clifton House ,Fitzwilliam Street Lower,Dublin 2",Dublin,Leinster,Ireland,[4321] Electrical Installation
VLANDA SAFETY LIMITED,Ltd - Private Company Limited By Shares,18/01/2018,"4 Bishops Orchard, Tyrellstown ,Dublin 15, ",Dublin,Leinster,Ireland,[8299] Other Business Support Service Activities N.E.C.
CHURCHTOWN STORES LIMITED,Ltd - Private Company Limited By Shares,18/01/2018,"46 Rathdown Park, Terenure ,Dublin 6w, ",Dublin,Leinster,Ireland,[5630] Beverage Serving Activities
IRELAND PARTNERSHIP EXHIBITION LIMITED,Ltd - Private Company Limited By Shares,18/01/2018,"8 Crow Street, Temple Bar ,Dublin 2, ",Dublin,Leinster,Ireland,[9609] Other Personal Service Activities N.E.C.
MYSENSEI LIMITED,Ltd - Private Company Limited By Shares,18/01/2018,"Apartment 142, Jervis Place ,Capel Street,Dublin 7",Dublin,Leinster,Ireland,[7022] Business And Other Management Consultancy Activities
WYNZONE LIMITED,Ltd - Private Company Limited By Shares,18/01/2018,"Suite 4 & 5, Bridgewater Business Centre, Conyngham Road ,Islandbridge, Dublin 8,D08 T9nh",Dublin,Leinster,Ireland,"[7740] Leasing Of Intellectual Property And Similar Products, Except Copyrighted Works"
CAREER OMEN LIMITED,Ltd - Private Company Limited By Shares,18/01/2018,"The Black Church, St. Mary'S Place ,Dublin D07 P4ax, ",Dublin,Leinster,Ireland,[8299] Other Business Support Service Activities N.E.C.
PROPELLER RECRUITMENT LIMITED,Ltd - Private Company Limited By Shares,18/01/2018,"22 Mount Argus Court, Harold'S Cross ,Dublin 6w, ",Dublin,Leinster,Ireland,[7810] Activities Of Employment Placement Agencies
ARISTO HOUSEWARES LIMITED,Ltd - Private Company Limited By Shares,18/01/2018,"The Black Church, St. Marys Place ,Dublin, D07 P4ax",Dublin,Leinster,Ireland,[4649] Wholesale Of Other Household Goods
DAVCO ELECTRICAL LIMITED,Ltd - Private Company Limited By Shares,18/01/2018,"22a Farrenboley Cottages, Milltown ,Dublin 14",Dublin,Leinster,Ireland,[4339] Other Building Completion And Finishing
HELEN REDMOND CONSULTANCY LIMITED,Ltd - Private Company Limited By Shares,18/01/2018,"Apt 38 Grange House, Taylors Hill ,Rathfarnham, Dublin 16, ",Dublin,Leinster,Ireland,[7022] Business And Other Management Consultancy Activities
IDF FURNITURE LIMITED,Ltd - Private Company Limited By Shares,18/01/2018,"6 James Terrace, Malahide , Dublin",Dublin,Leinster,Ireland,"[4759] Retail Sale Of Furniture, Lighting Equipment And Other Household Articles In Specialised Stores"
GW FOOD SERVICES LIMITED,Ltd - Private Company Limited By Shares,18/01/2018,"12 Marlfield Place, Kiltipper Way ,Tallaght, Dublin 24",Dublin,Leinster,Ireland,[5621] Event Catering Activities
ITBC LIMITED,Ltd - Private Company Limited By Shares,18/01/2018,"Lismoyle, 181 Fortfield Road ,Terenure Road North,Dublin 6w",Dublin,Leinster,Ireland,[6201] Computer Programming Activities
SUVIDA LIMITED,Ltd - Private Company Limited By Shares,18/01/2018,"15 The Oaks, Stradbrook Hill ,Blackrock,Co. Dublin",Dublin,Leinster,Ireland,"[4799] Other Retail Sale Not In Stores, Stalls Or Markets"
SKIPFULL TWO LIMITED,Ltd - Private Company Limited By Shares,18/01/2018,"Unit 1, Cappogue Industrial Park ,Ballycoolin Road,Dublin 11",Dublin,Leinster,Ireland,[3811] Collection Of Non-Hazardous Waste
AERNOUDTS AGRICULTURE LIMITED,Ltd - Private Company Limited By Shares,18/01/2018,"Kylogue, 147 Swords Road ,Whitehall,Dublin 9",Dublin,Leinster,Ireland,[7022] Business And Other Management Consultancy Activities
CASTLETOWN CAPITAL LIMITED,Ltd - Private Company Limited By Shares,18/01/2018,"93 Saint Stephen'S Green, Dublin 2 ",Dublin,Leinster,Ireland,[6810] Buying And Selling Of Own Real Estate
MEDISTEAD IRELAND LIMITED,Ltd - Private Company Limited By Shares,18/01/2018,"6 Hatch Street Lower, Dublin 2 ",Dublin,Leinster,Ireland,[6209] Other Information Technology And Computer Service Activities
LUNI AVIATION LEASING LIMITED,Ltd - Private Company Limited By Shares,18/01/2018,"32 Molesworth Street, Dublin 2 ,Ireland, ",Dublin,Leinster,Ireland,"[6499] Other Financial Service Activities, Except Insurance And Pension Funding N.E.C."
SOTA AVIATION LEASING LIMITED,Ltd - Private Company Limited By Shares,18/01/2018,"32 Molesworth Street, Dublin 2 ,Ireland, ",Dublin,Leinster,Ireland,"[6499] Other Financial Service Activities, Except Insurance And Pension Funding N.E.C."
ROYAL PVISION LIMITED,Ltd - Private Company Limited By Shares,18/01/2018,"6-9 Trinity Street, Dublin 2 ",Dublin,Leinster,Ireland,[6201] Computer Programming Activities
THE SANG QI LIMITED,Ltd - Private Company Limited By Shares,19/01/2018,"3 Hansted Way, Hansted ,Lucan,Co. Dublin",Dublin,Leinster,Ireland,[5610] Restaurants And Mobile Food Service Activities
RADAR DEVELOPMENTS LIMITED,Ltd - Private Company Limited By Shares,19/01/2018,"C/O Mullen Scully Daly Ltd, Shanowen Business Park ,Shanowen Road,Santry, Dublin 9",Dublin,Leinster,Ireland,[4399] Other Specialised Construction Activities N.E.C.
SHEV SMOKE VENT SERVICES LIMITED,Ltd - Private Company Limited By Shares,19/01/2018,"Unit 1a Shankill Business Centre, Station Road ,Shankill,Co Dublin",Dublin,Leinster,Ireland,"[7490] Other Professional, Scientific And Technical Activities N.E.C."
BANDAN PROPERTIES LIMITED,Ltd - Private Company Limited By Shares,19/01/2018,"25 Herbert Place, Dublin 2 ",Dublin,Leinster,Ireland,[9609] Other Personal Service Activities N.E.C.
ROCKFORD TOWER EUROPE 2 DESIGNATED ACTIVITY COMPANY,Dac - Designated Activity Company (Limited By Shares),19/01/2018,"3rd Floor, Kilmore House, Park Lane ,Spencer Dock, Dublin 1,Ireland",Dublin,Leinster,Ireland,"[6499] Other Financial Service Activities, Except Insurance And Pension Funding N.E.C."
TOG (SMITHS BUILDING) IRELAND LIMITED,Ltd - Private Company Limited By Shares,19/01/2018,"2nd Floor, 1-2 Victoria Buildings, Haddington Road ,Dublin 4, ",Dublin,Leinster,Ireland,[6820] Renting And Operating Of Own Or Leased Real Estate
SPACKO LIMITED,Ltd - Private Company Limited By Shares,19/01/2018,"6-9 Trinity Street, Dublin 2 ",Dublin,Leinster,Ireland,[7021] Public Relations And Communication Activities
I GO OFFSHORE CORPORATE SERVICES LIMITED,Ltd - Private Company Limited By Shares,19/01/2018,"Suite 51, Gec - Taylor'S Lane , Dublin, D08 N9ex",Dublin,Leinster,Ireland,"[6920] Accounting, Bookkeeping And Auditing Activities; Tax Consultancy"
JADE AVIATION (IRELAND) AOE 1 LIMITED,Ltd - Private Company Limited By Shares,19/01/2018,"The Oval, Building One ,Shelbourne Road,Ballsbridge, Dublin 4",Dublin,Leinster,Ireland,[7735] Renting And Leasing Of Air Transport Equipment
SUMMERWELL VENTURE LIMITED,Ltd - Private Company Limited By Shares,19/01/2018,"Mallard Lodge, Lansdowne Village ,Sandymount,Dublin 4",Dublin,Leinster,Ireland,[9609] Other Personal Service Activities N.E.C.
LIGHTHOUSE PACIFIC LIMITED,Ltd - Private Company Limited By Shares,19/01/2018,"Mallard Lodge, Lansdowne Village ,Sandymount,Dublin 4",Dublin,Leinster,Ireland,[9609] Other Personal Service Activities N.E.C.
ARRANDENE MFG (DUBLIN) LIMITED,Ltd - Private Company Limited By Shares,19/01/2018,"Unit 2d, Fingal Bay Business Park ,Balbriggan,Co. Dublin",Dublin,Leinster,Ireland,[4618] Agents Specialised In The Sale Of Other Particular Products
CHARTERED LAND AM LIMITED,Ltd - Private Company Limited By Shares,19/01/2018,"Usher House, Main Street, Dundrum ,Dublin 14, ",Dublin,Leinster,Ireland,[4110] Development Of Building Projects
ARAGVI FINANCE INTERNATIONAL DESIGNATED ACTIVITY COMPANY,Dac - Designated Activity Company (Limited By Shares),19/01/2018,"2nd Floor, Palmerston House, Fenian Street ,Dublin 2, ",Dublin,Leinster,Ireland,"[6499] Other Financial Service Activities, Except Insurance And Pension Funding N.E.C."
CORSER FH LIMITED,Ltd - Private Company Limited By Shares,19/01/2018,"5 Bushy Park Gardens, Rathgar ,Dublin 6, ",Dublin,Leinster,Ireland,[6420] Activities Of Holding Companies
DBDC ONE LIMITED,Ltd - Private Company Limited By Shares,19/01/2018,"Pure Pharmacy Head Office, Baker'S Yard ,Portland Street North,Dublin 1",Dublin,Leinster,Ireland,[4773] Dispensing Chemist In Specialised Stores
DBDC PARENT LIMITED,Ltd - Private Company Limited By Shares,19/01/2018,"Pure Pharmacy Head Office, Baker'S Yard ,Portland Street North,Dublin 1",Dublin,Leinster,Ireland,[6420] Activities Of Holding Companies
SANGUINE VENTURES LIMITED,Ltd - Private Company Limited By Shares,19/01/2018,"116 Belgrove Park, Mount Prospect Lawns ,Clontarf,Dublin 3",Dublin,Leinster,Ireland,[6420] Activities Of Holding Companies
PIKAY REALITY LIMITED,Ltd - Private Company Limited By Shares,19/01/2018,"Clifton House, Office 29, Fitzwilliam Street Lower ,Dublin 2 D02xt9, ",Dublin,Leinster,Ireland,[6201] Computer Programming Activities
MARTINS OFF LICENCE LIMITED,Ltd - Private Company Limited By Shares,19/01/2018,"11 Marino Mart, Dublin 3 , , ",Dublin,Leinster,Ireland,[4725] Retail Sale Of Beverages In Specialised Stores
HOOLIHOME IRELAND LIMITED,Ltd - Private Company Limited By Shares,19/01/2018,"38/39 Baggot Street Lower, Dublin 2 ",Dublin,Leinster,Ireland,[6820] Renting And Operating Of Own Or Leased Real Estate
CAPITOL CONCIERGE (IRELAND) LIMITED,Ltd - Private Company Limited By Shares,19/01/2018,"Bolton House, Aughrim Lane Business Complex , Aughrim Street ,Dublin 7,Ireland",Dublin,Leinster,Ireland,[9609] Other Personal Service Activities N.E.C.
DILUTION SOLUTIONS VENTURES LIMITED,Ltd - Private Company Limited By Shares,19/01/2018,"Linc Innovation Centre,, Institute Of Technology Blanchardstown ,Blanchardstown North Road,Co Dublin D15 Yv78",Dublin,Leinster,Ireland,"[7490] Other Professional, Scientific And Technical Activities N.E.C."
TOP SELECT TRADE LIMITED,Ltd - Private Company Limited By Shares,19/01/2018,"Clifton House, Office 29, Fitzwilliam Street Lower ,Dublin 2 D02xt9, ",Dublin,Leinster,Ireland,[4719] Other Retail Sale In Non-Specialised Stores
SPS CONSULTING & SERVICE LIMITED,Ltd - Private Company Limited By Shares,19/01/2018,"Clifton House, Office 29, Fitzwilliam Street Lower ,Dublin D02xt91, ",Dublin,Leinster,Ireland,[6202] Computer Consultancy Activities
TONY MAY LIMITED,Ltd - Private Company Limited By Shares,19/01/2018,"Glenview House, Swords ,Co Dublin, ",Dublin,Leinster,Ireland,[8010] Private Security Activities
COOLBALLY HOLDINGS LIMITED,Ltd - Private Company Limited By Shares,19/01/2018,"C/O Beechwood Secretarial Limited, Coolbally Holdings ,7/8 Wilton Terrace,Dublin 2",Dublin,Leinster,Ireland,[6420] Activities Of Holding Companies
COOLBALLY CONSULTING LIMITED,Ltd - Private Company Limited By Shares,19/01/2018,"C/O Beechwood Secretarial Limited, Coolbally Consulting ,7/8 Wilton Terrace,Dublin 2",Dublin,Leinster,Ireland,[7022] Business And Other Management Consultancy Activities
COOLBALLY INVESTMENTS LIMITED,Ltd - Private Company Limited By Shares,19/01/2018,"C/O Beechwood Secretarial Limited, Coolbaly Investments ,7/8 Wilton Terrace,Dublin 2",Dublin,Leinster,Ireland,[6419] Other Monetary Intermediation
LAOBAN LIMITED,Ltd - Private Company Limited By Shares,19/01/2018,"The Old Station House, 15a Main Street ,Blackrock,Co. Dublin",Dublin,Leinster,Ireland,[8299] Other Business Support Service Activities N.E.C.
POLYMER TECHNIC COATING LIMITED,Ltd - Private Company Limited By Shares,19/01/2018,"The Old Station House, 15a Main Street ,Blackrock,Co. Dublin",Dublin,Leinster,Ireland,[4399] Other Specialised Construction Activities N.E.C.
IRWIN CATERING SERVICES LIMITED,Ltd - Private Company Limited By Shares,19/01/2018,"64 Boroimhe Aspen, Swords ,Co. Dublin, ",Dublin,Leinster,Ireland,[5610] Restaurants And Mobile Food Service Activities
GOYARD-I DESIGNATED ACTIVITY COMPANY,Dac - Designated Activity Company (Limited By Shares),19/01/2018,"3rd Floor 76 Lower Baggot Street, Dublin 2 , , ",Dublin,Leinster,Ireland,"[6499] Other Financial Service Activities, Except Insurance And Pension Funding N.E.C."
SAS ACTIVE LIFE LIMITED,Ltd - Private Company Limited By Shares,19/01/2018,"13 Kilnamanagh Road, Walkinstown ,Dublin 12,D12 T3v8",Dublin,Leinster,Ireland,[9313] Fitness Facilities
AVOLON AEROSPACE AOE 157 LIMITED,External Company,19/01/2018,"The Oval, Building One ,Shelbourne Road,Ballsbridge, Dublin 4.",Dublin,Leinster,Ireland,[]
JADE AVIATION AOE 2 LIMITED,External Company,19/01/2018,"The Oval, Building One ,Shelbourne Road, Ballsbridge,Dublin 4.",Dublin,Leinster,Ireland,[]
JADE AVIATION AOE 1 LIMITED,External Company,19/01/2018,"The Oval, Building One ,Shelbourne Road, Ballsbridge,Dublin 4.",Dublin,Leinster,Ireland,[]
CASTLE WINTER FILM PRODUCTIONS DESIGNATED ACTIVITY COMPANY,Dac - Designated Activity Company (Limited By Shares),22/01/2018,"71 Dame Street, Dublin 2 , , ",Dublin,Leinster,Ireland,"[5911] Motion Picture, Video And Television Programme Production Activities"
TYBURN OWNERS' MANAGEMENT COMPANY LIMITED BY GUARANTEE,Clg - Company Limited By Guarantee,22/01/2018,"7 Winetavern Street, Dublin 8 ",Dublin,Leinster,Ireland,[6832] Management Of Real Estate On A Fee Or Contract Basis
HOMELAND DAL LIMITED,Ltd - Private Company Limited By Shares,22/01/2018,"8 Sandford Road, Ranelagh ,Dublin 6, ",Dublin,Leinster,Ireland,[6810] Buying And Selling Of Own Real Estate
PRICY LIMITED,Ltd - Private Company Limited By Shares,22/01/2018,"6-9 Trinity Street, Dublin 2 ",Dublin,Leinster,Ireland,[6399] Other Information Service Activities N.E.C.
UWE AHRENS LIMITED,Ltd - Private Company Limited By Shares,22/01/2018,"6-9 Trinity Street, Dublin 2 ",Dublin,Leinster,Ireland,[6399] Other Information Service Activities N.E.C.
WH DISTRIBUTION LIMITED,Ltd - Private Company Limited By Shares,22/01/2018,"90/95 Lagan Road, Dublin Industrial Estate ,Glasnevin,Dublin 11",Dublin,Leinster,Ireland,"[4799] Other Retail Sale Not In Stores, Stalls Or Markets"
WEIGHMORE LIMITED,Ltd - Private Company Limited By Shares,22/01/2018,"Usher House, Main Street, Dundrum ,Dublin 14,Ireland",Dublin,Leinster,Ireland,[6420] Activities Of Holding Companies
ECAMS INNOVATION LIMITED,Ltd - Private Company Limited By Shares,22/01/2018,"Heritage House, Dundrum Office Park ,Dundrum,Dublin 14",Dublin,Leinster,Ireland,[7022] Business And Other Management Consultancy Activities
CME INDUSTRIAL SPECIALIST LIMITED,Ltd - Private Company Limited By Shares,22/01/2018,"Apartment 8, Block 1 ,Clarion Quay,Dublin 1",Dublin,Leinster,Ireland,[7112] Engineering Activities And Related Technical Consultancy
MOROCCO GATE LIMITED,Ltd - Private Company Limited By Shares,22/01/2018,"117 Cork Street, Dublin 8 ",Dublin,Leinster,Ireland,[5610] Restaurants And Mobile Food Service Activities
IBERISSIUM LIMITED,Ltd - Private Company Limited By Shares,22/01/2018,"8 South Great George'S Street, Dublin 2 ",Dublin,Leinster,Ireland,[6202] Computer Consultancy Activities
TRISCAL LIMITED,Ltd - Private Company Limited By Shares,22/01/2018,"25 Castlefield Woods, Clonsilla ,Dublin 15, ",Dublin,Leinster,Ireland,[8621] General Medical Practice Activities
COLLEN INVESTMENT HOLDINGS LIMITED,Ltd - Private Company Limited By Shares,22/01/2018,"Unit 134, The Capel Building ,Mary'S Abbey,Dublin 7",Dublin,Leinster,Ireland,[6420] Activities Of Holding Companies
GLOBAL RISK APPRAISAL AND MANAGEMENT SERVICES LIMITED,Ltd - Private Company Limited By Shares,22/01/2018,"8 Cabra Road, Phibsborough ,Dublin 7, ",Dublin,Leinster,Ireland,[6621] Risk And Damage Evaluation
FARECITI RETAIL LIMITED,Ltd - Private Company Limited By Shares,23/01/2018,"Apartment 63, Kilmore House ,Drynam Crescent,Drynam Hall, Kinsealy, Co. Dublin",Dublin,Leinster,Ireland,[9609] Other Personal Service Activities N.E.C.
ACORN VETERINARY CLINIC LIMITED,Ltd - Private Company Limited By Shares,23/01/2018,"Fermoy Road, Kildorrery ,Co. Cork, ",Dublin,Leinster,Ireland,[7500] Veterinary Activities
VOCONOMY LIMITED,Ltd - Private Company Limited By Shares,23/01/2018,"6th Floor, South Bank House ,Barrow Street,Dublin 4",Dublin,Leinster,Ireland,[7830] Other Human Resources Provision
MARSICAN CONSULTANCY LIMITED,Ltd - Private Company Limited By Shares,23/01/2018,"25 Herbert Place, Dublin 2 ",Dublin,Leinster,Ireland,[9609] Other Personal Service Activities N.E.C.
KERBSIDE DEVELOPMENTS LIMITED,Ltd - Private Company Limited By Shares,23/01/2018,"Belcarra, 11 Glenvar Park ,Blackrock,Co. Dublin",Dublin,Leinster,Ireland,[4110] Development Of Building Projects
SRMI RISK MANAGEMENT LIMITED,Ltd - Private Company Limited By Shares,23/01/2018,"14 Wentworth, Eblana Villas ,Dublin 2, ",Dublin,Leinster,Ireland,[7022] Business And Other Management Consultancy Activities
STEPHEN JAMES MINTON LIMITED,Ltd - Private Company Limited By Shares,23/01/2018,"Goldsmith Hall, Westland Row ,Dublin 2,Ireland",Dublin,Leinster,Ireland,[8560] Educational Support Activities
ELAINE T CLARKE AND CO LIMITED,Ltd - Private Company Limited By Shares,23/01/2018,"122 Dargle Wood, Knocklyon ,Dublin 16, ",Dublin,Leinster,Ireland,[4773] Dispensing Chemist In Specialised Stores
PLATE CAFE LIMITED,Ltd - Private Company Limited By Shares,23/01/2018,"115 Seamount, Booterstown ,Dublin, ",Dublin,Leinster,Ireland,[5610] Restaurants And Mobile Food Service Activities
DEAN FISHBOURNE PAINTING & DECORATING LIMITED,Ltd - Private Company Limited By Shares,23/01/2018,"127 Tymon Crescent, Oldbawn ,Tallaght,Dublin 24",Dublin,Leinster,Ireland,[4334] Painting And Glazing
FISCALNOTE EUROPE LIMITED,Ltd - Private Company Limited By Shares,23/01/2018,"10 Earlsfort Terrace, Dublin 2 ,D02 T380, ",Dublin,Leinster,Ireland,[6420] Activities Of Holding Companies
CYRUSONE IRISH DATACENTRES DUBLIN II LIMITED,Ltd - Private Company Limited By Shares,23/01/2018,"Suite 3, One Earlsfort Centre, Lower Hatch Street ,Dublin 2, ",Dublin,Leinster,Ireland,[4110] Development Of Building Projects
WANCIA TECH LIMITED,Ltd - Private Company Limited By Shares,23/01/2018,"Unit 1 The Old Post Office, Main Street ,Donabate,Co. Dublin",Dublin,Leinster,Ireland,[6120] Wireless Telecommunications Activities
SIGTAX LIMITED,Ltd - Private Company Limited By Shares,23/01/2018,"Unit 1, Old Post Office ,Main Street,Donabate, Co. Dublin",Dublin,Leinster,Ireland,"[6920] Accounting, Bookkeeping And Auditing Activities; Tax Consultancy"
INGLOTHERM LIMITED,Ltd - Private Company Limited By Shares,23/01/2018,"Unit 33 Crag Avenue, Clondalkin Industrial Estate ,Dublin 22, ",Dublin,Leinster,Ireland,[4329] Other Construction Installation
HERMES ACCOUNTANCY LIMITED,Ltd - Private Company Limited By Shares,23/01/2018,"185 Rathmines Road Lower, Dublin 6 ",Dublin,Leinster,Ireland,"[6920] Accounting, Bookkeeping And Auditing Activities; Tax Consultancy"
TQG USA LIMITED,Ltd - Private Company Limited By Shares,23/01/2018,"Unit 111, Citygate Business Centre ,Hills Industrial Estate,Lower Lucan Road, Lucan, Co. Dublin",Dublin,Leinster,Ireland,[9609] Other Personal Service Activities N.E.C.
BLOOMFIELD HOUSE OWNERS MANAGEMENT COMPANY LIMITED BY GUARANTEE,Clg - Company Limited By Guarantee,23/01/2018,"Company Secretarial Department, 44-45 St Stephen'S Green ,Dublin 2, ",Dublin,Leinster,Ireland,[6832] Management Of Real Estate On A Fee Or Contract Basis
TURAS ROTHAR LIMITED,Ltd - Private Company Limited By Shares,23/01/2018,"10 Summer Street North, Dublin 1 ",Dublin,Leinster,Ireland,[6209] Other Information Technology And Computer Service Activities
GREINPLAST EXTERNAL WALL INSULATIONS LIMITED,Ltd - Private Company Limited By Shares,23/01/2018,"Unit 33 Crag Avenue, Clondalkin Industrial Estate ,Dublin 22, ",Dublin,Leinster,Ireland,[4329] Other Construction Installation
SF SEARCH AND CONSULTING LIMITED,Ltd - Private Company Limited By Shares,23/01/2018,"24 Bellevue Avenue, Glenageary ,Co. Dublin, ",Dublin,Leinster,Ireland,[7022] Business And Other Management Consultancy Activities
DATABLOCKS LIMITED,Ltd - Private Company Limited By Shares,23/01/2018,"48 Clareville Road, Dublin 6w",Dublin,Leinster,Ireland,[6209] Other Information Technology And Computer Service Activities
REMI REMOVALS LIMITED,Ltd - Private Company Limited By Shares,23/01/2018,"1 Adamstown Way, Adamstown, Lucan ,Co. Dublin, ",Dublin,Leinster,Ireland,[4942] Removal Services
EPEN PROJECTS (IRL) LIMITED,Ltd - Private Company Limited By Shares,23/01/2018,"38 Monalea Wood, Firhouse ,Dublin 24, ",Dublin,Leinster,Ireland,[7112] Engineering Activities And Related Technical Consultancy
ZESTECH LIMITED,Ltd - Private Company Limited By Shares,23/01/2018,"Russell Brennan Keane, Boole House ,Beech Hill Office Campus,Clonskeagh, Dublin 4",Dublin,Leinster,Ireland,[4618] Agents Specialised In The Sale Of Other Particular Products
PEMBROOKE CONTRACTING LIMITED,Ltd - Private Company Limited By Shares,23/01/2018,"15 Liffey Court, Lucan ,Co. Dublin, ",Dublin,Leinster,Ireland,[4110] Development Of Building Projects
JUST BLINDS DUBLIN LIMITED,Ltd - Private Company Limited By Shares,23/01/2018,"Unit 1b, Robinhood Industrial Estate ,Ballymount,Dublin 22",Dublin,Leinster,Ireland,"[4759] Retail Sale Of Furniture, Lighting Equipment And Other Household Articles In Specialised Stores"
JLK VENTURES LIMITED,Ltd - Private Company Limited By Shares,23/01/2018,"132 Richmond Road, Dublin 3 ",Dublin,Leinster,Ireland,"[4741] Retail Sale Of Computers, Peripheral Units And Software In Specialised Stores"
JADE AVIATION (IRELAND) AOE 2 LIMITED,Ltd - Private Company Limited By Shares,23/01/2018,"The Oval , Building One, Shelbourne Road ,Ballsbridge,Dublin 4",Dublin,Leinster,Ireland,[7735] Renting And Leasing Of Air Transport Equipment
JADE AVIATION (IRELAND) AOE 3 LIMITED,Ltd - Private Company Limited By Shares,23/01/2018,"The Oval Building One, Shelbourne Road ,Ballsbridge,Dublin 4",Dublin,Leinster,Ireland,[7735] Renting And Leasing Of Air Transport Equipment
JADE AVIATION (IRELAND) AOE 4 LIMITED,Ltd - Private Company Limited By Shares,23/01/2018,"The Oval, Building 1, Shelbourne Road ,Ballsbridge,Dublin 4",Dublin,Leinster,Ireland,[7735] Renting And Leasing Of Air Transport Equipment
JADE AVIATION (IRELAND) AOE 5 LIMITED,Ltd - Private Company Limited By Shares,23/01/2018,"The Oval, Building One, Shelbourne Road ,Ballsbridge,Dublin 4",Dublin,Leinster,Ireland,[7735] Renting And Leasing Of Air Transport Equipment
MITCHELL AVIATION INVESTMENT COMPANY DESIGNATED ACTIVITY COMPANY,Dac - Designated Activity Company (Limited By Shares),23/01/2018,"32 Molesworth Street, Dublin 2 ,Ireland, ",Dublin,Leinster,Ireland,"[6499] Other Financial Service Activities, Except Insurance And Pension Funding N.E.C."
EMERALD WISH LIMITED,Ltd - Private Company Limited By Shares,23/01/2018,"50a Rosemount Park Drive, Rosemount Business Park ,Ballycoolin,Dublin 11",Dublin,Leinster,Ireland,[7022] Business And Other Management Consultancy Activities
BUILD 3 FILMS DESIGNATED ACTIVITY COMPANY,Dac - Designated Activity Company (Limited By Shares),23/01/2018,"23 Griffith Court, Marino ,Dublin,D03 K4c1",Dublin,Leinster,Ireland,[9003] Artistic Creation
GREEN FIR CONSULTING LIMITED,Ltd - Private Company Limited By Shares,23/01/2018,"50a Rosemount Park Drive, Rosemount Business Park ,Ballycoolin,Dublin 11",Dublin,Leinster,Ireland,[7022] Business And Other Management Consultancy Activities
DIAMOND AUTO TECHNOLOGIES IRELAND LIMITED,Ltd - Private Company Limited By Shares,23/01/2018,"20 Merrion Road, Ballsbridge ,Dublin 4,Ireland",Dublin,Leinster,Ireland,[6209] Other Information Technology And Computer Service Activities
PATSAFE LIMITED,Ltd - Private Company Limited By Shares,23/01/2018,"65 Newcastle Manor Square, Newcastle ,Co. Dublin, ",Dublin,Leinster,Ireland,[4321] Electrical Installation
EXOTIC CONSTRUCTION AND HOME MAINTENANCE LIMITED,Ltd - Private Company Limited By Shares,23/01/2018,"13 Castlegate Walk, Lucan ,Co. Dublin, ",Dublin,Leinster,Ireland,[4339] Other Building Completion And Finishing
MONICA TOLAN BEAUTY & SKINCARE CLINICS LIMITED,Ltd - Private Company Limited By Shares,23/01/2018,"2 Vauxhall Street, Balbriggan ,Co. Dublin, ",Dublin,Leinster,Ireland,[9602] Hairdressing And Other Beauty Treatment
LA'FUN ENTERTAINMENT LIMITED,Ltd - Private Company Limited By Shares,23/01/2018,"170 Avondale Park, Mulhuddart ,Dublin 15, ",Dublin,Leinster,Ireland,[9001] Performing Arts
AERO K AVIATION IRELAND LIMITED,Ltd - Private Company Limited By Shares,23/01/2018,"2 Grand Canal Square, Grand Canal Harbour ,Dublin, ",Dublin,Leinster,Ireland,[7735] Renting And Leasing Of Air Transport Equipment
NICHE VENTURES LIMITED,Ltd - Private Company Limited By Shares,24/01/2018,"Skybridge House, Corballis Road North ,Dublin Airport,Swords, Co. Dublin",Dublin,Leinster,Ireland,[8690] Other Human Health Activities
RICHBELL BUILDING CONTRACTORS LIMITED,Ltd - Private Company Limited By Shares,24/01/2018,"50 Woodview Park, Castleknock ,Dublin 15, ",Dublin,Leinster,Ireland,[4120] Construction Of Residential And Non-Residential Buildings
META COGNITION LIMITED,Ltd - Private Company Limited By Shares,24/01/2018,"Apartment 39, Tyrone House ,James Joyce Street,Dublin 1",Dublin,Leinster,Ireland,[6201] Computer Programming Activities
ITOUR CHINA LIMITED,Ltd - Private Company Limited By Shares,24/01/2018,"Apartment 39, Citywest Golfing Apartments ,Garters Lane,Saggart, Co. Dublin",Dublin,Leinster,Ireland,[7911] Travel Agency Activities
SPORT MANAGEMENT CONSULTING LIMITED,Ltd - Private Company Limited By Shares,24/01/2018,"54 Parnell Square West, Dublin 1 ",Dublin,Leinster,Ireland,[7022] Business And Other Management Consultancy Activities
ROSIE FILM PRODUCTIONS DESIGNATED ACTIVITY COMPANY,Dac - Designated Activity Company (Limited By Shares),24/01/2018,"21 Mespil Road, Dublin 4 ",Dublin,Leinster,Ireland,"[5911] Motion Picture, Video And Television Programme Production Activities"
MONIKA FILM PRODUCTIONS DESIGNATED ACTIVITY COMPANY,Dac - Designated Activity Company (Limited By Shares),24/01/2018,"The Barracks, 76 Irishtown Road ,Dublin 4, ",Dublin,Leinster,Ireland,"[5911] Motion Picture, Video And Television Programme Production Activities"
AAT INVESTMENT LIMITED,Ltd - Private Company Limited By Shares,24/01/2018,"30 Upper Erne Street, Dublin 2 ,D02e628, ",Dublin,Leinster,Ireland,[7022] Business And Other Management Consultancy Activities
LARBY HOLDINGS LIMITED,Ltd - Private Company Limited By Shares,24/01/2018,"4th Floor, Northblock, Rockfield Medical Campus ,Dundrum, Dublin 16, ",Dublin,Leinster,Ireland,[6420] Activities Of Holding Companies
JOANNE LARBY LIMITED,Ltd - Private Company Limited By Shares,24/01/2018,"4th Floor, Northblock, Rockfield Medical Campus ,Dundrum, Dublin 16, ",Dublin,Leinster,Ireland,[4618] Agents Specialised In The Sale Of Other Particular Products
LARBY FIT LIMITED,Ltd - Private Company Limited By Shares,24/01/2018,"4th Floor, Northblock, Rockfield Medical Campus ,Dundrum, Dublin 16, ",Dublin,Leinster,Ireland,[4771] Retail Sale Of Clothing In Specialised Stores
IRISH DISTRICT ENERGY ASSOCIATION COMPANY LIMITED BY GUARANTEE,Clg - Company Limited By Guarantee,24/01/2018,"151 The Island, Chapelizod ,Dublin 20",Dublin,Leinster,Ireland,"[7490] Other Professional, Scientific And Technical Activities N.E.C."
GLENCAR INVESTMENTS XXI DESIGNATED ACTIVITY COMPANY,Dac - Designated Activity Company (Limited By Shares),24/01/2018,"32 Molesworth Street, Dublin 2 ,Ireland, ",Dublin,Leinster,Ireland,"[6499] Other Financial Service Activities, Except Insurance And Pension Funding N.E.C."
GLENCAR INVESTMENTS XXIII DESIGNATED ACTIVITY COMPANY,Dac - Designated Activity Company (Limited By Shares),24/01/2018,"32 Molesworth Street, Dublin 2 ,Ireland, ",Dublin,Leinster,Ireland,"[6499] Other Financial Service Activities, Except Insurance And Pension Funding N.E.C."
FOREVER LANDSCAPES LIMITED,Ltd - Private Company Limited By Shares,24/01/2018,"40 Warren Avenue, Carpenterstown Road, Castleknock ,Dublin 15",Dublin,Leinster,Ireland,[8130] Landscape Service Activities
EIRBIO LIMITED,Ltd - Private Company Limited By Shares,24/01/2018,"31 Farmhill Park, Goatstown ,Dublin 14, ",Dublin,Leinster,Ireland,[7022] Business And Other Management Consultancy Activities
OAKA LIMITED,Ltd - Private Company Limited By Shares,24/01/2018,"Brambles, Kiltipper Road ,Tallaght, Dublin 24",Dublin,Leinster,Ireland,"[4799] Other Retail Sale Not In Stores, Stalls Or Markets"
HODGESTOWN FARM LIMITED,Ltd - Private Company Limited By Shares,24/01/2018,"Hodgestown, Naul ,Co Dublin, ",Dublin,Leinster,Ireland,[0150] Mixed Farming
DUBLIN CENTRE FOR EUROPEAN STRATEGY LIMITED,Ltd - Private Company Limited By Shares,24/01/2018,"Basement Suite, 75 Merrion Square ,Dublin 2",Dublin,Leinster,Ireland,[7219] Other Research And Experimental Development On Natural Sciences And Engineering
OFFICEDROP LIMITED,Ltd - Private Company Limited By Shares,24/01/2018,"2 Cloister Green, Blackrock ,Co. Dublin",Dublin,Leinster,Ireland,[5320] Other Postal And Courier Activities
MUNDIAL TRAVEL LIMITED,Ltd - Private Company Limited By Shares,24/01/2018,"15 Halliday Square, Arbour Hill ,Dublin 7",Dublin,Leinster,Ireland,[7911] Travel Agency Activities
THE SOCIETY OF FINANCIAL PLANNERS IRELAND COMPANY LIMITED BY GUARANTEE,Clg - Company Limited By Guarantee,24/01/2018,"4 Ormond Quay Upper, Dublin 7 ",Dublin,Leinster,Ireland,[9412] Activities Of Professional Membership Organisations
UTMOST BRANDING LIMITED,Ltd - Private Company Limited By Shares,24/01/2018,"Block 2, Harcourt Centre ,Harcourt Street,Dublin 2",Dublin,Leinster,Ireland,[6629] Other Activities Auxiliary To Insurance And Pension Funding
JUMP GIRLS DESIGNATED ACTIVITY COMPANY,Dac - Designated Activity Company (Limited By Shares),24/01/2018,"Unit B21, Ballymount Corporate Park ,Ballymount Road Upper,Dublin 12",Dublin,Leinster,Ireland,"[5911] Motion Picture, Video And Television Programme Production Activities"
ROYALLY EVER AFTER DESIGNATED ACTIVITY COMPANY,Dac - Designated Activity Company (Limited By Shares),24/01/2018,"Springdale, Lehaunstown ,Cabinteely, Dublin 18",Dublin,Leinster,Ireland,"[5911] Motion Picture, Video And Television Programme Production Activities"
LUX FINANCIER POT LIMITED,Ltd - Private Company Limited By Shares,24/01/2018,"Igo - Suite 51, Gec - Talyors Lane , Dublin, D08 N9ex",Dublin,Leinster,Ireland,[6420] Activities Of Holding Companies
HARVEY NORMAN LEASING (GALWAY) LIMITED,Ltd - Private Company Limited By Shares,24/01/2018,"Harvey Norman, Brent House ,Swords Business Park,Swords, Co. Dublin",Dublin,Leinster,Ireland,[6820] Renting And Operating Of Own Or Leased Real Estate
HARVEY NORMAN LEASING (SLIGO) LIMITED,Ltd - Private Company Limited By Shares,24/01/2018,"Harvey Norman, Brent House ,Swords Business Park,Swords, Co. Dublin",Dublin,Leinster,Ireland,[6820] Renting And Operating Of Own Or Leased Real Estate
PROFESSIONAL ACCOUNTANCY TRAINING LIMITED,Ltd - Private Company Limited By Shares,24/01/2018,"24/28 Tara Street, Dublin 2 ",Dublin,Leinster,Ireland,[8559] Other Education N.E.C.
JT EYEWEAR LIMITED,Ltd - Private Company Limited By Shares,24/01/2018,"The Old Station House, 15a Main Street ,Blackrock,Co. Dublin",Dublin,Leinster,Ireland,[4619] Agents Involved In The Sale Of A Variety Of Goods
MB COACHING AND DEVELOPMENT LIMITED,Ltd - Private Company Limited By Shares,24/01/2018,"The Old Station House, 15a Main Street ,Blackrock,Co. Dublin",Dublin,Leinster,Ireland,[4791] Retail Sale Via Mail Order Houses Or Via Internet
GREENSPAN BUILDING PRODUCTS LIMITED,Ltd - Private Company Limited By Shares,24/01/2018,"Unit 3, Allied Industrial Estate ,Kylemore Road,Dublin 10",Dublin,Leinster,Ireland,[4618] Agents Specialised In The Sale Of Other Particular Products
MJC ACCOUNTING LIMITED,Ltd - Private Company Limited By Shares,24/01/2018,"40 Castle Farm, Shankill ,Dublin 18, ",Dublin,Leinster,Ireland,"[6920] Accounting, Bookkeeping And Auditing Activities; Tax Consultancy"
NEW TECHNOLOGY DEVICES LIMITED,Ltd - Private Company Limited By Shares,24/01/2018,"Unit 3d North Point House, North Point Business Par ,New Mallow Road, Cork, T23 At2p ",Dublin,Leinster,Ireland,"[4799] Other Retail Sale Not In Stores, Stalls Or Markets"
QUALS LIMITED,Ltd - Private Company Limited By Shares,24/01/2018,"71 Tory Square, Waterville ,Blanchardstown, Dublin 15",Dublin,Leinster,Ireland,[7112] Engineering Activities And Related Technical Consultancy
DECON CONTRACTING LIMITED,Ltd - Private Company Limited By Shares,24/01/2018,"6-9 Trinity Street, Dublin 2 ",Dublin,Leinster,Ireland,[4321] Electrical Installation
MOCCABERRY LIMITED,Ltd - Private Company Limited By Shares,24/01/2018,"31 Clearwater Court North, Royal Canal Park ,Ashtown,Dublin 15, D15 Xa52",Dublin,Leinster,Ireland,[3299] Other Manufacturing N.E.C.
HEHIR CONSTRUCTION MANAGEMENT LIMITED,Ltd - Private Company Limited By Shares,24/01/2018,"12a Park Villas, Castleknock ,Dublin 15, ",Dublin,Leinster,Ireland,[7022] Business And Other Management Consultancy Activities
EL BARBERO LIMITED,Ltd - Private Company Limited By Shares,24/01/2018,"203 South Circular Road, Dublin 8  ",Dublin,Leinster,Ireland,[9602] Hairdressing And Other Beauty Treatment
SLJ FINANCE LIMITED,Ltd - Private Company Limited By Shares,24/01/2018,"98 Diswellstown Manor, Castleknock ,Dublin 15, ",Dublin,Leinster,Ireland,[7022] Business And Other Management Consultancy Activities
PLATINUM CAR WASH LIMITED,Ltd - Private Company Limited By Shares,24/01/2018,"2 Woodford, Brewery Road ,Stillorgan,Co. Dublin",Dublin,Leinster,Ireland,[4520] Maintenance And Repair Of Motor Vehicles
CAREY AUDIT TAX ADVISORY LIMITED,Ltd - Private Company Limited By Shares,24/01/2018,"Newgarden, Lisnagry ,Co. Limerick, ",Dublin,Leinster,Ireland,"[6920] Accounting, Bookkeeping And Auditing Activities; Tax Consultancy"
OPTIMUS SEARCH IRELAND LIMITED,Ltd - Private Company Limited By Shares,24/01/2018,"The Black Church, St. Mary'S Place ,Dublin, D07 P4ax",Dublin,Leinster,Ireland,[7810] Activities Of Employment Placement Agencies
TJ POWER FARMS LIMITED,Ltd - Private Company Limited By Shares,24/01/2018,"Clongaddy, Kilmore ,Co. Wexford,Ireland",Dublin,Leinster,Ireland,[0150] Mixed Farming
FITZROVIA CONSULTING LIMITED,Ltd - Private Company Limited By Shares,24/01/2018,"168 South Circular Road, Dublin 8 ",Dublin,Leinster,Ireland,[7022] Business And Other Management Consultancy Activities
CDE-365 TECHNOLOGY LIMITED,Ltd - Private Company Limited By Shares,24/01/2018,"311 Q House, Furze Road ,Sandyford,Dublin, D18 Yv50",Dublin,Leinster,Ireland,[6209] Other Information Technology And Computer Service Activities
BLOCK CLOUD SOLUTIONS LIMITED,Ltd - Private Company Limited By Shares,24/01/2018,"3 Marian Park, Newtown Park Avenue ,Blackrock,Co. Dublin",Dublin,Leinster,Ireland,[6202] Computer Consultancy Activities
EXPROBIZ LIMITED,Ltd - Private Company Limited By Shares,24/01/2018,"Fitzwilliam Business Centre, 26/27 Pembroke Street Upper ,Dublin 2, ",Dublin,Leinster,Ireland,[6209] Other Information Technology And Computer Service Activities
OCHSNER ENGINEERING LIMITED,Ltd - Private Company Limited By Shares,24/01/2018,"The Georgian Collection, 12 Merrion Square North ,Dublin 2, ",Dublin,Leinster,Ireland,[7112] Engineering Activities And Related Technical Consultancy
PAULSTON INVESTMENTS (IRELAND) LIMITED,Ltd - Private Company Limited By Shares,24/01/2018,"39 Mountain View Road, Ranelagh ,Dublin 6, ",Dublin,Leinster,Ireland,[6420] Activities Of Holding Companies
BODYDYNAMICS SANTRY LIMITED,Ltd - Private Company Limited By Shares,24/01/2018,"5 Elm Mount Close, Beaumont ,Dublin 9, ",Dublin,Leinster,Ireland,[9313] Fitness Facilities
EDEN GREEN GLOBAL TECHNOLOGIES LIMITED,Ltd - Private Company Limited By Shares,24/01/2018,"2nd Floor, 1-2 Victoria Buildings ,Haddington Road,Dublin 4",Dublin,Leinster,Ireland,[6420] Activities Of Holding Companies
TRACEMATICS (SALES) LIMITED,Ltd - Private Company Limited By Shares,24/01/2018,"Northwood Court, Northwood Crescent ,Northwood,Santry, Dublin 9",Dublin,Leinster,Ireland,"[6311] Data Processing, Hosting And Related Activities"
RAILFORM LIMITED,Ltd - Private Company Limited By Shares,24/01/2018,"Pigeon House Hotel, Pigeon House Road ,Ringsend,Dublin 4",Dublin,Leinster,Ireland,[4212] Construction Of Railways And Underground Railways
CLONAKILTY CONSULTING LIMITED,Ltd - Private Company Limited By Shares,24/01/2018,"17 Bath Street, Irishtown ,Dublin 4, ",Dublin,Leinster,Ireland,[7022] Business And Other Management Consultancy Activities
JOCKET LIMITED,Ltd - Private Company Limited By Shares,24/01/2018,"Subset, Zion Court, Zion Road ,Rathgar,Dublin 6, D06 Hix6",Dublin,Leinster,Ireland,"[4616] Agents Involved In The Sale Of Textiles, Clothing, Fur, Footwear And Leather Goods"
ISOMETRIC SHADOWS LIMITED,Ltd - Private Company Limited By Shares,24/01/2018,"68 Cavalry House, Clancy Quay ,Islandbridge,Dublin 8",Dublin,Leinster,Ireland,[6202] Computer Consultancy Activities
CPP KILLENAULE LIMITED,Ltd - Private Company Limited By Shares,24/01/2018,"Unit 4, Besser Drive,, Clondalkin Industrial Estate ,Dublin 22, ",Dublin,Leinster,Ireland,[4773] Dispensing Chemist In Specialised Stores
PRISMILLION LIMITED,Ltd - Private Company Limited By Shares,24/01/2018,"5 Fitzwilliam Square East, Dublin 2 ",Dublin,Leinster,Ireland,[7311] Advertising Agencies
SARLON LIMITED,Ltd - Private Company Limited By Shares,24/01/2018,"C/O Avestus Capital Partners, Embassy House ,Ballsbridge,Dublin 4",Dublin,Leinster,Ireland,[6420] Activities Of Holding Companies
T.D HOUSING LIMITED,Ltd - Private Company Limited By Shares,24/01/2018,"6 Lad Lane, Dublin 2 ",Dublin,Leinster,Ireland,[6810] Buying And Selling Of Own Real Estate
MAUKIN LIMITED,Ltd - Private Company Limited By Shares,24/01/2018,"C/O Avestus Capital Partners, Embassy House ,Ballsbridge,Dublin 4",Dublin,Leinster,Ireland,[6420] Activities Of Holding Companies
ZINCWORX LIMITED,Ltd - Private Company Limited By Shares,24/01/2018,"78 Craoibhin Park, Balbriggan ,Co. Dublin, ",Dublin,Leinster,Ireland,[4391] Roofing Activities
JAMES HARDIE TECHNOLOGY HOLDINGS 1 LIMITED,Ltd - Private Company Limited By Shares,24/01/2018,"Europa House, Second Floor, Harcourt Centre, Harcourt Street ,Dublin 2, ",Dublin,Leinster,Ireland,[6420] Activities Of Holding Companies
JAMES HARDIE TECHNOLOGY HOLDINGS 2 LIMITED,Ltd - Private Company Limited By Shares,24/01/2018,"Europa House, Second Floor, Harcourt Centre, Harcourt Street ,Dublin 2, ",Dublin,Leinster,Ireland,[6420] Activities Of Holding Companies
DOGSLOVESAUCE LIMITED,Ltd - Private Company Limited By Shares,26/01/2018,"29 Holywell Road, Donaghmede ,Dublin 13, ",Dublin,Leinster,Ireland,[4618] Agents Specialised In The Sale Of Other Particular Products
Q DIVISION LIMITED,Ltd - Private Company Limited By Shares,26/01/2018,"7 D'Olier Street, Dublin 2 ",Dublin,Leinster,Ireland,[6201] Computer Programming Activities
FANNING CONSULTING LIMITED,Ltd - Private Company Limited By Shares,26/01/2018,"2 Saint Margaret'S Avenue, Pimlico ,Dublin 8, ",Dublin,Leinster,Ireland,"[7490] Other Professional, Scientific And Technical Activities N.E.C."
STATION MANOR OWNER MANAGEMENT COMPANY LIMITED BY GUARANTEE,Clg - Company Limited By Guarantee,26/01/2018,"Suite 3, Earlsfort Centre ,Lower Hatch Street,Dublin 2.",Dublin,Leinster,Ireland,[6832] Management Of Real Estate On A Fee Or Contract Basis
SCHOLARSTOWN WOOD OWNER MANAGEMENT COMPANY LIMITED BY GUARANTEE,Clg - Company Limited By Guarantee,26/01/2018,"Suite 3, Earlsfort Centre ,Lower Hatch Street,Dublin 2",Dublin,Leinster,Ireland,[6832] Management Of Real Estate On A Fee Or Contract Basis
MWCAPITAL LIMITED,Ltd - Private Company Limited By Shares,26/01/2018,"157 Tower Central, Smithfield ,Dublin 7,Ireland",Dublin,Leinster,Ireland,[6420] Activities Of Holding Companies
MOD FIT LIMITED,Ltd - Private Company Limited By Shares,26/01/2018,"Apartment 100, The Cubes 3 ,Beacon South Quarter,Sandyford, Dublin 18",Dublin,Leinster,Ireland,[9313] Fitness Facilities
ARTFX LIMITED,Ltd - Private Company Limited By Shares,26/01/2018,"85c Pigeon House Road, Ringsend ,Dublin 4, ",Dublin,Leinster,Ireland,[9003] Artistic Creation
CRISTINA.HERTEU LIMITED,Ltd - Private Company Limited By Shares,26/01/2018,"Apartment 3, Saint Nicholas House ,129 Church Street,Smithfield, Dublin 7",Dublin,Leinster,Ireland,[9609] Other Personal Service Activities N.E.C.
GLENCAR INVESTMENTS XXII DESIGNATED ACTIVITY COMPANY,Dac - Designated Activity Company (Limited By Shares),26/01/2018,"32 Molesworth Street, Dublin 2 ,Ireland, ",Dublin,Leinster,Ireland,"[6499] Other Financial Service Activities, Except Insurance And Pension Funding N.E.C."
EFFITECH SOLUTIONS LIMITED,Ltd - Private Company Limited By Shares,26/01/2018,"61 Broadford Drive, Ballinteer ,Dublin 16, ",Dublin,Leinster,Ireland,"[6311] Data Processing, Hosting And Related Activities"
TILE MOUNTAIN LIMITED,Ltd - Private Company Limited By Shares,26/01/2018,"4th Floor, Northblock, Rockfield Medical Campus ,Dundrum, Dublin 16, ",Dublin,Leinster,Ireland,"[4752] Retail Sale Of Hardware, Paints And Glass In Specialised Stores"
GOLDEN EAGLE MARKETING LIMITED,Ltd - Private Company Limited By Shares,26/01/2018,"The Black Church, St. Mary'S Place ,Dublin D07 P4ax, ",Dublin,Leinster,Ireland,[8299] Other Business Support Service Activities N.E.C.
GARIMA KANDEL MEMORIAL TRUST (GKMT) COMPANY LIMITED BY GUARANTEE,Clg - Company Limited By Guarantee,26/01/2018,"14 Ballyowen Hall, Ballyowen Lane ,Lucan, Co. Dublin, ",Dublin,Leinster,Ireland,[8899] Other Social Work Activities Without Accommodation N.E.C.
WADENA LIMITED,Ltd - Private Company Limited By Shares,26/01/2018,"60 Saint Peter'S Terrace, Howth ,Co. Dublin, ",Dublin,Leinster,Ireland,[4321] Electrical Installation
KIERAN GRAY ACCOMODATION LIMITED,Ltd - Private Company Limited By Shares,26/01/2018,"113 The Jessop, Charlotte Quay Apartments ,Ringsend Road, Dublin 4, ",Dublin,Leinster,Ireland,[6832] Management Of Real Estate On A Fee Or Contract Basis
J DAWSON SALONS LIMITED,Ltd - Private Company Limited By Shares,26/01/2018,"3 Stanaway Avenue, Crumlin ,Dublin 12, ",Dublin,Leinster,Ireland,[9602] Hairdressing And Other Beauty Treatment
SANCTUARY CONSULTING INTERNATIONAL LIMITED,Ltd - Private Company Limited By Shares,26/01/2018,"The Black Church, St Marys Place ,Dublin 7., ",Dublin,Leinster,Ireland,[8299] Other Business Support Service Activities N.E.C.
ABINT LIMITED,Ltd - Private Company Limited By Shares,26/01/2018,"106b Pembroke Road, Ballsbridge ,Dublin 4, ",Dublin,Leinster,Ireland,[7410] Specialised Design Activities
BARKER FILMS LIMITED,Ltd - Private Company Limited By Shares,26/01/2018,"20 Rugby Road, Ranelagh ,Dublin 6, ",Dublin,Leinster,Ireland,[9003] Artistic Creation
LAYERED CAKE SOLUTIONS LIMITED,Ltd - Private Company Limited By Shares,26/01/2018,"161 Whitecliff, Rathfarnham ,Dublin 16, ",Dublin,Leinster,Ireland,"[7490] Other Professional, Scientific And Technical Activities N.E.C."
A&U ENTREPRENEUR LIMITED,Ltd - Private Company Limited By Shares,26/01/2018,"Milltown Lodge, 26c Churchtown Road Lower ,Dublin 14, ",Dublin,Leinster,Ireland,[4932] Taxi Operation
BASTION IT CONSULTING LIMITED,Ltd - Private Company Limited By Shares,26/01/2018,"Apartment 27, Grand Canal Wharf ,South Dock Road,Dublin 4",Dublin,Leinster,Ireland,[7022] Business And Other Management Consultancy Activities
RUAH TRAVEL LIMITED,Ltd - Private Company Limited By Shares,26/01/2018,"17 Woodbrook Square, Castleknock ,Dublin 15, ",Dublin,Leinster,Ireland,[9319] Other Sports Activities
CLSCC LIMITED,Ltd - Private Company Limited By Shares,26/01/2018,"11 Woodfield Place, Inchicore ,Dublin 10, ",Dublin,Leinster,Ireland,[7112] Engineering Activities And Related Technical Consultancy
CLC FIRE SERVICES LIMITED,Ltd - Private Company Limited By Shares,26/01/2018,"139 Boulevard, Mount Eustace ,Tyrellstown,Dublin 15",Dublin,Leinster,Ireland,"[7490] Other Professional, Scientific And Technical Activities N.E.C."
AHTF (HOLDINGS) LIMITED,Ltd - Private Company Limited By Shares,26/01/2018,"1 Grants Row, Lower Mount Street ,Dublin 2",Dublin,Leinster,Ireland,[6420] Activities Of Holding Companies
HTF INVESTMENTS LIMITED,Ltd - Private Company Limited By Shares,26/01/2018,"1 Grants Row, Lower Mount Street ,Dublin 2",Dublin,Leinster,Ireland,"[6499] Other Financial Service Activities, Except Insurance And Pension Funding N.E.C."
AHTF SOLUTIONS LIMITED,Ltd - Private Company Limited By Shares,26/01/2018,"185 Rathmines Road Lower, Dublin 6 ",Dublin,Leinster,Ireland,"[4612] Agents Involved In The Sale Of Fuels, Ores, Metals And Industrial Chemicals"
AHTF (IP) LIMITED,Ltd - Private Company Limited By Shares,26/01/2018,"185 Rathmines Road Lower, Dublin 6 ",Dublin,Leinster,Ireland,[7022] Business And Other Management Consultancy Activities
GREENFI SYSTEMS LIMITED,Ltd - Private Company Limited By Shares,26/01/2018,"9 Exchange Place, I.F.S.C. ,Dublin 1",Dublin,Leinster,Ireland,[8299] Other Business Support Service Activities N.E.C.
DN SAKURA LIMITED,Ltd - Private Company Limited By Shares,26/01/2018,"First Floor Front, Centrepoint Shopping Centre, Woodview Grove ,Dublin 15,Ireland",Dublin,Leinster,Ireland,"[4639] Non-Specialised Wholesale Of Food, Beverages And Tobacco"
TLGS AT HOME LIMITED,Ltd - Private Company Limited By Shares,26/01/2018,"Ulverton, Ulverton Road ,Dalkey,Co. Dublin",Dublin,Leinster,Ireland,[5610] Restaurants And Mobile Food Service Activities
GCO LUX (INVESTMENT) DESIGNATED ACTIVITY COMPANY,Dac - Designated Activity Company (Limited By Shares),26/01/2018,"4th Floor, 76 Baggot Street Lower ,Dublin 2, ",Dublin,Leinster,Ireland,[6612] Security And Commodity Contracts Brokerage
GCO LUX (ORIGINATION) DESIGNATED ACTIVITY COMPANY,Dac - Designated Activity Company (Limited By Shares),26/01/2018,"4th Floor, 76 Baggot Street Lower ,Dublin 2, ",Dublin,Leinster,Ireland,[6612] Security And Commodity Contracts Brokerage
GCO MULTI-FEEDER (INVESTMENT) DESIGNATED ACTIVITY COMPANY,Dac - Designated Activity Company (Limited By Shares),26/01/2018,"4th Floor, 76 Baggot Street Lower ,Dublin 2, ",Dublin,Leinster,Ireland,[6612] Security And Commodity Contracts Brokerage
TOIP CYBERSECURITY CONSULTANCY LIMITED,Ltd - Private Company Limited By Shares,26/01/2018,"The Black Church, St. Mary'S Place ,Dublin, D07 P4ax",Dublin,Leinster,Ireland,"[6311] Data Processing, Hosting And Related Activities"
AAA IMPEX LIMITED,Ltd - Private Company Limited By Shares,26/01/2018,"20 Harcourt Street, Dublin 1 ",Dublin,Leinster,Ireland,[4719] Other Retail Sale In Non-Specialised Stores
LERA LEARN ENGLISH IN IRELAND LIMITED,Ltd - Private Company Limited By Shares,26/01/2018,"8-9 Marino Mart, Fairview ,Clontarf,Dublin 3 Ireland",Dublin,Leinster,Ireland,[8559] Other Education N.E.C.
EVOLVE DEVELOPMENTS LIMITED,Ltd - Private Company Limited By Shares,26/01/2018,"Colleran Chartered Accountants, Olympic House ,Pleasants Street,Dublin 8",Dublin,Leinster,Ireland,[4120] Construction Of Residential And Non-Residential Buildings
MARCO POLO DEVELOPMENTS LIMITED,Ltd - Private Company Limited By Shares,26/01/2018,"17 Castle Street, Dalkey ,Co. Dublin, ",Dublin,Leinster,Ireland,[4110] Development Of Building Projects
VIRIBUS CONSULTING LIMITED,Ltd - Private Company Limited By Shares,26/01/2018,"34 High Park, Grace Park Road ,Drumcondra,Dublin 9",Dublin,Leinster,Ireland,[7022] Business And Other Management Consultancy Activities
SOLENT HOUSE IRELAND LIMITED,Ltd - Private Company Limited By Shares,26/01/2018,"Unit 113, Citygate Business Centre ,Hills Industrial Estate,Lower Lucan Road, Lucan, Co. Dublin",Dublin,Leinster,Ireland,"[6430] Trusts, Funds And Similar Financial Entities"
THE IRISH SALES ACADEMY LIMITED,Ltd - Private Company Limited By Shares,26/01/2018,"32 Merrion Street Upper, Dublin 2 ",Dublin,Leinster,Ireland,[7022] Business And Other Management Consultancy Activities
ZARACK LIMITED,Ltd - Private Company Limited By Shares,26/01/2018,"Icon Accounting, Columba House ,Lakeshore Drive,Airside Retail Park, Swords, Co. Dublin",Dublin,Leinster,Ireland,[7022] Business And Other Management Consultancy Activities
SAVGIA LIMITED,Ltd - Private Company Limited By Shares,26/01/2018,"Icon Accounting, Columba House ,Lakeshore Drive,Airside Retail Park, Swords, Co. Dublin",Dublin,Leinster,Ireland,[7022] Business And Other Management Consultancy Activities
XENON CONSULTING LIMITED,Ltd - Private Company Limited By Shares,26/01/2018,"Icon Accounting, Columba House ,Lakeshore Drive,Airside Retail Park, Swords, Co. Dublin",Dublin,Leinster,Ireland,[7022] Business And Other Management Consultancy Activities
LIME ONLINE INTERNET SOLUTIONS LIMITED,Ltd - Private Company Limited By Shares,26/01/2018,"45 Olcovar, Dublin Road ,Shankill,Co Dublin D18 Vw18",Dublin,Leinster,Ireland,[8299] Other Business Support Service Activities N.E.C.
KEVIN STANLEY CONTRACTING LIMITED,Ltd - Private Company Limited By Shares,26/01/2018,"Lynwood House, Ballinteer Rd ,Dundrum, Dublin 16,Ireland",Dublin,Leinster,Ireland,[4120] Construction Of Residential And Non-Residential Buildings
MICAMONT LIMITED,Ltd - Private Company Limited By Shares,26/01/2018,"The Black Church, St. Mary'S Place ,Dublin D07 P4ax, ",Dublin,Leinster,Ireland,[6420] Activities Of Holding Companies
SAPPHIRELANE LIMITED,Ltd - Private Company Limited By Shares,26/01/2018,"Third Floor, Marine House ,Clanwilliam Place,Dublin 2",Dublin,Leinster,Ireland,[6420] Activities Of Holding Companies
MODUSBOX LIMITED,Ltd - Private Company Limited By Shares,26/01/2018,"3rd Floor, Kilmore House, Park Lane ,Spencer Dock,Dublin 1",Dublin,Leinster,Ireland,[5829] Other Software Publishing
SAVEPOINT STUDIOS LIMITED,Ltd - Private Company Limited By Shares,26/01/2018,"781 Sarto Park, Bayside ,Dublin 13, D13 P226",Dublin,Leinster,Ireland,[6209] Other Information Technology And Computer Service Activities
SIR MOUSE DESIGNATED ACTIVITY COMPANY,Dac - Designated Activity Company (Limited By Shares),26/01/2018,"Salty Dog Pictures Limited, 186 Barton Road East ,Dundrum, Dublin 14",Dublin,Leinster,Ireland,"[5911] Motion Picture, Video And Television Programme Production Activities"
YABBA DABBA DESIGNATED ACTIVITY COMPANY,Dac - Designated Activity Company (Limited By Shares),26/01/2018,"Salty Dog Pictures Limited, 186 Barton Road East ,Dundrum, Dublin 14",Dublin,Leinster,Ireland,"[5911] Motion Picture, Video And Television Programme Production Activities"
BOEING MOTOR COMPANY LIMITED,Ltd - Private Company Limited By Shares,26/01/2018,"Old Airport Road, Cloghran, Co. Dublin ",Dublin,Leinster,Ireland,[4511] Sale Of Cars And Light Motor Vehicles
RAY RYAN AVIATION SERVICES LIMITED,Ltd - Private Company Limited By Shares,26/01/2018,"53 Drimnagh Road, Drimnagh, Dublin 12 ",Dublin,Leinster,Ireland,[3316] Repair And Maintenance Of Aircraft And Spacecraft
DMD ALWAYS PRECISION PLUMBING LIMITED,Ltd - Private Company Limited By Shares,26/01/2018,"53 Castlefield Park, Clonsilla ,Dublin 15",Dublin,Leinster,Ireland,"[4322] Plumbing, Heat And Air-Conditioning Installation"
TECH WORLD CONNECT LIMITED,Ltd - Private Company Limited By Shares,26/01/2018,"13 Upper Liffey Street, Dublin 1 ",Dublin,Leinster,Ireland,[4778] Other Retail Sale Of New Goods In Specialised Stores
ACCESS HEALTH INFORMATION LIMITED,Ltd - Private Company Limited By Shares,26/01/2018,"Wingfield, 16 Castle Road ,Clontarf,Dublin 3",Dublin,Leinster,Ireland,[8621] General Medical Practice Activities
CRINIGAN MOTOR COMPANY LIMITED,Ltd - Private Company Limited By Shares,26/01/2018,"Lusk House, Station Road ,Lusk,Co. Dublin",Dublin,Leinster,Ireland,[4519] Sale Of Other Motor Vehicles
ELITE FLOORING LIMITED,Ltd - Private Company Limited By Shares,26/01/2018,"69 Abbeywood Avenue, Lucan ,Co. Dublin, ",Dublin,Leinster,Ireland,[4333] Floor And Wall Covering
PHONES CLINIC LIMITED,Ltd - Private Company Limited By Shares,26/01/2018,"27 Church Street, Dundalk ,Co. Louth, ",Dublin,Leinster,Ireland,[6190] Other Telecommunications Activities
PETRICHOR REAL ESTATE LIMITED,Ltd - Private Company Limited By Shares,26/01/2018,"85b Clontarf Road, Dublin 3 ",Dublin,Leinster,Ireland,[6832] Management Of Real Estate On A Fee Or Contract Basis
SOREZE DEVELOPMENTS LIMITED,Ltd - Private Company Limited By Shares,26/01/2018,"Commercial House, Millbank Business Park ,Lucan,Co. Dublin",Dublin,Leinster,Ireland,[4120] Construction Of Residential And Non-Residential Buildings
OAMIZ LIMITED,Ltd - Private Company Limited By Shares,26/01/2018,"8 South Great George'S Street, Dublin 2 ",Dublin,Leinster,Ireland,[7311] Advertising Agencies
LAZARO & HEML LIMITED,Ltd - Private Company Limited By Shares,26/01/2018,"Unit 1 The Old Post Office, Main Street ,Donabate,Co. Dublin",Dublin,Leinster,Ireland,[7022] Business And Other Management Consultancy Activities
EURO INVESTCO PPP IRELAND GP LIMITED,Ltd - Private Company Limited By Shares,26/01/2018,"Macquarie, Connaught House ,1 Burlington Road,Dublin 4",Dublin,Leinster,Ireland,"[6499] Other Financial Service Activities, Except Insurance And Pension Funding N.E.C."
MACQUARIE COMMODITIES TRADING (IRELAND) LIMITED,Ltd - Private Company Limited By Shares,26/01/2018,"First Floor, Connaught House ,1 Burlington Road,Dublin 4",Dublin,Leinster,Ireland,"[6499] Other Financial Service Activities, Except Insurance And Pension Funding N.E.C."
ACTION XTRM DISTRIBUTION LIMITED,Ltd - Private Company Limited By Shares,26/01/2018,"18a Redleaf Business Park, Turvey Avenue ,Donabate,Co Dublin",Dublin,Leinster,Ireland,[9411] Activities Of Business And Employers Membership Organisations
EVEREST ADVENTURE TRAVEL LIMITED,Ltd - Private Company Limited By Shares,26/01/2018,"109 The Pines, Herbert Park Lane ,Ballsbridge,Dublin 4",Dublin,Leinster,Ireland,[7911] Travel Agency Activities
ZAMAL INTERIOR DESIGN LIMITED,Ltd - Private Company Limited By Shares,29/01/2018,"The Black Church, St. Mary'S Place ,Dublin D07 P4ax, ",Dublin,Leinster,Ireland,[7410] Specialised Design Activities
BIOSYNERGY LIMITED,Ltd - Private Company Limited By Shares,29/01/2018,"The Black Church, St. Mary'S Place ,Dublin D07 P4ax, ",Dublin,Leinster,Ireland,[4645] Wholesale Of Perfume And Cosmetics
R&S HAIR CONSULTANTS IRELAND LIMITED,Ltd - Private Company Limited By Shares,29/01/2018,"Priorsgate, 2 Main Street ,Tallaght, Dublin 24, ",Dublin,Leinster,Ireland,[9602] Hairdressing And Other Beauty Treatment
TECHNIMBLE LIMITED,Ltd - Private Company Limited By Shares,29/01/2018,"Parkgate, 22 The Park, Kingswood Heights ,Dublin 24, ",Dublin,Leinster,Ireland,[7022] Business And Other Management Consultancy Activities
VISUAL EFFECTS ASSOCIATION OF IRELAND COMPANY LIMITED BY GUARANTEE,Clg - Company Limited By Guarantee,29/01/2018,"31 Upper Mount Street, Dublin 2 ",Dublin,Leinster,Ireland,"[7490] Other Professional, Scientific And Technical Activities N.E.C."
BEAR HOLDINGS & DEVELOPMENTS LIMITED,Ltd - Private Company Limited By Shares,29/01/2018,"25 Griffeen Glen Vale, Lucan ,Co. Dublin, ",Dublin,Leinster,Ireland,[6420] Activities Of Holding Companies
HOUZZAR LIMITED,Ltd - Private Company Limited By Shares,29/01/2018,"Unit 20b, Beckett Way ,Park West Business Park,Dublin 12",Dublin,Leinster,Ireland,"[7490] Other Professional, Scientific And Technical Activities N.E.C."
MARKET STREET CONSULTANTS LIMITED,Ltd - Private Company Limited By Shares,29/01/2018,"Office 29, Clifton House, Fitzwilliam Street Lower ,Dublin 2, ",Dublin,Leinster,Ireland,[7022] Business And Other Management Consultancy Activities
BALLSY FOOD LIMITED,Ltd - Private Company Limited By Shares,29/01/2018,"Apartment 57, Booterstown Wood ,Booterstown Avenue,Booterstown, Blackrock, Co. Dublin",Dublin,Leinster,Ireland,[5610] Restaurants And Mobile Food Service Activities
CAREY AVIATION MANAGEMENT LIMITED,Ltd - Private Company Limited By Shares,29/01/2018,"139 Belmont Park, Raheny ,Dublin 5, ",Dublin,Leinster,Ireland,"[7490] Other Professional, Scientific And Technical Activities N.E.C."
INFINITE INTERNATIONAL TRANSPORT LIMITED,Ltd - Private Company Limited By Shares,29/01/2018,"41 Hayworth Terrace, Ongar Park ,Dublin 15, ",Dublin,Leinster,Ireland,[4941] Freight Transport By Road
MARTINA YOUNG CATERING CONSULTANCY LIMITED,Ltd - Private Company Limited By Shares,29/01/2018,"13 Classon House, Dundrum Business Park ,Dundrum, D14x9f9",Dublin,Leinster,Ireland,[7022] Business And Other Management Consultancy Activities
INDIAN SPICE RESTAURANT LIMITED,Ltd - Private Company Limited By Shares,29/01/2018,"Apt 1, 567 North Circular Road ,Dublin 1, ",Dublin,Leinster,Ireland,[5610] Restaurants And Mobile Food Service Activities
OFFICELOCATOR IRELAND ONLINE PROPERTY PLATFORM LIMITED,Ltd - Private Company Limited By Shares,29/01/2018,"Unit 2 Aspen Court, Cornelscourt ,Dublin 18, ",Dublin,Leinster,Ireland,[7022] Business And Other Management Consultancy Activities
MSLV LIPS HAIR AND BEAUTY LIMITED,Ltd - Private Company Limited By Shares,29/01/2018,"4 Castlegrange Grove, Clonee ,Dublin 15, ",Dublin,Leinster,Ireland,[9602] Hairdressing And Other Beauty Treatment
SIOBHAN PROUT IPC TRAINING LIMITED,Ltd - Private Company Limited By Shares,29/01/2018,"27 Castle Cove, Malahide ,Co. Dublin, ",Dublin,Leinster,Ireland,[8690] Other Human Health Activities
AIRGEAD AISLING LIMITED,Ltd - Private Company Limited By Shares,29/01/2018,"6 Warrenstown Close, Blanchardstown ,Dublin 15, ",Dublin,Leinster,Ireland,[3240] Manufacture Of Games And Toys
OLGA KRUSH-WHITE TRANSLATION LIMITED,Ltd - Private Company Limited By Shares,29/01/2018,"Apartment 14, Spruce ,Grattan Wood,The Hole In The Wall Road, Dublin 13",Dublin,Leinster,Ireland,[7430] Translation And Interpretation Activities
PML ADVISORY LIMITED,Ltd - Private Company Limited By Shares,29/01/2018,"Apartment 78, The Lansdowne Block ,Pembroke Square,Grand Canal Street Upper, Dublin 4",Dublin,Leinster,Ireland,[7022] Business And Other Management Consultancy Activities
LESS IS MORE WEB DEVELOPMENT LIMITED,Ltd - Private Company Limited By Shares,29/01/2018,"Apartment 35, Temple Place ,Grenville Street,Dublin 1",Dublin,Leinster,Ireland,[6209] Other Information Technology And Computer Service Activities
KILSTIFFAN HOLDINGS LIMITED,Ltd - Private Company Limited By Shares,29/01/2018,"Unit 12, Tolka Valley Business Park, Ballyboggan Road ,Finglas,Dublin 11",Dublin,Leinster,Ireland,[8211] Combined Office Administrative Service Activities
ONESPOT TECHNOLOGY INVESTMENT LIMITED,Ltd - Private Company Limited By Shares,29/01/2018,"Fitzwilliam Business Centre, Suite 106 ,77 Sir John Rogerson'S Quay,Dublin 2",Dublin,Leinster,Ireland,[6420] Activities Of Holding Companies
AMUROL EUROPE LIMITED,Ltd - Private Company Limited By Shares,29/01/2018,"188, Ivy Exchange Granby Place, Parnell Street ,Dublin 1, ",Dublin,Leinster,Ireland,[8299] Other Business Support Service Activities N.E.C.
BCC PORTFOLIO GROUP (IRELAND) LIMITED,Ltd - Private Company Limited By Shares,29/01/2018,"32, Molesworth Street,, Dublin 2",Dublin,Leinster,Ireland,"[6499] Other Financial Service Activities, Except Insurance And Pension Funding N.E.C."
ARBORETUM PROPERTY LIMITED,Ltd - Private Company Limited By Shares,29/01/2018,"88 Harcourt Street, Dublin 2 ,D02 Dk18",Dublin,Leinster,Ireland,[6420] Activities Of Holding Companies
MPM SPECIALIST VEHICLES (IRL) LIMITED,Ltd - Private Company Limited By Shares,29/01/2018,"Rsm Ireland, Trinity House ,Charleston Road,Ranelagh, Dublin 6",Dublin,Leinster,Ireland,[4519] Sale Of Other Motor Vehicles
CUPRITECOVE LIMITED,Ltd - Private Company Limited By Shares,29/01/2018,"The Crescent Building, Northwood Business Park ,Santry,Dublin 9",Dublin,Leinster,Ireland,[6420] Activities Of Holding Companies
HOWLITEMONT LIMITED,Ltd - Private Company Limited By Shares,29/01/2018,"5 Stocking Wood Walk, Stocking Avenue ,Rathfarnham,Dublin 16",Dublin,Leinster,Ireland,[6420] Activities Of Holding Companies
FORMATIONSBUDDY LIMITED,Ltd - Private Company Limited By Shares,29/01/2018,"24 Baggot Street Lower, Dublin 2 ",Dublin,Leinster,Ireland,[7022] Business And Other Management Consultancy Activities
MAZE STUDIOS - SOFTWARE SOLUTIONS AND COMPUTER ANIMATION LIMITED,Ltd - Private Company Limited By Shares,29/01/2018,"Unit 1, Block D Butlers Court ,77 Sir John Rogerson'S Quay,Dublin 2",Dublin,Leinster,Ireland,[6202] Computer Consultancy Activities
XLR8 LIFESTYLE LIMITED,Ltd - Private Company Limited By Shares,29/01/2018,"Kandoy House, 2 Fairview Strand ,Dublin 3, ",Dublin,Leinster,Ireland,[2611] Manufacture Of Electronic Components
SCATON LIMITED,Ltd - Private Company Limited By Shares,29/01/2018,"Flat 2, 2 Saint Pappin Road ,Glasnevin,Dublin 11",Dublin,Leinster,Ireland,[7219] Other Research And Experimental Development On Natural Sciences And Engineering
CRACKED NUT LIMITED,Ltd - Private Company Limited By Shares,29/01/2018,"71 Camden Street Lower, Dublin 2 ",Dublin,Leinster,Ireland,[5629] Other Food Service Activities
SEHAT CRUISES LIMITED,Ltd - Private Company Limited By Shares,29/01/2018,"13 Harcourt Street, Dublin 2 ",Dublin,Leinster,Ireland,[9329] Other Amusement And Recreation Activities
CLIFDEN AVIATION 5 LIMITED,Ltd - Private Company Limited By Shares,29/01/2018,"2 Grand Canal Square, Dublin 2 ",Dublin,Leinster,Ireland,[7735] Renting And Leasing Of Air Transport Equipment
BABY AND ME LIMITED,Ltd - Private Company Limited By Shares,29/01/2018,"The Penthouse, 134/135 Baggot Street Lower ,Dublin 2, ",Dublin,Leinster,Ireland,[8690] Other Human Health Activities
SWEET PLANET LIMITED,Ltd - Private Company Limited By Shares,29/01/2018,"230 Pace Road, Littlepace ,Co. Dublin, ",Dublin,Leinster,Ireland,[5629] Other Food Service Activities
EAST REVERSE PRODUCTIONS LIMITED,Ltd - Private Company Limited By Shares,29/01/2018,"Apartment 65, Newmarket Square ,Ward'S Hill,Dublin 8",Dublin,Leinster,Ireland,[5819] Other Publishing Activities
PAULA MCCARTHY NURSING LEGAL SERVICES LIMITED,Ltd - Private Company Limited By Shares,29/01/2018,"The Gables, Torquay Road ,Foxrock, Dublin",Dublin,Leinster,Ireland,[7022] Business And Other Management Consultancy Activities
D. WALDRON PROJECT CONSULTANCY LIMITED,Ltd - Private Company Limited By Shares,29/01/2018,"49 Chapel Farm Avenue, Lusk ,Co. Dublin, ",Dublin,Leinster,Ireland,[7022] Business And Other Management Consultancy Activities
AZB FUNDING 9 LIMITED,Ltd - Private Company Limited By Shares,29/01/2018,"32, Molesworth Street,, Dublin 2",Dublin,Leinster,Ireland,"[6499] Other Financial Service Activities, Except Insurance And Pension Funding N.E.C."
ABUNDANCE BRINGERS LIMITED,Ltd - Private Company Limited By Shares,29/01/2018,"8-9 Marino Mart, Fairview ,Clontarf,Dublin 3",Dublin,Leinster,Ireland,[4791] Retail Sale Via Mail Order Houses Or Via Internet
PURAMTECH SOFTWARE LIMITED,Ltd - Private Company Limited By Shares,29/01/2018,"3 Mount Garrett Park, Tyrrelstown ,Dublin 15",Dublin,Leinster,Ireland,[6201] Computer Programming Activities
OFFICE OF SUSTAINABLE DESIGN LIMITED,Ltd - Private Company Limited By Shares,29/01/2018,"Third Floor, 121-122 Capel Street ,Dublin 1, D01 V3po",Dublin,Leinster,Ireland,[7410] Specialised Design Activities
ACS AVIATION HOLDINGS LIMITED,Ltd - Private Company Limited By Shares,29/01/2018,"12 Merrion Square, Dublin 2 ,Ireland",Dublin,Leinster,Ireland,[6420] Activities Of Holding Companies
LAUREATE FILM PRODUCTIONS DESIGNATED ACTIVITY COMPANY,Dac - Designated Activity Company Limited By Shares (Licenced Company),29/01/2018,"28 South Frederick Street, Dublin 2 ",Dublin,Leinster,Ireland,"[5911] Motion Picture, Video And Television Programme Production Activities"
NAUTILUS DATA TECHNOLOGIES IRELAND LIMITED,Ltd - Private Company Limited By Shares,29/01/2018,"6th Floor, 2 Grand Canal Square , Dublin 2 ",Dublin,Leinster,Ireland,[6209] Other Information Technology And Computer Service Activities
VICARIOUS VICTORY LIMITED,Ltd - Private Company Limited By Shares,29/01/2018,"8-9 Marino Mart, Fairview ,Clontarf,Dublin 3",Dublin,Leinster,Ireland,[6201] Computer Programming Activities
YHT TRADITIONAL CULTURE EDUCATION LIMITED,Ltd - Private Company Limited By Shares,29/01/2018,"1 Martello Lodge, Martello Road ,Balbriggan,Co. Dublin",Dublin,Leinster,Ireland,[8560] Educational Support Activities
WHW BROTHERS FOCUS LIMITED,Ltd - Private Company Limited By Shares,29/01/2018,"Unit 106, Lagan Road ,Dublin Industrial Estate,Glasnevin, Dublin 11",Dublin,Leinster,Ireland,[9200] Gambling And Betting Activities
FALLON AND BYRNE ASHGROVE LIMITED,Ltd - Private Company Limited By Shares,29/01/2018,"4 The Concourse, Beacon Court ,Dublin 18",Dublin,Leinster,Ireland,[5610] Restaurants And Mobile Food Service Activities
OCUGEN LIMITED,Ltd - Private Company Limited By Shares,29/01/2018,"10 Earlsfort Terrace, Dublin 2 , D02 T380",Dublin,Leinster,Ireland,[6420] Activities Of Holding Companies
DIGITAL ROCKET LIMITED,Ltd - Private Company Limited By Shares,29/01/2018,"26 Temple Gardens, Santry ,Dublin, D09",Dublin,Leinster,Ireland,[6399] Other Information Service Activities N.E.C.
DE ANCHOR BAR LIMITED,Ltd - Private Company Limited By Shares,29/01/2018,"536/538 South Circular Road, Dublin 8 ",Dublin,Leinster,Ireland,[5630] Beverage Serving Activities
SLUA IT CONSULTANTS LIMITED,Ltd - Private Company Limited By Shares,29/01/2018,"28 Somerton, Donabate ,Co. Dublin",Dublin,Leinster,Ireland,[7022] Business And Other Management Consultancy Activities
LITEPLAN FM LIMITED,Ltd - Private Company Limited By Shares,29/01/2018,"41 College Square, Wainsfort Manor Drive ,Terenure,Dublin 6w",Dublin,Leinster,Ireland,[9609] Other Personal Service Activities N.E.C.
BRISMY LIMITED,Ltd - Private Company Limited By Shares,29/01/2018,"8-9 Marino Mart, Fairview ,Clontarf,Dublin 3 Ireland",Dublin,Leinster,Ireland,[4777] Retail Sale Of Watches And Jewellery In Specialised Stores
"MCELVANEY, BRODY PROFESSIONAL DEVELOPMENT LIMITED",Ltd - Private Company Limited By Shares,29/01/2018,"24 Terenure Road East, Rathgar ,Dublin 6, ",Dublin,Leinster,Ireland,[7830] Other Human Resources Provision
BRYERS INTERNATIONAL LAW LIMITED,Ltd - Private Company Limited By Shares,29/01/2018,"Alexandra House, The Sweepstake ,Ballsbridge,Dublin, Do4 C7h2",Dublin,Leinster,Ireland,"[7490] Other Professional, Scientific And Technical Activities N.E.C."
MANEVO LIMITED,Ltd - Private Company Limited By Shares,29/01/2018,"31 Avondale Avenue, Phibsborough, Dublin 7",Dublin,Leinster,Ireland,[7022] Business And Other Management Consultancy Activities
BALTIC REFRIGERATION LIMITED,Ltd - Private Company Limited By Shares,29/01/2018,"43 Fairways, Donabate ,Co. Dublin",Dublin,Leinster,Ireland,[7112] Engineering Activities And Related Technical Consultancy
KKR-JESSELTON HIF CREDIT PARTNERS II DESIGNATED ACTIVITY COMPANY,Dac - Designated Activity Company (Limited By Shares),29/01/2018,"32 Molesworth Street, Dublin 2",Dublin,Leinster,Ireland,"[6499] Other Financial Service Activities, Except Insurance And Pension Funding N.E.C."
FREQUENCY COMMUNICATIONS LIMITED,Ltd - Private Company Limited By Shares,29/01/2018,"76 The Dunes, Portmarnock, Co. Dublin",Dublin,Leinster,Ireland,[6120] Wireless Telecommunications Activities
"GY AVIATION LEASE 1802 CO., LIMITED",Ltd - Private Company Limited By Shares,29/01/2018,"Fourth Floor, 3 George'S Dock ,I.F.S.C, Dublin 1",Dublin,Leinster,Ireland,[7735] Renting And Leasing Of Air Transport Equipment
"GY AVIATION LEASE 1803 CO., LIMITED",Ltd - Private Company Limited By Shares,29/01/2018,"Fourth Floor, 3 George'S Dock ,I.F.S.C, Dublin 1",Dublin,Leinster,Ireland,[7735] Renting And Leasing Of Air Transport Equipment
"GY AVIATION LEASE 1804 CO., LIMITED",Ltd - Private Company Limited By Shares,29/01/2018,"Fourth Floor, 3 George'S Dock ,I.F.S.C, Dublin 1",Dublin,Leinster,Ireland,[7735] Renting And Leasing Of Air Transport Equipment
"GY AVIATION LEASE 1805 CO., LIMITED",Ltd - Private Company Limited By Shares,29/01/2018,"Fourth Floor, 3 George'S Dock ,I.F.S.C, Dublin 1",Dublin,Leinster,Ireland,[7735] Renting And Leasing Of Air Transport Equipment
"GY AVIATION LEASE 1806 CO., LIMITED",Ltd - Private Company Limited By Shares,29/01/2018,"Fourth Floor, 3 George'S Dock ,I.F.S.C, Dublin 1",Dublin,Leinster,Ireland,[7735] Renting And Leasing Of Air Transport Equipment
"GY AVIATION LEASE 1807 CO., LIMITED",Ltd - Private Company Limited By Shares,29/01/2018,"Fourth Floor, 3 George'S Dock ,I.F.S.C, Dublin 1",Dublin,Leinster,Ireland,[7735] Renting And Leasing Of Air Transport Equipment
"GY AVIATION LEASE 1808 CO., LIMITED",Ltd - Private Company Limited By Shares,29/01/2018,"Fourth Floor, 3 George'S Dock ,I.F.S.C, Dublin 1",Dublin,Leinster,Ireland,[7735] Renting And Leasing Of Air Transport Equipment
HFR OPPORTUNITIES DESIGNATED ACTIVITY COMPANY,Dac - Designated Activity Company (Limited By Shares),29/01/2018,"Second Floor, 5 Harbourmaster Place ,Ifsc, Dublin 1",Dublin,Leinster,Ireland,[6612] Security And Commodity Contracts Brokerage
CHARLOTTE HONEYPARK OWNERS' MANAGEMENT COMPANY LIMITED BY GUARANTEE,Clg - Company Limited By Guarantee,29/01/2018,"15 Hogan Place, Dublin 2 ,D02 Dk23",Dublin,Leinster,Ireland,[6832] Management Of Real Estate On A Fee Or Contract Basis
LEONA HONEYPARK OWNERS' MANAGEMENT COMPANY LIMITED BY GUARANTEE,Clg - Company Limited By Guarantee,29/01/2018,"15hogan Place, Dublin 2 ,D02 Dk23",Dublin,Leinster,Ireland,[6832] Management Of Real Estate On A Fee Or Contract Basis
BALDOYLE PARK HOUSE OWNERS' MANAGEMENT COMPANY LIMITED BY GUARANTEE,Clg - Company Limited By Guarantee,29/01/2018,"8 Sandford Road, Ranelagh ,Dublin 6",Dublin,Leinster,Ireland,[6832] Management Of Real Estate On A Fee Or Contract Basis
JUNGLELAND HOLDINGS LIMITED,Ltd - Private Company Limited By Shares,29/01/2018,"17 Cardy Rock Crescent, Balbriggan ,Co. Dublin",Dublin,Leinster,Ireland,"[4615] Agents Involved In The Sale Of Furniture, Household Goods, Hardware And Ironmongery"
RINGSIDE PRODUCTIONS DESIGNATED ACTIVITY COMPANY,Dac - Designated Activity Company (Limited By Shares),29/01/2018,"32 Lombard Street East, Dublin 2 ",Dublin,Leinster,Ireland,"[5911] Motion Picture, Video And Television Programme Production Activities"
"GY AVIATION LEASE 1801 CO., LIMITED",Ltd - Private Company Limited By Shares,29/01/2018,"Fourth Floor, 3 George'S Dock ,I.F.S.C, Dublin 1",Dublin,Leinster,Ireland,[7735] Renting And Leasing Of Air Transport Equipment
MBM TALENT DIRECT LIMITED,Ltd - Private Company Limited By Shares,29/01/2018,"Suite 9906, Unite 1,, 77 Sir John Rogerson'S Quay, ,Dublin 2, Ireland, D02 F291",Dublin,Leinster,Ireland,[7810] Activities Of Employment Placement Agencies
BLAZING PITS LIMITED,Ltd - Private Company Limited By Shares,29/01/2018,"The Cottage, Glassamucky ,Bohernabreena,Dublin 24",Dublin,Leinster,Ireland,[2511] Manufacture Of Metal Structures And Parts Of Structures
NEW CORRIG GLEN HOMES OWNERS' MANAGEMENT COMPANY LIMITED BY GUARANTEE,Clg - Company Limited By Guarantee,29/01/2018,"32 Russell Court, Feltrim Road ,Swords,Co. Dublin",Dublin,Leinster,Ireland,[6832] Management Of Real Estate On A Fee Or Contract Basis
NZUKO ABIA IRELAND,Clg - Company Limited By Guarantee (Licenced Company),29/01/2018,"101 Cian Lea, Swords ,Co. Dublin, ",Dublin,Leinster,Ireland,[8899] Other Social Work Activities Without Accommodation N.E.C.
J.D PREMIER PROPERTY LIMITED,Ltd - Private Company Limited By Shares,29/01/2018,"20 Cedar Park, Ridgewood ,Swords,Co Dublin, K67 X576",Dublin,Leinster,Ireland,[6820] Renting And Operating Of Own Or Leased Real Estate
EXPORT CONSULTING EXPERT LIMITED,Ltd - Private Company Limited By Shares,30/01/2018,"Kandoy House, 2 Fairview Strand ,Fairview, Dublin 3",Dublin,Leinster,Ireland,[4619] Agents Involved In The Sale Of A Variety Of Goods
GC MOTOR SERVICING LIMITED,Ltd - Private Company Limited By Shares,30/01/2018,"136 Meadow Grove, Dundrum ,Dublin 16, ",Dublin,Leinster,Ireland,[4520] Maintenance And Repair Of Motor Vehicles
SKY AIRCRAFT B40699 LIMITED,Ltd - Private Company Limited By Shares,30/01/2018,"Matheson, Block A Riverside Iv ,70 Sir John Rogerson'S Quay, Dublin 2",Dublin,Leinster,Ireland,[7735] Renting And Leasing Of Air Transport Equipment
BALLYOWEN CASTLE YOUTH & COMMUNITY CENTRE COMPANY LIMITED BY GUARANTEE,Clg - Company Limited By Guarantee,30/01/2018,"Ballyowen Community Centre, Ballyowen ,Lucan, Co. Dublin",Dublin,Leinster,Ireland,[9499] Activities Of Other Membership Organisations N.E.C.
LOOCEVILLE COURT & HOUSE OWNERS' MANAGEMENT COMPANY LIMITED BY GUARANTEE,Clg - Company Limited By Guarantee,30/01/2018,"44 Wainsfort Cresent, Terenure ,Dublin 6w",Dublin,Leinster,Ireland,[6832] Management Of Real Estate On A Fee Or Contract Basis
STATES OF SUCCESS LIMITED,Ltd - Private Company Limited By Shares,30/01/2018,"11 Wellington Cottages, Templeogue ,Dublin 6w",Dublin,Leinster,Ireland,[7022] Business And Other Management Consultancy Activities
SWIFT SCAN LIMITED,Ltd - Private Company Limited By Shares,30/01/2018,"29 Fitzwilliam Street Upper, Dublin 2 ",Dublin,Leinster,Ireland,[8622] Specialist Medical Practice Activities
URBAN VENTURES LIMITED,Ltd - Private Company Limited By Shares,30/01/2018,"50a Rosemount Park Drive, Rosemount Business Park ,Ballycoolin,Dublin 11",Dublin,Leinster,Ireland,[7022] Business And Other Management Consultancy Activities
KESTREL HORIZON LIMITED,Ltd - Private Company Limited By Shares,30/01/2018,"50a Rosemount Park Drive, Rosemount Business Park ,Ballycoolin,Dublin 11",Dublin,Leinster,Ireland,[7022] Business And Other Management Consultancy Activities
ROYAL PAPILLON LIMITED,Ltd - Private Company Limited By Shares,30/01/2018,"50a Rosemount Park Drive, Rosemount Business Park ,Ballycoolin,Dublin 11",Dublin,Leinster,Ireland,[7022] Business And Other Management Consultancy Activities
EPG CARGO CARE LIMITED,Ltd - Private Company Limited By Shares,30/01/2018,"The Black Church, St. Mary'S Place ,Dublin D07 P4ax, ",Dublin,Leinster,Ireland,[5224] Cargo Handling
PROTOCOL CARS LIMITED,Ltd - Private Company Limited By Shares,30/01/2018,"1 The Crescent, Spa Hotel Grounds ,Lucan,Co. Dublin",Dublin,Leinster,Ireland,[4511] Sale Of Cars And Light Motor Vehicles
MYLOTTO24 IT PLATFORM LIMITED,Ltd - Private Company Limited By Shares,30/01/2018,"One Spencer Dock, North Wall Quay, Dublin 1 ,Ireland, ",Dublin,Leinster,Ireland,[6209] Other Information Technology And Computer Service Activities
J. TRANT FARM LIMITED,Ltd - Private Company Limited By Shares,30/01/2018,"Keel, High Down Hill ,Newcastle, Co. Dublin",Dublin,Leinster,Ireland,[0162] Support Activities For Animal Production
JUSTIFY PHARMACEUTICAL DESIGNATED ACTIVITY COMPANY,Dac - Designated Activity Company (Limited By Shares),30/01/2018,"Hickey Pharmacies, Unit 3/6/9/12 ,Block 1,Northwood Court, Santry, Dublin 9",Dublin,Leinster,Ireland,[4773] Dispensing Chemist In Specialised Stores
LRH RESOURCES LIMITED,Ltd - Private Company Limited By Shares,30/01/2018,"60-70 Main Street, Oughterad ,Co. Galway, ",Dublin,Leinster,Ireland,[7112] Engineering Activities And Related Technical Consultancy
BOP STAR LIMITED,Ltd - Private Company Limited By Shares,30/01/2018,"Kilmurray, Enfield ,Co. Meath, ",Dublin,Leinster,Ireland,[6399] Other Information Service Activities N.E.C.
QUINNESSENTIAL INFORMATION LIMITED,Ltd - Private Company Limited By Shares,30/01/2018,"32 Beechlawns, Johnswell Road ,Kilkenny, ",Dublin,Leinster,Ireland,[7022] Business And Other Management Consultancy Activities
LURIMA LIMITED,Ltd - Private Company Limited By Shares,30/01/2018,"30 Waterloo Lane, Dublin 4 , , ",Dublin,Leinster,Ireland,[6202] Computer Consultancy Activities
ECHALLIANCE COMPANY LIMITED BY GUARANTEE,Clg - Company Limited By Guarantee,30/01/2018,"13a Ballyhoy Avenue, Raheny ,Dublin 5, ",Dublin,Leinster,Ireland,[8690] Other Human Health Activities
ENNE CREATIVE CONSULTING LIMITED,Ltd - Private Company Limited By Shares,30/01/2018,"Glenara, 19 Kincora Road ,Clontarf, Dublin 3, ",Dublin,Leinster,Ireland,[7022] Business And Other Management Consultancy Activities
TYRONE FORMWORK LIMITED,Ltd - Private Company Limited By Shares,30/01/2018,"The Black Church, St. Mary'S Place ,Dublin D07 P4ax, ",Dublin,Leinster,Ireland,"[2369] Manufacture Of Other Articles Of Concrete, Plaster And Cement"
NORTHWAVES HOLDINGS LIMITED,Ltd - Private Company Limited By Shares,30/01/2018,"4 Cubes, 1 Beacon South Quarter, Sandyford ,Dublin 18, ",Dublin,Leinster,Ireland,[6420] Activities Of Holding Companies
BEATS THERAPEUTICS LIMITED,Ltd - Private Company Limited By Shares,30/01/2018,"4 Cubes, 1 Beacon South Quarter, Sandyford ,Dublin 18, ",Dublin,Leinster,Ireland,[6209] Other Information Technology And Computer Service Activities
SH CONSTRUCTION LIMITED,Ltd - Private Company Limited By Shares,30/01/2018,"C/O Hughes Motors, Palmerstown Business Park ,Palmerstown,Dublin 20",Dublin,Leinster,Ireland,[4110] Development Of Building Projects
SAKUSHIBA LIMITED,Ltd - Private Company Limited By Shares,30/01/2018,"13 Montrose Close, Beaumont ,Dublin 9, ",Dublin,Leinster,Ireland,[5610] Restaurants And Mobile Food Service Activities
ECHEALTH DESIGNATED ACTIVITY COMPANY,Dac - Designated Activity Company (Limited By Shares),30/01/2018,"13a Ballyhoy Avenue, Raheny ,Dublin 5, ",Dublin,Leinster,Ireland,[8690] Other Human Health Activities
SJX MANAGEMENT SERVICES LIMITED,Ltd - Private Company Limited By Shares,30/01/2018,"19 The Park, Hansfield Wood ,The Paddocks,Dublin 15",Dublin,Leinster,Ireland,[4329] Other Construction Installation
CAL INTELLIGENT SPORTS LIMITED,Ltd - Private Company Limited By Shares,30/01/2018,"Apartment 1, Temple Court ,Hogan Place,Dublin 2",Dublin,Leinster,Ireland,[9319] Other Sports Activities
MORENO MEDICAL SERVICES LIMITED,Ltd - Private Company Limited By Shares,30/01/2018,"25 Prospect Meadows, Stocking Lane ,Rathfarnham,Dublin 16",Dublin,Leinster,Ireland,[8621] General Medical Practice Activities
SPRING HOSPITALITY LIMITED,Ltd - Private Company Limited By Shares,30/01/2018,"12 Lower Hatch Street, Dublin 2 ",Dublin,Leinster,Ireland,[7022] Business And Other Management Consultancy Activities
RAVIE SPICE LIMITED,Ltd - Private Company Limited By Shares,30/01/2018,"34 Dorset Street Lower, Dublin 1 ",Dublin,Leinster,Ireland,[5610] Restaurants And Mobile Food Service Activities
FABERLOUS DESIGN LIMITED,Ltd - Private Company Limited By Shares,30/01/2018,"Suite 21, No. 20 Harcourt Street ,Dublin 2, ",Dublin,Leinster,Ireland,"[7490] Other Professional, Scientific And Technical Activities N.E.C."
DWF DUBLIN SECRETARIAL LIMITED,Ltd - Private Company Limited By Shares,30/01/2018,"Dwf Dublin, 5 George'S Dock ,Ifsc,Dublin 1",Dublin,Leinster,Ireland,"[7490] Other Professional, Scientific And Technical Activities N.E.C."
BEACONSFIELD PROPERTIES LIMITED,Ltd - Private Company Limited By Shares,30/01/2018,"49 Woodfield, Rathfarnham ,Dublin 16, ",Dublin,Leinster,Ireland,[6820] Renting And Operating Of Own Or Leased Real Estate
D4 BRAND AND DIGITAL LIMITED,Ltd - Private Company Limited By Shares,30/01/2018,"52 Morehampton Square, Donnybrook ,Dublin 4, ",Dublin,Leinster,Ireland,[6312] Web Portals
FURLONG CARPENTERS LIMITED,Ltd - Private Company Limited By Shares,30/01/2018,"28 Ellensborough Grange, Kiltipper Road ,Dublin 24, ",Dublin,Leinster,Ireland,[4339] Other Building Completion And Finishing
FAST FIX JEWELLERY IRELAND LIMITED,Ltd - Private Company Limited By Shares,30/01/2018,"Fast Fix Jewellery Limited, 18/19 College Green ,Dublin 2, ",Dublin,Leinster,Ireland,[4777] Retail Sale Of Watches And Jewellery In Specialised Stores
H2SOL LIMITED,Ltd - Private Company Limited By Shares,30/01/2018,"1st Floor 61 Saint Assam'S Park, Raheny ,Dublin 5, ",Dublin,Leinster,Ireland,[6419] Other Monetary Intermediation
SAN SHENG EDUCATION LIMITED,Ltd - Private Company Limited By Shares,30/01/2018,"Woodfarm Cottages, Kennelsfort Road Upper ,Palmerstown,Dublin 20",Dublin,Leinster,Ireland,[8552] Cultural Education
HIGHER STUDIES IN ABROAD LIMITED,Ltd - Private Company Limited By Shares,30/01/2018,"34 Earlsfort Meadows, Lucan ,Co. Dublin, ",Dublin,Leinster,Ireland,[8560] Educational Support Activities
AYLESBURY HOMES LIMITED,Ltd - Private Company Limited By Shares,30/01/2018,"66 The Drive, Millbrook Lawns ,Tallaght,Dublin 24",Dublin,Leinster,Ireland,[4120] Construction Of Residential And Non-Residential Buildings
THE PAINTING PROFESSIONALS LIMITED,Ltd - Private Company Limited By Shares,30/01/2018,"55 Coolmine Park, Clonsilla ,Dublin 15",Dublin,Leinster,Ireland,[4334] Painting And Glazing
MWT MOTORS LIMITED,Ltd - Private Company Limited By Shares,30/01/2018,"56 Colduct Park, Clondalkin ,Dublin 22",Dublin,Leinster,Ireland,[4511] Sale Of Cars And Light Motor Vehicles
CASTLEHEATH DEVELOPMENTS LIMITED,Ltd - Private Company Limited By Shares,31/01/2018,"28 Leeson Street Lower, Dublin 2 ",Dublin,Leinster,Ireland,[6810] Buying And Selling Of Own Real Estate
ICG ALTERNATIVE CREDIT (IRELAND) DESIGNATED ACTIVITY COMPANY,Dac - Designated Activity Company (Limited By Shares),31/01/2018,"32 Molesworth Street, Dublin 2 ",Dublin,Leinster,Ireland,"[6499] Other Financial Service Activities, Except Insurance And Pension Funding N.E.C."
GNOMI PUBLISHING LIMITED,Ltd - Private Company Limited By Shares,31/01/2018,"45 Dawson Street, Dublin 2 ",Dublin,Leinster,Ireland,[5920] Sound Recording And Music Publishing Activities
GLEN ROSE OVERSEAS LIMITED,Ltd - Private Company Limited By Shares,31/01/2018,"17 Corrig Road, Sandyford ,Dublin 18, ",Dublin,Leinster,Ireland,[4110] Development Of Building Projects
GLEN ROSE FOREIGN INVESTMENTS LIMITED,Ltd - Private Company Limited By Shares,31/01/2018,"17 Corrig Road, Sandyford ,Dublin 18, ",Dublin,Leinster,Ireland,[4110] Development Of Building Projects
CAYMAN OVERSEAS VENTURE LIMITED,Ltd - Private Company Limited By Shares,31/01/2018,"17 Corrig Road, Sandyford ,Dublin 18, ",Dublin,Leinster,Ireland,[4110] Development Of Building Projects
THE INN KINGS LIMITED,Ltd - Private Company Limited By Shares,31/01/2018,"4 Glenard Avenue, North Circular Road ,Dublin 7, ",Dublin,Leinster,Ireland,[5630] Beverage Serving Activities
LIAM LYNCH CONSTRUCTION LIMITED,Ltd - Private Company Limited By Shares,31/01/2018,"51 Kildonan Avenue, Finglas ,Dublin 11",Dublin,Leinster,Ireland,[4120] Construction Of Residential And Non-Residential Buildings
FAMILY VALUES DESIGNATED ACTIVITY COMPANY,Dac - Designated Activity Company (Limited By Shares),31/01/2018,"3 Meath Square, Dublin 8 ",Dublin,Leinster,Ireland,"[5911] Motion Picture, Video And Television Programme Production Activities"
HORA GAMES LIMITED,Ltd - Private Company Limited By Shares,31/01/2018,"The Black Church, St. Mary'S Place ,Dublin, D07 P4ax",Dublin,Leinster,Ireland,[5829] Other Software Publishing
TRAJECTORY CONSULTING LIMITED,Ltd - Private Company Limited By Shares,31/01/2018,"20 Auburn Grove, Malahide ,Co. Dublin",Dublin,Leinster,Ireland,[7022] Business And Other Management Consultancy Activities
NERAE INNOVATIVE TECHNOLOGY LIMITED,Ltd - Private Company Limited By Shares,31/01/2018,"The Black Church, St. Mary'S Place ,Dublin, D07 P4ax",Dublin,Leinster,Ireland,[5829] Other Software Publishing
JINGSHANG CAPITAL CO. LIMITED,Ltd - Private Company Limited By Shares,31/01/2018,"Karnedy Lodge, Outfarm Lane ,Carpenterstown Road,Castleknock, Dublin 15",Dublin,Leinster,Ireland,[7911] Travel Agency Activities
WATER STATIONS IRELAND LIMITED,Ltd - Private Company Limited By Shares,31/01/2018,"Mardyke Cottage, Strawberry Beds ,Castleknock, Dublin 20",Dublin,Leinster,Ireland,"[3600] Water Collection, Treatment And Supply"
NSC CONSTRUCTION LIMITED,Ltd - Private Company Limited By Shares,31/01/2018,"4 Dunmore Lawn, Kingswood Heights, Dublin 24",Dublin,Leinster,Ireland,[4339] Other Building Completion And Finishing
LAMBOURN DIGITAL LIMITED,Ltd - Private Company Limited By Shares,31/01/2018,"110 Lambourn Park, Clonsilla ,Dublin 15",Dublin,Leinster,Ireland,[7022] Business And Other Management Consultancy Activities
LETTERAGH LIMITED,Ltd - Private Company Limited By Shares,31/01/2018,"108 Q House, Furze Road ,Sandyford, Dublin 18",Dublin,Leinster,Ireland,[6831] Real Estate Agencies
BRIM JK PUBLISHING LIMITED,Ltd - Private Company Limited By Shares,31/01/2018,"8 Castilla Park, Clontarf East ,Dublin 3, ",Dublin,Leinster,Ireland,[5811] Book Publishing
LCI HELICOPTERS TWENTY LIMITED,Ltd - Private Company Limited By Shares,31/01/2018,"Ground Floor, 6 George'S Dock ,I.F.S.C.,Dublin 1",Dublin,Leinster,Ireland,[7735] Renting And Leasing Of Air Transport Equipment
BLK GCO CANADA (INVESTMENT) DESIGNATED ACTIVITY COMPANY,Dac - Designated Activity Company (Limited By Shares),31/01/2018,"4th Floor, 76 Baggot Street Lower ,Dublin 2",Dublin,Leinster,Ireland,[6612] Security And Commodity Contracts Brokerage
BLK GCO (INVESTMENT) DESIGNATED ACTIVITY COMPANY,Dac - Designated Activity Company (Limited By Shares),31/01/2018,"4th Floor, 76 Baggot Street Lower ,Dublin 2",Dublin,Leinster,Ireland,[6612] Security And Commodity Contracts Brokerage
SOFTMOGUL EUROPE LIMITED,Ltd - Private Company Limited By Shares,31/01/2018,"Office 29, Clifton House ,Fitzwilliam Street Lower, Dublin 2",Dublin,Leinster,Ireland,[5590] Other Accommodation
WHITE CEILING PROPERTY HOLDINGS LIMITED,Ltd - Private Company Limited By Shares,31/01/2018,"18 Llewellyn Close, Rathfarnham ,Dublin 16",Dublin,Leinster,Ireland,[7022] Business And Other Management Consultancy Activities
PARATEK IRELAND LIMITED,Ltd - Private Company Limited By Shares,31/01/2018,"25-28 North Wall Quay, Ifsc ,Dublin 1",Dublin,Leinster,Ireland,[2110] Manufacture Of Basic Pharmaceutical Products
D-ALIVE-A LIMITED,Ltd - Private Company Limited By Shares,31/01/2018,"6 Castlegate Walk, Adamstown ,Lucan, Co Dublin",Dublin,Leinster,Ireland,[8299] Other Business Support Service Activities N.E.C.
GENERAL AUTOPARTES LIMITED,Ltd - Private Company Limited By Shares,31/01/2018,"The Old Station House, 15a Main Street ,Blackrock, Co. Dublin",Dublin,Leinster,Ireland,[4532] Retail Trade Of Motor Vehicle Parts And Accessories
LOCRIS INVENTORY SYSTEMS LIMITED,Ltd - Private Company Limited By Shares,31/01/2018,"14 Mckee Park, Blackhorse Avenue ,Dublin 7",Dublin,Leinster,Ireland,[9609] Other Personal Service Activities N.E.C.
HANIFA DELICE LIMITED,Ltd - Private Company Limited By Shares,31/01/2018,"The Barley House, Cork Street ,Dublin 8",Dublin,Leinster,Ireland,[5610] Restaurants And Mobile Food Service Activities
TOYS FOR THE GROWN UPS LIMITED,Ltd - Private Company Limited By Shares,31/01/2018,"Trans-Atlantic Business Consult Limited, Unit T8 ,Maple Avenue, Stillorgan Industrial Park, Stillorgan, Co. Dublin",Dublin,Leinster,Ireland,[4791] Retail Sale Via Mail Order Houses Or Via Internet
DAGDOUG COFFEE LIMITED,Ltd - Private Company Limited By Shares,31/01/2018,"55 Clanbrassil Street Lower, Dublin 8 ",Dublin,Leinster,Ireland,[5630] Beverage Serving Activities
SAMPA FOODS LIMITED,Ltd - Private Company Limited By Shares,31/01/2018,"515a North Circular Road, Dublin 1 ",Dublin,Leinster,Ireland,[5610] Restaurants And Mobile Food Service Activities
NASS FOODS LIMITED,Ltd - Private Company Limited By Shares,31/01/2018,"10 Castlecurragh Park, Mulhuddart ,Dublin 15",Dublin,Leinster,Ireland,[5610] Restaurants And Mobile Food Service Activities
P & A LOGISTICS LIMITED,Ltd - Private Company Limited By Shares,31/01/2018,"19 Willow Avenue, Clondalkin ,Dublin 22, ",Dublin,Leinster,Ireland,[4941] Freight Transport By Road
BEECHVILLE CONSULTING LIMITED,Ltd - Private Company Limited By Shares,31/01/2018,"138 Grace Park Road, Drumcondra ,Dublin 9, ",Dublin,Leinster,Ireland,[7022] Business And Other Management Consultancy Activities
SAPEREAUDE HOLDINGS LIMITED,Ltd - Private Company Limited By Shares,31/01/2018,"2 Albany Road, Ranelagh ,Dublin,D6, Ireland",Dublin,Leinster,Ireland,[6420] Activities Of Holding Companies
ZACKT LIMITED,Ltd - Private Company Limited By Shares,31/01/2018,"51 Carrigmore Green, Saggart ,Co. Dublin, ",Dublin,Leinster,Ireland,[8610] Hospital Activities
MY BEAUTY SQUAD LIMITED,Ltd - Private Company Limited By Shares,31/01/2018,"3 Hawthorne Place, College Road ,Cork, ",Dublin,Leinster,Ireland,[9602] Hairdressing And Other Beauty Treatment
WILLOW GLEN DEVELOPMENTS OWNERS MANAGEMENT COMPANY LIMITED BY GUARANTEE,Clg - Company Limited By Guarantee,31/01/2018,"Earlsfort Court, 16 Hatch Street Lower ,Dublin 2, ",Dublin,Leinster,Ireland,[9412] Activities Of Professional Membership Organisations
JMACBRICKLAYING LIMITED,Ltd - Private Company Limited By Shares,31/01/2018,"21 Clonuske Park, Hamlet Lane ,Balbriggan, Co. Dublin",Dublin,Leinster,Ireland,[4120] Construction Of Residential And Non-Residential Buildings
GEMINO SYSTEM LIMITED,Ltd - Private Company Limited By Shares,31/01/2018,"17 Lower Mount Street, Dublin 2 ",Dublin,Leinster,Ireland,[4778] Other Retail Sale Of New Goods In Specialised Stores
NEXTPULSE LIMITED,Ltd - Private Company Limited By Shares,31/01/2018,"The Old Station House, 15a Main Street ,Blackrock, Co. Dublin",Dublin,Leinster,Ireland,[6201] Computer Programming Activities
CENTRAL PLAZA TENANT LIMITED,Ltd - Private Company Limited By Shares,31/01/2018,"6th Floor, South Bank House ,Barrow Street, Dublin 4",Dublin,Leinster,Ireland,[8299] Other Business Support Service Activities N.E.C.
SHALDON HOLDINGS LIMITED,Ltd - Private Company Limited By Shares,31/01/2018,"C/O Carney Walsh & Company Ltd, 1 Clonskeagh Square, Clonskeagh, Dublin",Dublin,Leinster,Ireland,[6420] Activities Of Holding Companies
MONTANA & COMPAGNIE LIMITED,Ltd - Private Company Limited By Shares,31/01/2018,"The Old Station House, 15a Main Street ,Blackrock, Co. Dublin",Dublin,Leinster,Ireland,[7010] Activities Of Head Offices
COLLEGE GREEN BEAUTY CENTRE LIMITED,Ltd - Private Company Limited By Shares,31/01/2018,"179, Townsend Street, Dublin 2 ",Dublin,Leinster,Ireland,[9602] Hairdressing And Other Beauty Treatment
OPPORTUNIWEB LIMITED,Ltd - Private Company Limited By Shares,31/01/2018,"6/7 Marine Road, Dun Laoghaire , Co. Dublin",Dublin,Leinster,Ireland,"[6311] Data Processing, Hosting And Related Activities"
LEEVIN SERVICE AND MANAGEMENT LIMITED,Ltd - Private Company Limited By Shares,31/01/2018,"36 North Great Georges Street, Dublin 1 ",Dublin,Leinster,Ireland,[6820] Renting And Operating Of Own Or Leased Real Estate
UPGRADEMYPC LIMITED,Ltd - Private Company Limited By Shares,31/01/2018,"Unit 1, 77 Sir John Rogersons Quay ,Dublin 2",Dublin,Leinster,Ireland,[9609] Other Personal Service Activities N.E.C.
MORROWPOINT PROPERTIES LIMITED,Ltd - Private Company Limited By Shares,31/01/2018,"25 Herbert Place, Dublin 2 ",Dublin,Leinster,Ireland,[9609] Other Personal Service Activities N.E.C.
BLACK VANILLA LIMITED,Ltd - Private Company Limited By Shares,31/01/2018,"13 Baggot Street Upper, Dublin 4 ",Dublin,Leinster,Ireland,[4742] Retail Sale Of Telecommunications Equipment In Specialised Stores
PATTAYA MASSAGE LIMITED,Ltd - Private Company Limited By Shares,31/01/2018,"91, Annamoe Terrace ,Cabra,Dublin 7",Dublin,Leinster,Ireland,[9609] Other Personal Service Activities N.E.C.
PLUS55 SUSHI BAR LIMITED,Ltd - Private Company Limited By Shares,31/01/2018,"143 Parnell Street, Dublin 1 ",Dublin,Leinster,Ireland,[5610] Restaurants And Mobile Food Service Activities
YOUR OTHER LEFT LIMITED,Ltd - Private Company Limited By Shares,31/01/2018,"57a Wainsfort Manor Drive, Terenure , Dubin 6w ",Dublin,Leinster,Ireland,"[5911] Motion Picture, Video And Television Programme Production Activities"
PGGLF ASSET HOLDINGS DESIGNATED ACTIVITY COMPANY,Dac - Designated Activity Company (Limited By Shares),31/01/2018,"3rd Floor, Kilmore House, Park Lane ,Spencer Dock, Dublin 1",Dublin,Leinster,Ireland,"[6499] Other Financial Service Activities, Except Insurance And Pension Funding N.E.C."
PENTA CLO 5 DESIGNATED ACTIVITY COMPANY,Dac - Designated Activity Company (Limited By Shares),31/01/2018,"3rd Floor, Kilmore House, Park Lane, Spencer Dock ,Dublin 1",Dublin,Leinster,Ireland,"[6499] Other Financial Service Activities, Except Insurance And Pension Funding N.E.C."
MAVERICK JAMES LIMITED,Ltd - Private Company Limited By Shares,31/01/2018,"52 St Johns Wood, Clondalkin ,Dublin 22",Dublin,Leinster,Ireland,[6209] Other Information Technology And Computer Service Activities
2XIDEAS EUROPE LIMITED,Ltd - Private Company Limited By Shares,31/01/2018,"40 Fitzwilliam Square West, Dublin 2 ",Dublin,Leinster,Ireland,"[6499] Other Financial Service Activities, Except Insurance And Pension Funding N.E.C."
ARES SENIOR DIRECT LENDING MASTER FUND DESIGNATED ACTIVITY COMPANY,Dac - Designated Activity Company (Limited By Shares),31/01/2018,"3rd Floor 76 Lower Baggot Street, Dublin 2 ",Dublin,Leinster,Ireland,[7022] Business And Other Management Consultancy Activities
ARES SDL TOPCO DESIGNATED ACTIVITY COMPANY,Dac - Designated Activity Company (Limited By Guarantee),31/01/2018,"3rd Floor 76 Lower Baggot Street, Dublin 2 ",Dublin,Leinster,Ireland,[7022] Business And Other Management Consultancy Activities
